{"version": 0.6, "generator": "Overpass API 0.7.62.1 084b4234", "osm3s": {"timestamp_osm_base": "2024-11-20T06:22:15Z", "copyright": "The data included in this document is from www.openstreetmap.org. The data is made available under ODbL."}, "elements": [{"type": "node", "id": 75637333, "lat": 45.7686724, "lon": 4.8361996, "tags": {"amenity": "bar", "contact:city": "Lyon 1er Arrondissement", "contact:housenumber": "12", "contact:phone": "+33 4 78 72 51 68", "contact:postcode": "69001", "contact:street": "Rue Du Griffon", "contact:website": "https://flanruinpub.fr/", "happy_hours": "Tu-Sa 18:00-20:00", "name": "Le Flan' Ruin Pub", "opening_hours": "Mo 18:00-00:00; Tu 18:00-01:00; We 18:00-02:00; Th-Fr 18:00-03:30; Sa 17:30-03:30; Su 16:00-01:00", "outdoor_seating": "no", "ref:FR:SIRET": "81461138000019"}}, {"type": "node", "id": 80078846, "lat": 45.7561747, "lon": 4.84108, "tags": {"amenity": "bar", "brand": "Ninkasi", "brewery": "Ninkasi Blonde;Ninkasi Blanche;Ninkasi Ambr\u00e9e;Ninkasi Noire;Ninkasi Triple;Ninkasi French IPA;Ninkasi Rouge", "contact:city": "Lyon 3eme Arrondissement", "contact:housenumber": "2", "contact:phone": "+33 4 78 95 04 95", "contact:postcode": "69003", "contact:street": "Place Antonin Jutard", "cuisine": "burger", "description": "Happy Hours : 17h00 - 20h00", "diet:vegan": "yes", "diet:vegetarian": "yes", "indoor_seating": "yes", "internet_access": "wlan", "internet_access:fee": "no", "name": "Ninkasi Guilloti\u00e8re", "opening_hours": "Mo-Su 08:00-00:00, 00:00-01:00", "operator": "Ninkasi", "outdoor_seating": "yes", "payment:cash": "yes", "payment:cryptocurrencies": "no", "payment:mastercard": "yes", "payment:visa": "yes", "phone": "+33 4 78 95 04 95", "ref:FR:SIRET": "41091384200093", "smoking": "outside", "survey:date": "2023-08-19", "takeaway": "yes", "website": "https://www.ninkasi.fr/lieux/guillotiere.html"}}, {"type": "node", "id": 80078857, "lat": 45.7544636, "lon": 4.8458006, "tags": {"amenity": "bar", "check_date:opening_hours": "2023-02-13", "name": "Bar de L'Eldorado", "opening_hours:signed": "no", "ref:FR:SIRET": "83052610900012", "wheelchair": "no"}}, {"type": "node", "id": 252156011, "lat": 45.7791637, "lon": 4.8038231, "tags": {"amenity": "bar", "indoor_seating": "yes", "lgbtq": "primary", "name": "Barabaar", "outdoor_seating": "yes", "ref:FR:SIRET": "79386045300026"}}, {"type": "node", "id": 252333268, "lat": 45.7593749, "lon": 4.8274691, "tags": {"amenity": "bar", "name": "Le Bonaparte", "opening_hours": "Mo 07:00-23:00; Tu-Fr 07:00-24:00; Sa-Su 09:00-24:00", "phone": "+33 4 72 77 57 50", "ref:FR:SIRET": "44042748200037", "tobacco": "yes"}}, {"type": "node", "id": 254351764, "lat": 45.7591394, "lon": 4.8358796, "tags": {"amenity": "bar", "contact:city": "Lyon 2eme Arrondissement", "contact:housenumber": "2", "contact:phone": "+33 4 26 28 39 59", "contact:postcode": "69002", "contact:street": "Place De L'Hopital", "name": "Caf\u00e9 H\u00f4tel Dieu", "opening_hours": "Mo 10:30-24:00; Tu-Sa 00:00-01:00, 10:30-24:00; Su 00:00-01:00", "outdoor_seating": "yes", "ref:FR:SIRET": "79926334800010"}}, {"type": "node", "id": 269700755, "lat": 45.7660765, "lon": 4.8310584, "tags": {"amenity": "bar", "brewery": "Carlsberg;Grimbergen;Grimbergen blanche", "name": "Le Bistrot de la P\u00eacherie", "ref:FR:SIRET": "43942902800012", "wheelchair": "no"}}, {"type": "node", "id": 270477183, "lat": 45.7651659, "lon": 4.8545684, "tags": {"amenity": "bar", "cocktails": "yes", "drink:cocktail": "yes", "indoor_seating": "yes", "level": "0", "name": "Pineapple Room", "opening_hours": "Mo 18:00-00:30; Tu-Sa 17:00-01:00", "outdoor_seating": "yes", "ref:FR:SIRET": "98533425900019", "wheelchair": "yes"}}, {"type": "node", "id": 270479921, "lat": 45.7691134, "lon": 4.8557919, "tags": {"amenity": "bar", "contact:city": "Lyon 6eme Arrondissement", "contact:housenumber": "127", "contact:phone": "+33 9 74 64 00 47", "contact:postcode": "69006", "contact:street": "Rue De S\u00e8ze", "name": "Le Biniou Du 6", "opening_hours": "We 18:00-23:59; Th 00:00-01:00, 18:00-23:59; Fr 00:00-02:00, 18:00-23:59; Sa 00:00-03:00, 18:00-23:59; Su 00:00-03:00", "ref:FR:SIRET": "81099068900012", "website": "https://www.privateaser.com/lieu/1692-le-biniou"}}, {"type": "node", "id": 270479936, "lat": 45.7687496, "lon": 4.8568161, "tags": {"amenity": "bar", "contact:city": "Lyon 6eme Arrondissement", "contact:housenumber": "18", "contact:phone": "+33 6 64 10 40 74", "contact:postcode": "69006", "contact:street": "Boulevard Des Brotteaux", "name": "Au F\u00fbt Et \u00c0 Mesure Lyon", "opening_hours": "Mo-Sa 17:00-01:00", "website": "https://www.privateaser.com/lieu/2528-au-fut-et-a-mesure"}}, {"type": "node", "id": 271244788, "lat": 45.7593345, "lon": 4.8426163, "tags": {"amenity": "bar", "check_date:opening_hours": "2024-02-09", "name": "Le Traquenard", "old_name": "Brasserie de L'Enregistrement", "opening_hours": "Mo-Sa 15:00-01:00", "phone": "+334 78 03 32 49", "ref:FR:SIRET": "91181792200022", "website": "https://letraquenard.com/"}}, {"type": "node", "id": 281625008, "lat": 45.7646419, "lon": 4.8277995, "tags": {"addr:postcode": "69005", "amenity": "bar", "food": "tapas", "name": "Cigale", "opening_hours": "Tu-We 18:00-01:00; Th-Sa 18:00-03:00; Su 18:00-01:00", "phone": "+33426170608", "website": "https://www.cigalelyon.com"}}, {"type": "node", "id": 321524144, "lat": 45.7510908, "lon": 4.8264084, "tags": {"amenity": "bar", "contact:facebook": "https://www.facebook.com/Pub-tapas-moove-107139477562699/", "cuisine": "african;tapas", "description": "Bar \u00e0 tapas, restaurant africain.", "name": "Tapas & Moove", "phone": "+33 7 53 11 10 51", "ref:FR:SIRET": "87951737300012"}}, {"type": "node", "id": 471790626, "lat": 45.7510119, "lon": 4.848466, "tags": {"amenity": "bar", "delivery": "no", "indoor_seating": "yes", "name": "Octopus", "opening_hours": "Mo-Sa 12:00-14:00,18:00-01:00", "outdoor_seating": "no", "sport": "boules", "takeaway": "no", "wheelchair": "no"}}, {"type": "node", "id": 471990205, "lat": 45.7798815, "lon": 4.8349865, "tags": {"amenity": "bar", "check_date:opening_hours": "2023-07-03", "indoor_seating": "yes", "name": "C\u00e9pages &  Grignotages", "opening_hours:signed": "no", "outdoor_seating": "yes"}}, {"type": "node", "id": 473541107, "lat": 45.7598095, "lon": 4.8479724, "tags": {"amenity": "bar", "indoor_seating": "yes", "name": "Hex'a gones", "outdoor_seating": "yes", "ref:FR:SIRET": "80173796600029"}}, {"type": "node", "id": 506071060, "lat": 45.7480206, "lon": 4.8809734, "tags": {"amenity": "bar", "contact:phone": "+33478548039", "indoor_seating": "yes", "name": "Le Carrefour", "outdoor_seating": "no", "ref:FR:SIRET": "45069223100019"}}, {"type": "node", "id": 506877604, "lat": 45.7484067, "lon": 4.8807591, "tags": {"amenity": "bar", "check_date": "2023-03-27", "contact:phone": "+33 4 72 13 96 26", "name": "Les Glougloutons", "ref:FR:SIRET": "44106170200011", "source": "Local survey 22 September 2009", "wheelchair": "no"}}, {"type": "node", "id": 507002492, "lat": 45.7312459, "lon": 4.8301513, "tags": {"amenity": "bar", "check_date": "2023-06-21", "name": "Brasserie des 2 avenues", "ref:FR:SIRET": "95650104300015"}}, {"type": "node", "id": 507003385, "lat": 45.7316168, "lon": 4.8295495, "tags": {"amenity": "bar", "check_date": "2023-06-21", "name": "Brasserie Debourg"}}, {"type": "node", "id": 518972471, "lat": 45.7584065, "lon": 4.8421061, "tags": {"amenity": "bar", "check_date": "2024-04-19", "cuisine": "tapas", "name": "Les Assembleurs", "opening_hours": "Mo-Fr 08:00-24:00, Sa 10:00-24:00"}}, {"type": "node", "id": 567859518, "lat": 45.7318336, "lon": 4.8300277, "tags": {"amenity": "bar", "name": "Le Las Vegas", "ref:FR:SIRET": "42507840900017"}}, {"type": "node", "id": 569062085, "lat": 45.7420115, "lon": 4.839788}, {"type": "node", "id": 627851836, "lat": 45.7661807, "lon": 4.8278596, "tags": {"amenity": "bar", "name": "L'Apostrophe", "phone": "+33 4 78 39 08 13", "ref:FR:SIRET": "41321751400012"}}, {"type": "node", "id": 690603960, "lat": 45.758977, "lon": 4.840036, "tags": {"amenity": "bar", "brewery": "various", "check_date": "2023-10-28", "contact:phone": "+33472619292", "happy_hours": "Mo-Su 16:00-19:00", "indoor_seating": "yes", "live_music": "yes", "name": "La Marquise", "opening_hours": "Su-We 14:00-01:00; Th-Sa 14:00-05:00", "outdoor_seating": "yes", "ref:FR:SIRET": "45113196500019", "website": "http://www.marquise.net", "website:menu": "http://www.marquise.net/wp-content/uploads/2020/05/Carte-mobile-Marquise-1.pdf"}}, {"type": "node", "id": 728647873, "lat": 45.7627905, "lon": 4.840564, "tags": {"amenity": "bar", "brewery": "various", "check_date": "2024-07-04", "description": "Anis et Houblon", "happy_hours": "Mo-Su 17:00 - 21:00", "name": "Berzingue", "opening_date": "2024-04-04", "opening_hours": "Mo-Su 15:00-01:00", "outdoor_seating": "yes", "payment:cash": "yes", "payment:credit_cards": "yes", "payment:debit_cards": "yes", "source": "survey", "wheelchair": "yes"}}, {"type": "node", "id": 830263191, "lat": 45.7387676, "lon": 4.8146175, "tags": {"amenity": "bar", "check_date:opening_hours": "2022-11-20", "contact:email": "contact@selcius.fr", "contact:housenumber": "43", "contact:phone": "+33 4 78 92 87 87", "contact:postcode": "69002", "contact:street": "Quai Rambaud", "contact:website": "http://www.selcius.fr", "name": "Selcius", "opening_hours": "Mo-Sa 11:00-14:30, Su 11:00-17:00, Mo-We 17:30-01:00, Th 17:30-02:00, Fr,Sa 17:30-04:00", "ref:FR:SIRET": "75354184600014", "wheelchair": "yes"}}, {"type": "node", "id": 864608390, "lat": 45.7533427, "lon": 4.8918774, "tags": {"amenity": "bar", "name": "Caf\u00e9 des Sports", "outdoor_seating": "sidewalk", "ref:FR:SIRET": "83157213600016", "source": "Local survey 14 Aug 2010"}}, {"type": "node", "id": 1291616058, "lat": 45.769638, "lon": 4.8251857, "tags": {"air_conditioning": "yes", "amenity": "bar", "name": "La Corniche", "opening_hours": "Mo-Sa 16:00-00:30, Su 16:00-22:00", "smoking": "outside", "wheelchair": "yes"}}, {"type": "node", "id": 1336704419, "lat": 45.7529652, "lon": 4.8546529, "tags": {"amenity": "bar", "check_date:opening_hours": "2024-04-30", "indoor_seating": "yes", "name": "Le Grand Caf\u00e9 Neuf", "opening_hours:signed": "no", "outdoor_seating": "sidewalk", "payment:credit_cards": "yes", "payment:debit_cards": "yes", "phone": "+33 4 78 60 58 14", "ref:FR:SIRET": "34488436600016", "smoking": "outside", "wheelchair": "yes", "wikimedia_commons": "File:Le Grand Caf\u00e9 Neuf - F\u00e9lix-Faure (Lyon).jpg"}}, {"type": "node", "id": 1345323853, "lat": 45.7525774, "lon": 4.869859, "tags": {"air_conditioning": "yes", "amenity": "bar", "check_date": "2024-10-29", "description": "Happy Hours 17h - 21h", "name": "Divine Caf\u00e9", "opening_hours:signed": "no", "ref:FR:SIRET": "48803196400015", "wheelchair": "no"}}, {"type": "node", "id": 1385676980, "lat": 45.7275064, "lon": 4.8836954, "tags": {"amenity": "bar", "name": "La porte au prince"}}, {"type": "node", "id": 1394154806, "lat": 45.7628129, "lon": 4.7979083}, {"type": "node", "id": 1394154807, "lat": 45.762814, "lon": 4.798106}, {"type": "node", "id": 1394154811, "lat": 45.762867, "lon": 4.7979084}, {"type": "node", "id": 1394154816, "lat": 45.762868, "lon": 4.798106}, {"type": "node", "id": 1425529913, "lat": 45.7641317, "lon": 4.8270948, "tags": {"amenity": "bar", "name": "Bar mus\u00e9e Gadagne"}}, {"type": "node", "id": 1445056746, "lat": 45.7504269, "lon": 4.8465891, "tags": {"amenity": "bar", "name": "L'atelier des canulars", "website": "http://latelierdescanulars.over-blog.com/"}}, {"type": "node", "id": 1455348654, "lat": 45.7756072, "lon": 4.8347299, "tags": {"amenity": "bar", "name": "Cochon iod\u00e9"}}, {"type": "node", "id": 1483238584, "lat": 45.7655291, "lon": 4.8276435, "tags": {"amenity": "bar", "name": "Jack's Bar", "opening_hours": "PH,Mo-Su 17:00-01:00", "outdoor_seating": "yes", "ref:FR:SIRET": "48973764300028"}}, {"type": "node", "id": 1542470704, "lat": 45.7680588, "lon": 4.8008057, "tags": {"amenity": "bar", "name": "Nakamal", "note": "The club is open until 1am only if there is a concert.", "opening_hours": "Mo-Fr 10:00-21:00; Sa 14:00-21:00; Su off", "phone": "+33 4 78 83 20 45", "website": "http://nakamal.fr/"}}, {"type": "node", "id": 1594873721, "lat": 45.7677776, "lon": 4.8332585, "tags": {"amenity": "bar", "check_date": "2023-05-08", "name": "Crazy Dog", "opening_hours": "Mo-Su 09:00-01:00", "ref:FR:SIRET": "83000281200022"}}, {"type": "node", "id": 1680182407, "lat": 45.751274, "lon": 4.8449204, "tags": {"air_conditioning": "yes", "amenity": "bar", "board_games": "yes", "check_date": "2024-07-12", "contact:housenumber": "80", "contact:street": "Rue Montesquieu", "cuisine": "french", "description": "Bar \u00e0 jeux", "diet:vegan": "yes", "diet:vegetarian": "yes", "email": "contact@atenium.fr", "indoor_seating": "yes", "name": "L'Atenium", "opening_hours": "Mo-Fr 17:00-00:30; Sa 15:00-00:30; Su 11:00-00:30", "outdoor_seating": "no", "ref:FR:SIRET": "81913509600017", "smoking": "no", "website": "http://atenium.fr/"}}, {"type": "node", "id": 1700611792, "lat": 45.778074, "lon": 4.8346675, "tags": {"amenity": "bar", "check_date:opening_hours": "2023-08-29", "indoor_seating": "yes", "name": "Caf\u00e9 de la Soie", "opening_hours:signed": "no", "outdoor_seating": "yes", "ref:FR:SIRET": "83045373400022", "toilets:wheelchair": "no", "wheelchair": "no"}}, {"type": "node", "id": 1704079358, "lat": 45.7693619, "lon": 4.8315124, "tags": {"amenity": "bar", "cocktails": "yes", "contact:city": "Lyon 1er Arrondissement", "contact:housenumber": "7", "contact:phone": "+33 9 74 64 03 17", "contact:postcode": "69001", "contact:street": "Rue Terme", "name": "P\u00e9lican", "opening_hours": "Mo 00:00-01:00; Tu 18:30-23:59; We-Su 00:00-01:00, 18:30-23:59", "website": "https://www.pelicanlyon.com"}}, {"type": "node", "id": 1790677738, "lat": 45.7535968, "lon": 4.830439, "tags": {"amenity": "bar", "name": "Caf\u00e9 des Antiquaires", "ref:FR:SIRET": "83356971800012", "survey:date": "2023-08-27"}}, {"type": "node", "id": 1790677986, "lat": 45.7543641, "lon": 4.8306558, "tags": {"amenity": "bar", "name": "La Linotte", "opening_hours:signed": "no", "ref:FR:SIRET": "84855501700013", "survey:date": "2023-03-12"}}, {"type": "node", "id": 1866962215, "lat": 45.7793897, "lon": 4.8344802, "tags": {"amenity": "bar", "indoor_seating": "yes", "name": "Le petit coin", "outdoor_seating": "yes"}}, {"type": "node", "id": 1868899994, "lat": 45.7644303, "lon": 4.832536, "tags": {"amenity": "bar", "indoor_seating": "yes", "name": "Le Chabada Caf\u00e9", "outdoor_seating": "yes", "ref:FR:SIRET": "79463554000014", "survey:date": "2022-03-14"}}, {"type": "node", "id": 1868900890, "lat": 45.7660636, "lon": 4.8317048, "tags": {"amenity": "bar", "name": "Broc'Bar", "ref:FR:SIRET": "44208516300024"}}, {"type": "node", "id": 1871671180, "lat": 45.7646686, "lon": 4.8346335, "tags": {"amenity": "bar", "contact:city": "Lyon", "contact:housenumber": "31 bis", "contact:postcode": "69002", "contact:street": "Rue du Pr\u00e9sident \u00c9douard Herriot", "name": "Cap 6"}}, {"type": "node", "id": 1975495611, "lat": 45.7683105, "lon": 4.8290173, "tags": {"amenity": "bar", "name": "Soda Bar", "ref:FR:SIRET": "49228682800016"}}, {"type": "node", "id": 1975495621, "lat": 45.767922, "lon": 4.8306351, "tags": {"amenity": "bar", "name": "L'Antiquaire", "ref:FR:SIRET": "52424854900015", "toilets:wheelchair": "no", "wheelchair": "limited"}}, {"type": "node", "id": 2014081280, "lat": 45.7649541, "lon": 4.8434918, "tags": {"amenity": "bar", "check_date": "2024-10-21", "check_date:opening_hours": "2024-10-21", "name": "Sauf Impr\u00e9vu", "opening_hours": "Mo-We 10:00-23:00; Th,Fr 10:00-24:00"}}, {"type": "node", "id": 2017222986, "lat": 45.7750631, "lon": 4.8052187, "tags": {"amenity": "bar", "name": "Au Grand Paris"}}, {"type": "node", "id": 2019632297, "lat": 45.7768298, "lon": 4.8334846, "tags": {"amenity": "bar", "name": "Le Bistrot fait sa broc'"}}, {"type": "node", "id": 2024995955, "lat": 45.7530545, "lon": 4.8700406, "tags": {"amenity": "bar", "check_date": "2024-01-06", "name": "Le Petit Bar", "ref:FR:SIRET": "45327096900026", "wheelchair": "no"}}, {"type": "node", "id": 2077013410, "lat": 45.754752, "lon": 4.8431398, "tags": {"amenity": "bar", "check_date": "2024-09-12", "contact:phone": "+33 9 52958041", "contact:website": "https://fr-fr.facebook.com/La-Faute-aux-Ours-208707902544699/", "cuisine": "french", "internet_access": "no", "name": "La Faute aux Ours", "opening_hours": "Tu-Th 18:00-01:00, Fr-Sa 18:00-02:00", "outdoor_seating": "yes", "payment:coins": "yes", "payment:mastercard": "yes", "payment:notes": "yes", "payment:visa": "yes", "ref:FR:SIRET": "53389134700015", "smoking": "outside", "source": "survey", "wheelchair": "yes"}}, {"type": "node", "id": 2077022276, "lat": 45.7606057, "lon": 4.8402604, "tags": {"addr:city": "Lyon", "addr:country": "FR", "addr:housenumber": "11", "addr:postcode": "69003", "addr:street": "Quai Victor Augagneur", "amenity": "bar", "brewery": "La Veuve Noire", "internet_access": "no", "name": "La Passag\u00e8re", "opening_hours": "Mo-Sa 14:00-03:00; Su 14:00-02:00", "source": "Survey"}}, {"type": "node", "id": 2077022277, "lat": 45.7610785, "lon": 4.8403229, "tags": {"amenity": "bar", "brewery": "Duvel;Mont-Blanc", "contact:email": "contact@lesirius.com", "contact:facebook": "https://www.facebook.com/lesiriuslyon", "contact:phone": "+33 4 78 71 78 71", "contact:website": "https://www.lesirius.com/", "indoor_seating": "yes", "name": "Le Sirius", "opening_hours": "Mo-Sa 14:00-03:00; Su 14:00-22:00", "outdoor_seating": "yes", "start_date": "2002", "toilets:wheelchair": "yes", "wheelchair": "limited"}}, {"type": "node", "id": 2077032484, "lat": 45.7541332, "lon": 4.8394258, "tags": {"amenity": "bar", "contact:housenumber": "3", "contact:phone": "+33 9 52 83 07 50", "contact:website": "https://fr-fr.facebook.com/pages/Gonzo-Bar-Lyon/196374213736398", "description": "Bar \u00e0 cocktails", "name": "Sauvage", "opening_hours": "Mo-Sa 18:00-01:00", "outdoor_seating": "yes", "ref:FR:SIRET": "83105601500017"}}, {"type": "node", "id": 2087100501, "lat": 45.7556397, "lon": 4.8425979, "tags": {"amenity": "bar", "name": "F\u00e9lix Caf\u00e9", "ref:FR:SIRET": "82201493200013", "survey:date": "2023-08-19"}}, {"type": "node", "id": 2088224388, "lat": 45.7429028, "lon": 4.8165531, "tags": {"amenity": "bar", "cuisine": "tapas", "name": "Le St Trop", "opening_hours": "Mo-Su 10:00-01:00", "outdoor_seating": "yes", "wheelchair": "yes"}}, {"type": "node", "id": 2107157552, "lat": 45.7664433, "lon": 4.8273998, "tags": {"amenity": "bar", "brewery": "leffe;chouffe;chimay;tripel_karmeliet", "name": "La Mi Graine", "phone": "+33 4 78 27 73 88", "ref:FR:SIRET": "38431896000018", "website": "https://fr-fr.facebook.com/barlamigraine/"}}, {"type": "node", "id": 2108465475, "lat": 45.756009, "lon": 4.8415199, "tags": {"amenity": "bar", "brewery": "chouffe", "contact:housenumber": "3", "internet_access": "no", "name": "Le Gambetta", "outdoor_seating": "yes", "ref:FR:SIRET": "41276652900017", "survey:date": "2023-08-19"}}, {"type": "node", "id": 2108929695, "lat": 45.7595534, "lon": 4.8400976, "tags": {"addr:city": "Lyon", "addr:postcode": "69003", "amenity": "bar", "capacity": "650", "indoor_seating": "yes", "name": "Plouf Bateau Mouse", "old_name": "The Boat", "opening_hours": "Su-We 16:00-03:00; Th-Sa 16:00-05:00", "outdoor_seating": "yes", "ref:FR:SIRET": "83499841100013"}}, {"type": "node", "id": 2109818703, "lat": 45.7546058, "lon": 4.8420521, "tags": {"amenity": "bar", "name": "L'Angle d'Or"}}, {"type": "node", "id": 2119157336, "lat": 45.7704846, "lon": 4.8332759, "tags": {"amenity": "bar", "name": "Le Bec de Jazz"}}, {"type": "node", "id": 2183058823, "lat": 45.7537657, "lon": 4.840532, "tags": {"amenity": "bar", "check_date": "2024-11-17", "check_date:opening_hours": "2024-11-17", "contact:housenumber": "15", "name": "L'Aromo", "note": "Bar \u00e0 vin", "opening_hours": "Mo-We 18:00-24:00, Th-Sa 18:00-01:00", "ref:FR:SIRET": "53835502500015", "website": "https://www.aromo-lyon.com/", "wheelchair": "no"}}, {"type": "node", "id": 2183058824, "lat": 45.7537039, "lon": 4.8402826, "tags": {"amenity": "bar", "name": "Le Bosquet", "opening_hours": "Mo,Tu 17:00-24:00; We-Sa 17:00-01:00", "outdoor_seating": "yes", "smoking": "outside", "toilets:wheelchair": "yes", "wheelchair": "limited"}}, {"type": "node", "id": 2183069770, "lat": 45.7518642, "lon": 4.8401552, "tags": {"amenity": "bar", "indoor_seating": "yes", "name": "Le Chatelet", "outdoor_seating": "yes", "ref:FR:SIRET": "83770396600015", "survey:date": "2020-11-16"}}, {"type": "node", "id": 2183098964, "lat": 45.749447, "lon": 4.8387511, "tags": {"amenity": "bar", "brewery": "yes", "contact:facebook": "https://www.facebook.com/lecommerce07/", "contact:instagram": "https://www.instagram.com/le_commerce_07", "cuisine": "french", "email": "lecommerce07@gmail.com", "name": "Le Commerce", "opening_hours": "Mo-Fr 08:00-01:00; Sa-Su 15:00-01:00", "phone": "+33 4 28 29 89 20"}}, {"type": "node", "id": 2183114225, "lat": 45.7469306, "lon": 4.8370236, "tags": {"amenity": "bar", "name": "La Pipe", "opening_hours": "PH,Mo-Su 05:45-24:00", "smoking": "outside", "tobacco": "yes"}}, {"type": "node", "id": 2192967854, "lat": 45.7484333, "lon": 4.854575, "tags": {"amenity": "bar", "check_date": "2024-07-02", "name": "Alma", "opening_hours": "Tu-Sa 17:00-24:00; PH closed", "outdoor_seating": "yes", "ref:FR:SIRET": "85153249900015"}}, {"type": "node", "id": 2193018390, "lat": 45.7577692, "lon": 4.8411711, "tags": {"amenity": "bar", "contact:city": "Lyon 3eme Arrondissement", "contact:housenumber": "2", "contact:phone": "+33 6 29 39 04 26", "contact:postcode": "69003", "contact:street": "Rue Chaponnay", "name": "Malto", "opening_hours": "Tu-We 17:00-23:00; Th 17:00-23:59; Fr-Sa 00:00-01:00, 17:00-23:59; Su 00:00-01:00", "survey:date": "2023-01-11", "website": "https://www.privateaser.com/lieu/43629-malto"}}, {"type": "node", "id": 2194222699, "lat": 45.7497399, "lon": 4.8438736, "tags": {"amenity": "bar", "contact:instagram": "https://www.instagram.com/l_overdrive_bar/", "name": "L'Overdrive", "opening_hours": "Mo-Su 16:00-01:00", "ref:FR:SIRET": "98282078900013"}}, {"type": "node", "id": 2199727993, "lat": 45.748268, "lon": 4.8433461, "tags": {"amenity": "bar", "brewery": "yes", "email": "afkbar.contact@gmail.com", "name": "AFK Bar", "opening_hours": "Mo-Su 16:00-01:00", "outdoor_seating": "yes", "phone": "+33 4 26 28 14 41", "website": "https://www.afk-bar.fr/", "wheelchair": "limited"}}, {"type": "node", "id": 2204896173, "lat": 45.7539604, "lon": 4.8428911, "tags": {"amenity": "bar", "name": "La Baignoire", "ref:FR:SIRET": "42900161300018"}}, {"type": "node", "id": 2204906217, "lat": 45.752247, "lon": 4.8440337, "tags": {"amenity": "bar", "name": "Mostaganem", "opening_hours": "\"pas d'horaires affich\u00e9s\"", "ref:FR:SIRET": "38186765400018", "survey:date": "2024-03-23", "wheelchair": "yes"}}, {"type": "node", "id": 2204929087, "lat": 45.7514305, "lon": 4.844894, "tags": {"amenity": "bar", "check_date": "2024-09-01", "check_date:opening_hours": "2024-09-01", "indoor_seating": "yes", "name": "Chez Michel", "opening_hours": "Mo-Fr 07:00-20:00; Sa 08:00-13:00", "outdoor_seating": "yes", "smoking": "outside", "tobacco": "yes", "wheelchair": "limited"}}, {"type": "node", "id": 2204957491, "lat": 45.7508988, "lon": 4.8455368, "tags": {"amenity": "bar", "contact:email": "contact.lokace@gmail.com", "contact:instagram": "https://www.instagram.com/lokacebar/", "contact:phone": "+334 37 27 08 12", "name": "Lokace", "opening_hours": "Mo-Sa 11:00-01:00; Su 10:00-19:00", "ref:FR:SIRET": "80109105900023", "wheelchair": "yes"}}, {"type": "node", "id": 2205019199, "lat": 45.7510651, "lon": 4.8426149, "tags": {"amenity": "bar", "name": "Bar des Artistes", "ref:FR:SIRET": "34519690100028", "survey:date": "2024-03-23"}}, {"type": "node", "id": 2211606956, "lat": 45.756932, "lon": 4.8539112, "tags": {"amenity": "bar", "name": "The PXL tavern"}}, {"type": "node", "id": 2217042323, "lat": 45.7530338, "lon": 4.8452267, "tags": {"amenity": "bar", "brewery": "yes;Saison_Dupont", "check_date:opening_hours": "2024-09-07", "name": "Balek Bar", "opening_hours": "Mo-Su 17:00-01:00", "wheelchair": "yes"}}, {"type": "node", "id": 2243036400, "lat": 45.7507462, "lon": 4.8491606, "tags": {"alt_name": "Le Bar de l'Amiti\u00e9", "amenity": "bar", "name": "Lom\u2013Pangar", "note": "Chez Tyson", "ref:FR:SIRET": "83262184100010", "wheelchair": "no"}}, {"type": "node", "id": 2271667734, "lat": 45.7638225, "lon": 4.864709, "tags": {"amenity": "bar", "name": "The black pearl tavern", "source": "Grand Lyon - 10/2011"}}, {"type": "node", "id": 2273063775, "lat": 45.7620571, "lon": 4.8403818}, {"type": "node", "id": 2273063776, "lat": 45.7620926, "lon": 4.8404689}, {"type": "node", "id": 2273063777, "lat": 45.7614536, "lon": 4.8403134}, {"type": "node", "id": 2273063778, "lat": 45.7614901, "lon": 4.8403013}, {"type": "node", "id": 2273063779, "lat": 45.7614499, "lon": 4.8403697}, {"type": "node", "id": 2273063780, "lat": 45.7614246, "lon": 4.8403375}, {"type": "node", "id": 2273063781, "lat": 45.7620907, "lon": 4.8403992}, {"type": "node", "id": 2273063782, "lat": 45.7620571, "lon": 4.8404757}, {"type": "node", "id": 2273063783, "lat": 45.76213, "lon": 4.8404381}, {"type": "node", "id": 2273063784, "lat": 45.7614807, "lon": 4.8403912}, {"type": "node", "id": 2273314756, "lat": 45.7532946, "lon": 4.8414235, "tags": {"amenity": "bar", "name": "Kigali Life Bar"}}, {"type": "node", "id": 2273316602, "lat": 45.7538624, "lon": 4.8420421, "tags": {"amenity": "bar", "name": "Le Tanger", "note": "Salon de th\u00e9 sans alcool"}}, {"type": "node", "id": 2283821175, "lat": 45.7686593, "lon": 4.8356734, "tags": {"amenity": "bar", "name": "Le Barberousse", "opening_hours": "Tu-Sa 21:00-04:00", "phone": "+33 4 72 00 80 53", "ref:FR:SIRET": "44965102500024", "website": "http://www.barberousse.com/ville/lyon"}}, {"type": "node", "id": 2284359913, "lat": 45.7549647, "lon": 4.8450213, "tags": {"amenity": "bar", "name": "Le Bistrot Royal"}}, {"type": "node", "id": 2356829447, "lat": 45.7689426, "lon": 4.8324435, "tags": {"amenity": "bar", "check_date": "2024-08-04", "description": "Bar \u00e0 vins", "name": "La Madone"}}, {"type": "node", "id": 2356855440, "lat": 45.7645798, "lon": 4.8407664, "tags": {"amenity": "bar", "contact:phone": "+33627021538", "name": "La Barge", "opening_hours": "Mo-Fr 15:00-00h30; Sa 11:00-00:30; Su 11:00-22:00; Oct 15-Feb 15 Off", "ref:FR:SIRET": "92183024600010", "reservation": "yes", "website": "https://labarge-lyon.fr", "website:menu": "https://labarge-lyon.fr/carte"}}, {"type": "node", "id": 2457712090, "lat": 45.767528, "lon": 4.8306667, "tags": {"amenity": "bar", "contact:city": "Lyon 1er Arrondissement", "contact:housenumber": "26", "contact:postcode": "69001", "contact:street": "Rue Hippolyte Flandrin", "cuisine": "Bar", "name": "Skybar", "opening_hours": "Tu-Sa 16:00-01:00"}}, {"type": "node", "id": 2470725718, "lat": 45.7683124, "lon": 4.8291032, "tags": {"amenity": "bar", "name": "La Bouteillerie"}}, {"type": "node", "id": 2470725721, "lat": 45.768323, "lon": 4.8293006, "tags": {"amenity": "bar", "name": "Le Bistro", "ref:FR:SIRET": "81844308700015"}}, {"type": "node", "id": 2476993826, "lat": 45.7536108, "lon": 4.8326653, "tags": {"amenity": "bar", "name": "Au Bon Cru", "ref:FR:SIRET": "38051954600010"}}, {"type": "node", "id": 2476993846, "lat": 45.7545637, "lon": 4.8267318, "tags": {"access:covid19": "no", "amenity": "bar", "contact:facebook": "Le-Cardiff-Lyon-108407294187065", "email": "regnault.willy@free.fr", "name": "Le Cardiff", "opening_hours:covid19": "Mo-Fr 09:00-15:00", "phone": "+33685808285", "ref:FR:SIRET": "87969281200016", "survey:date": "2020-05-26", "takeaway:covid19": "yes", "website": "https://cardiff.jmbistrot.fr/menus/20928/37252"}}, {"type": "node", "id": 2477064560, "lat": 45.7587665, "lon": 4.8260433, "tags": {"addr:housenumber": "15", "addr:street": "Rue du Doyenn\u00e9", "amenity": "bar", "check_date": "2023-07-12", "name": "Dilemme Club", "ref:FR:SIRET": "47941722200037"}}, {"type": "node", "id": 2477064566, "lat": 45.7646449, "lon": 4.8281015, "tags": {"amenity": "bar", "brewery": "yes", "name": "Big White", "opening_hours": "Tu-Sa 17:00-01:00", "outdoor_seating": "no", "ref:FR:SIRET": "53870797700012"}}, {"type": "node", "id": 2477249063, "lat": 45.7661526, "lon": 4.8276586, "tags": {"amenity": "bar", "name": "La Cave des Voyageurs", "ref:FR:SIRET": "41960828600011"}}, {"type": "node", "id": 2477249065, "lat": 45.7663243, "lon": 4.8271697, "tags": {"amenity": "bar", "name": "Bis'Corner", "ref:FR:SIRET": "97996903700014"}}, {"type": "node", "id": 2502529817, "lat": 45.7683993, "lon": 4.8348396, "tags": {"amenity": "bar", "check_date": "2024-04-09", "name": "Ayers Rock", "opening_hours": "Mo,We-Sa 20:00-06:00, Tu 20:00-04:00", "ref:FR:SIRET": "85058905200016"}}, {"type": "node", "id": 2502529820, "lat": 45.7683977, "lon": 4.8349501, "tags": {"amenity": "bar", "check_date": "2024-08-04", "name": "Hell's Kitchen"}}, {"type": "node", "id": 2502529853, "lat": 45.7695669, "lon": 4.8372671, "tags": {"amenity": "bar", "check_date:opening_hours": "2024-06-04", "cocktails": "yes", "level": "0", "microbrewery": "no", "name": "The Monkey Club", "opening_hours": "Tu-Th 18:00-01:00, Fr,Sa 18:00-03:00", "outdoor_seating": "yes", "ref:FR:SIRET": "53948869200010", "smoking": "no"}}, {"type": "node", "id": 2504142128, "lat": 45.7601861, "lon": 4.8316488, "tags": {"amenity": "bar", "check_date": "2024-07-28", "check_date:opening_hours": "2024-07-28", "name": "La Loge", "opening_hours:signed": "no", "ref:FR:SIRET": "83116714300021"}}, {"type": "node", "id": 2560866769, "lat": 45.7516727, "lon": 4.82844, "tags": {"amenity": "bar", "brewery": "various", "cuisine": "french", "indoor_seating": "yes", "name": "Viktor", "outdoor_seating": "yes", "ref:FR:SIRET": "41817276300025", "survey:date": "2023-08-20", "wheelchair": "limited"}}, {"type": "node", "id": 2560866778, "lat": 45.7518753, "lon": 4.829457, "tags": {"amenity": "bar", "name": "Le Marco Polo", "ref:FR:SIRET": "80008290100011", "survey:date": "2023-08-27"}}, {"type": "node", "id": 2600475989, "lat": 45.7532805, "lon": 4.8411481, "tags": {"amenity": "bar", "name": "Le Pacha de Lyon", "ref:FR:SIRET": "45068660500012"}}, {"type": "node", "id": 2600475994, "lat": 45.7530292, "lon": 4.8419051, "tags": {"amenity": "bar", "name": "Le Mini Bar", "opening_hours": "\"Privatisations uniquement\"", "ref:FR:SIRET": "81870265600021", "wheelchair": "no"}}, {"type": "node", "id": 2600858728, "lat": 45.7498805, "lon": 4.8525511, "tags": {"amenity": "bar", "brewery": "yes;saint_stefanus", "cuisine": "french", "indoor_seating": "yes", "name": "Jungle", "opening_hours": "Tu,We 11:30-14:30,17:00-22:00; Th 11:30-14:30,17:00-00:00; Fr 11:30-14:30,17:00-01:00; Sa 17:00-01:00; Su 17:00-22:00", "outdoor_seating": "yes", "phone": "+33 4 87 61 01 69", "ref:FR:SIRET": "49081765700011", "website": "https://junglelyon.com/"}}, {"type": "node", "id": 2600858740, "lat": 45.7506237, "lon": 4.8478935, "tags": {"amenity": "bar", "check_date": "2024-07-12", "contact:facebook": "Lyonnais-kfe-578956872198545", "email": "lyonnaiskfe@orange.fr", "name": "Lyonnais K'F\u00e9", "phone": "+33 4 27 82 96 47", "ref:FR:SIRET": "52036626100011", "wheelchair": "no"}}, {"type": "node", "id": 2600872707, "lat": 45.7454855, "lon": 4.8455058, "tags": {"amenity": "bar", "brewery": "various", "name": "Pint'A Gone", "opening_hours": "We-Fr 17:00-01:00", "outdoor_seating": "yes", "phone": "+339 70 90 82 08", "ref:FR:SIRET": "84104055300023"}}, {"type": "node", "id": 2623025621, "lat": 45.7649716, "lon": 4.837935, "tags": {"amenity": "bar", "contact:city": "Lyon 2eme Arrondissement", "contact:housenumber": "22", "contact:phone": "+33 6 99 53 10 50", "contact:postcode": "69002", "contact:street": "Rue Gentil", "description": "Bar, tapas , cocktails, vins", "name": "Quai22", "opening_hours": "Tu 17:00-23:59; We-Sa 00:00-01:00, 17:00-23:59; Su 00:00-01:00", "ref:FR:SIRET": "87986931100024", "website": "https://www.privateaser.com/lieu/43477-le-quai-22"}}, {"type": "node", "id": 2628206665, "lat": 45.7592666, "lon": 4.8417953, "tags": {"amenity": "bar", "cuisine": "tapas", "name": "La Movida", "opening_hours": "Tu-Sa 18:00-00:05", "ref:FR:SIRET": "52367243400017", "website": "https://lamovida.uno/"}}, {"type": "node", "id": 2663770279, "lat": 45.7546419, "lon": 4.8665421, "tags": {"amenity": "bar", "check_date:opening_hours": "2023-10-12", "name": "Bar des Deux Avenues", "opening_hours:signed": "no", "ref:FR:SIRET": "42175149600017", "wheelchair": "no"}}, {"type": "node", "id": 2680176141, "lat": 45.7882685, "lon": 4.8127363, "tags": {"access:covid19": "no", "amenity": "bar", "contact:city": "Lyon 9eme Arrondissement", "contact:housenumber": "8", "contact:phone": "+33 4 69 84 20 81", "contact:postcode": "69009", "contact:street": "Rue De La Navigation", "cuisine": "burger", "delivery:covid19": "yes", "diet:vegetarian": "yes", "indoor_seating": "yes", "name": "Ninkasi Vaise Industrie", "opening_hours": "We-Sa 10:30-01:00; Su-Tu 10:30-00:00", "outdoor_seating": "yes", "takeaway:covid19": "yes", "website": "https://www.ninkasi.fr/lieux/vaise.html", "wikidata": "Q64959021"}}, {"type": "node", "id": 2772371166, "lat": 45.7632762, "lon": 4.8520533, "tags": {"amenity": "bar", "check_date:opening_hours": "2024-04-17", "contact:city": "Lyon 3eme Arrondissement", "contact:housenumber": "131", "contact:phone": "+33 4 78 60 65 55", "contact:postcode": "69003", "contact:street": "Rue Moncey", "name": "Le City", "opening_hours": "Mo,Tu 11:30-15:00; We-Sa 11:30-15:00,19:00-22:00", "website": "https://www.privateaser.com/lieu/48108-le-city", "wikidata": "Q62587981", "wikimedia_commons": "File:Restaurant Pepperoni, rue Moncey (Lyon).jpg"}}, {"type": "node", "id": 2900509366, "lat": 45.7728396, "lon": 4.8441256, "tags": {"amenity": "bar", "name": "Le Comptoir du 6\u00e8me", "ref:FR:SIRET": "80330270200011"}}, {"type": "node", "id": 2913786814, "lat": 45.7493492, "lon": 4.8351744, "tags": {"amenity": "bar", "contact:email": "contact@house-of-bears.fr", "contact:facebook": "https://www.facebook.com/house.of.bears.lyon", "contact:instagram": "https://www.instagram.com/house.of.bears.lyon/", "contact:phone": "+33766754139", "contact:website": "https://www.house-of-bears.fr/", "indoor_seating": "yes", "name": "House of Bears", "opening_hours": "Mo-Sa 13:00-01:00", "outdoor_seating": "yes", "ref:FR:SIRET": "98189101300014"}}, {"type": "node", "id": 2987542168, "lat": 45.7489581, "lon": 4.8482613, "tags": {"amenity": "bar", "name": "Caf\u00e9 Saint-Louis", "outdoor_seating": "yes", "wheelchair": "no"}}, {"type": "node", "id": 2987542169, "lat": 45.7490843, "lon": 4.8483197, "tags": {"amenity": "bar", "description": "PMU", "name": "Caf\u00e9 de la Source", "outdoor_seating": "no", "ref:FR:SIRET": "43460531700016", "survey:date": "2021-01-04", "wheelchair": "no"}}, {"type": "node", "id": 3027310269, "lat": 45.7378442, "lon": 4.8654701, "tags": {"amenity": "bar", "name": "Le Bazar", "phone": "+33 4 78 01 42 20", "ref:FR:SIRET": "81987687100024", "tobacco": "yes"}}, {"type": "node", "id": 3070193592, "lat": 45.7508237, "lon": 4.8470353, "tags": {"amenity": "bar", "check_date": "2023-07-21", "contact:housenumber": "51", "name": "Chromatique", "opening_hours": "Tu-Fr 16:00-01:00, Sa 11:00-01:00, Su 11:00-23:00", "source": "cadastre-dgi-fr source : Direction G\u00e9n\u00e9rale des Imp\u00f4ts - Cadastre ; mise \u00e0 jour : 2010"}}, {"type": "node", "id": 3093797404, "lat": 45.7713743, "lon": 4.8352736, "tags": {"amenity": "bar", "contact:facebook": "https://www.facebook.com/Les-Valseuses-180887628624345", "contact:housenumber": "1", "contact:street": "Rue Chappet", "contact:website": "http://www.valseuses.com/info.html", "name": "Les Valseuses", "ref:FR:SIRET": "51136260000021", "wheelchair": "yes"}}, {"type": "node", "id": 3093797405, "lat": 45.7713422, "lon": 4.8330154, "tags": {"amenity": "bar", "contact:city": "Lyon 1er Arrondissement", "contact:housenumber": "12", "contact:phone": "+33 6 22 89 95 10", "contact:postcode": "69001", "contact:street": "Rue Imbert Colomes", "name": "Blonde Ou Brune", "opening_hours": "Tu-Fr 17:00-01:00; Sa 15:00-01:00", "short_name": "Bob", "website": "https://www.boblyon.fr"}}, {"type": "node", "id": 3139833302, "lat": 45.7688367, "lon": 4.8526408, "tags": {"amenity": "bar", "name": "Brasserie du Square", "note": "Vente d'hu\u00eetres/Sells oysters", "outdoor_seating": "yes", "ref:FR:SIRET": "39240213700013", "toilets:wheelchair": "no", "wheelchair": "yes"}}, {"type": "node", "id": 3139885744, "lat": 45.7705381, "lon": 4.8520281, "tags": {"amenity": "bar", "contact:city": "Lyon 6eme Arrondissement", "contact:housenumber": "32", "contact:phone": "+33 4 37 42 03 97", "contact:postcode": "69006", "contact:street": "Rue T\u00eate D'or", "name": "Les Canailles De Rapha\u00ebl"}}, {"type": "node", "id": 3139885913, "lat": 45.7667369, "lon": 4.8598151, "tags": {"amenity": "bar", "name": "Barrio Club", "ref:FR:SIRET": "51478731600017"}}, {"type": "node", "id": 3214986932, "lat": 45.7632513, "lon": 4.8285022, "tags": {"amenity": "bar", "internet_access": "wlan", "name": "Le Florian", "phone": "+33 4 78 42 24 37", "ref:FR:SIRET": "85172240500020", "website": "http://le-florian.fr"}}, {"type": "node", "id": 3283380006, "lat": 45.7529735, "lon": 4.8462387, "tags": {"amenity": "bar", "contact:city": "Lyon 7eme Arrondissement", "contact:housenumber": "12", "contact:phone": "+33 4 37 66 32 16", "contact:postcode": "69007", "contact:street": "Avenue Jean Jaur\u00e8s", "description": "Bar, Coffee Shop & Moto", "name": "Kargo Kulte", "opening_hours": "Mo-We 10:00-23:00; Th-Fr 10:00-24:00; Sa 10:00-23:00", "organic": "no"}}, {"type": "node", "id": 3437858693, "lat": 45.769738, "lon": 4.83053, "tags": {"amenity": "bar", "contact:facebook": "https://www.facebook.com/lagrooverie", "live_music": "yes", "name": "La Grooverie", "opening_hours": "Mo-Su 18:00-01:00", "ref:FR:SIRET": "81326121100029", "smoking": "outside", "sport": "table_soccer;pinball", "wheelchair": "yes"}}, {"type": "node", "id": 3446956222, "lat": 45.7684022, "lon": 4.8584833, "tags": {"amenity": "bar", "cuisine": "french;peruvian", "description": "Bar & Ceviche", "name": "Yka", "opening_hours": "Tu-Sa 12:00-13:30,19:30-23:00", "phone": "+33478244971", "ref:FR:SIREN": "799073713", "website": "https://www.restaurant-miraflores.com/yka"}}, {"type": "node", "id": 3471713593, "lat": 45.7525027, "lon": 4.8316449, "tags": {"amenity": "bar", "description": "Bar \u00e0 vin", "internet_access": "wlan", "name": "Le Troquet des Sens", "opening_hours": "Mo-Th 12:00-13:30,19:00-22:00; Fr 12:00-13:30,19:30-22:00", "ref:FR:SIRET": "51342004200014"}}, {"type": "node", "id": 3566596893, "lat": 45.769708, "lon": 4.831624, "tags": {"addr:city": "Lyon", "addr:housenumber": "112", "addr:postcode": "69001", "addr:street": "Mont\u00e9e de la Grande C\u00f4te", "amenity": "bar", "name": "Quartier", "opening_hours": "Tu-Sa 12:00-01:00", "outdoor_seating": "yes", "wheelchair": "limited"}}, {"type": "node", "id": 3586933984, "lat": 45.7645393, "lon": 4.828918, "tags": {"amenity": "bar", "contact:city": "Lyon 5eme Arrondissement", "contact:housenumber": "1", "contact:phone": "+33 4 78 37 36 32", "contact:postcode": "69005", "contact:street": "Quai Romain Rolland", "cuisine": "ice_cream", "name": "Le Bavard", "opening_hours": "07:30-02:00", "phone": "+33 4 78 37 36 32", "ref:FR:SIRET": "81514573500024", "smoking": "outside"}}, {"type": "node", "id": 3606692522, "lat": 45.7667943, "lon": 4.8375558, "tags": {"alt_name": "Black Forest", "amenity": "bar", "name": "Black Forest Society", "opening_hours": "Mo-We 18:00-01:00, Th 18:00-02:00, Fr,Sa 18:00-03:00", "phone": "+33 4 78 28 98 18", "ref:FR:SIRET": "84236516500021"}}, {"type": "node", "id": 3627385136, "lat": 45.7665813, "lon": 4.8318689, "tags": {"amenity": "bar", "name": "Les Arpenteurs", "opening_hours": "Mo 17:00-22:30, Tu-Fr 17:00-00:30, Sa 15:00-00:30, Su 15:00-22:30", "ref:FR:SIRET": "83867874600010", "website": "https://www.lesarpenteurs-bar.com/"}}, {"type": "node", "id": 3628241990, "lat": 45.7691816, "lon": 4.8298426, "tags": {"amenity": "bar", "contact:phone": "+33 4 72 07 95 71", "indoor_seating": "yes", "name": "BizTooFly Bar", "opening_hours": "Th-Sa 18:00-01:00", "outdoor_seating": "no", "ref:FR:SIRET": "53337242100024"}}, {"type": "node", "id": 3637297364, "lat": 45.747809, "lon": 4.8213074, "tags": {"amenity": "bar", "contact:city": "Lyon", "contact:housenumber": "12", "contact:postcode": "69002", "contact:street": "Cours Suchet", "name": "L'envie"}}, {"type": "node", "id": 3718546955, "lat": 45.7598043, "lon": 4.8261387, "tags": {"amenity": "bar", "name": "Betty\u2019s Bar", "opening_hours": "Mo,We 17:00-24:00, Th,Fr 17:00-01:00, Sa 12:00-01:00, Su 15:00-23:00", "outdoor_seating": "yes", "ref:FR:SIRET": "53765213300019", "smoking": "no"}}, {"type": "node", "id": 3729195744, "lat": 45.7738024, "lon": 4.8230075, "tags": {"amenity": "bar", "indoor_seating": "yes", "name": "les Sept Marches", "outdoor_seating": "yes", "ref:FR:SIRET": "87778064300012"}}, {"type": "node", "id": 3729195746, "lat": 45.7735842, "lon": 4.8225114, "tags": {"amenity": "bar", "name": "La Torpille", "opening_hours": "Mo-Su 16:00-01:00", "ref:FR:SIRET": "79826251500025"}}, {"type": "node", "id": 3952947936, "lat": 45.7789318, "lon": 4.8408416, "tags": {"amenity": "bar", "name": "Le Churchill", "ref:FR:SIRET": "81799141700012"}}, {"type": "node", "id": 3963755348, "lat": 45.7755973, "lon": 4.8351311, "tags": {"amenity": "bar", "brewery": "yes", "name": "Bistrot Orcia", "opening_hours": "We-Su 12:00-13:30,19:00-21:30", "outdoor_seating": "yes", "phone": "+33 9 82 33 33 02", "ref:FR:SIRET": "83113892000028", "website": "https://www.bistrotorcia.fr/", "wheelchair": "yes"}}, {"type": "node", "id": 4121087424, "lat": 45.7711898, "lon": 4.8341532, "tags": {"amenity": "bar", "contact:city": "Lyon 1er Arrondissement", "contact:facebook": "https://www.facebook.com/ReperesLyon", "contact:housenumber": "2", "contact:phone": "+33 6 71 03 52 68", "contact:postcode": "69001", "contact:street": "Rue Camille Jordan", "contact:website": "https://www.reperes-lyon.fr/le-bar", "cuisine": "french", "name": "Rep\u00e8re(S)", "outdoor_seating": "yes"}}, {"type": "node", "id": 4193563757, "lat": 45.7560962, "lon": 4.8575316, "tags": {"amenity": "bar", "check_date:opening_hours": "2024-01-16", "name": "Siam Bistro", "opening_hours": "Mo,Tu 10:00-16:00, We-Fr 10:00-22:00", "outdoor_seating": "yes", "phone": "+33 478950728", "ref:FR:SIRET": "83098501600021", "wheelchair": "limited"}}, {"type": "node", "id": 4224086193, "lat": 45.7635317, "lon": 4.8289054, "tags": {"air_conditioning": "yes", "amenity": "bar", "brewery": "yes;various", "contact:city": "Lyon 5eme Arrondissement", "contact:housenumber": "13", "contact:phone": "+33 6 33 97 03 00", "contact:postcode": "69005", "contact:street": "Quai Romain Rolland", "delivery": "yes", "description": "Bar festif \u00e0 tapas", "email": "contact@laferialyon.fr", "image": "https://laferialyon.fr/wp-content/uploads/2020/01/la-feria-08-hd.jpg", "internet_access": "yes", "min_age": "18", "name": "La Feria (Lyon)", "opening_hours": "Mo-Su 17:30-05:00", "outdoor_seating": "yes", "phone": "+33 6 33 97 03 00", "ref:FR:SIRET": "30395372300010", "start_date": "2019-07-15", "takeaway": "yes", "website": "https://laferialyon.fr/le-bar/"}}, {"type": "node", "id": 4261093902, "lat": 45.7454294, "lon": 4.8270149, "tags": {"amenity": "bar", "name": "Le Comptoir d'Alain", "phone": "+33 4 78 60 87 86", "website": "http://www.comptoirdalain.com/"}}, {"type": "node", "id": 4310371166, "lat": 45.7702436, "lon": 4.8264574, "tags": {"amenity": "bar", "name": "L'Absinthe", "opening_hours": "Tu-Su 18:00-04:00", "ref:FR:SIRET": "82843824200012", "wheelchair": "limited"}}, {"type": "node", "id": 4358669591, "lat": 45.7695385, "lon": 4.829646, "tags": {"amenity": "bar", "contact:city": "Lyon 1er Arrondissement", "contact:housenumber": "4", "contact:phone": "+33 6 68 80 85 87", "contact:postcode": "69001", "contact:street": "Rue Du Jardin Des Plantes", "name": "La Serre", "opening_hours": "Tu-Sa 16:30-01:00"}}, {"type": "node", "id": 4426165594, "lat": 45.7633845, "lon": 4.8447873, "tags": {"amenity": "bar", "name": "La Patrie", "ref:FR:SIRET": "34868160200051"}}, {"type": "node", "id": 4426476928, "lat": 45.7656408, "lon": 4.8319655, "tags": {"amenity": "bar", "name": "Hot Club de Lyon", "opening_hours": "Tu-Sa 20:00-1:00", "opening_hours:signed": "no", "survey:date": "2024-08-04"}}, {"type": "node", "id": 4427822494, "lat": 45.7561391, "lon": 4.8503915, "tags": {"amenity": "bar", "diet:vegetarian": "yes", "level": "0", "name": "La Mistura", "opening_hours": "We-Sa 17:00-00:00", "outdoor_seating": "yes", "phone": "+33 4 78 60 31 42", "ref:FR:SIRET": "83449732300024", "vegetarian": "yes", "was:amenity": "restaurant", "was:name": "Herv\u00e9 et Sophea", "website": "https://lamistura.fr/"}}, {"type": "node", "id": 4450443391, "lat": 45.7503006, "lon": 4.8393783, "tags": {"amenity": "bar", "diet:vegetarian": "yes", "internet_access": "wlan", "name": "Le 97", "opening_hours": "Mo-We 07:00-20:00; Th-Fr 07:00-22:00; Sa 08:00-22:00", "ref:FR:SIRET": "91427915300011", "wheelchair": "limited"}}, {"type": "node", "id": 4566577160, "lat": 45.7240506, "lon": 4.8837084, "tags": {"amenity": "bar", "brewery": "yes", "cuisine": "portuguese", "description": "Fait aussi restaurant avec plat du jour. Plat d'inspiration portugaise. Tous les jours d'ouverture, Pizza avec la p\u00e2te bio et \u00e0 la main de La Miecyclette (la boulangerie contigu\u00eb)", "internet_access": "no", "name": "Le Azevedo", "outdoor_seating": "yes", "ref:FR:SIRET": "81754951200017"}}, {"type": "node", "id": 4594662490, "lat": 45.750053, "lon": 4.8442192, "tags": {"amenity": "bar", "name": "Turbine", "opening_hours": "Mo-Sa 12:00-14:00, Th-Sa 19:00-21:45", "survey:date": "2023-08-15"}}, {"type": "node", "id": 4607996706, "lat": 45.7622831, "lon": 4.8285561, "tags": {"amenity": "bar", "name": "Look Bar", "phone": "+33 4 78 37 38 94", "ref:FR:SIRET": "79351256700017", "website": "https://look-bar-lyon.business.site/"}}, {"type": "node", "id": 4747925321, "lat": 45.7710272, "lon": 4.8350951, "tags": {"addr:city": "Lyon", "addr:postcode": "69001", "addr:street": "Rue des Tables Claudiennes", "amenity": "bar", "check_date:currency:XBT": "2023-02-07", "contact:housenumber": "32", "contact:phone": "+33635260324", "contact:street": "Rue des Tables Claudiennes", "contact:website": "https://www.meltdown.bar/lyon", "currency:XBT": "yes", "internet_access": "wlan", "name": "Meltdown Lyon", "opening_hours": "Mo-Sa 18:00-01:00; Su 15:00-23:00", "payment:lightning": "no", "payment:lightning_contactless": "no", "payment:onchain": "yes", "ref:FR:SIRET": "80921743300022", "website": "https://lyon.meltdown.bar/"}}, {"type": "node", "id": 4767264635, "lat": 45.769773, "lon": 4.8256499, "tags": {"amenity": "bar", "name": "Yakapiocher", "opening_hours": "Tu 16:30-00:00; We 14:00-01:00; Th,Fr 16:30-01:00; Sa 14:00-00:00; Su 14:00-18:00", "phone": "+33 9 87 09 88 14", "ref:FR:SIRET": "81061370300026", "website": "https://www.yakapiocher.fr/index.html"}}, {"type": "node", "id": 4784137436, "lat": 45.7655863, "lon": 4.8327592, "tags": {"amenity": "bar", "capacity": "110", "contact:city": "Lyon 1er Arrondissement", "contact:facebook": "Caf\u00e9-Chenavard-104231196284746", "contact:housenumber": "20", "contact:instagram": "cafechenavard", "contact:phone": "+33 4 78 28 64 14", "contact:postcode": "69001", "contact:street": "Rue Paul Chenavard", "diet:vegetarian": "yes", "name": "Chenavard", "opening_hours": "Mo 07:00-23:00; Tu-Sa 07:00-01:00", "outdoor_seating": "yes", "phone": "+33 4 78 28 64 14", "ref:FR:SIRET": "85219546000013", "website": "https://chenavard.fr/"}}, {"type": "node", "id": 4792393661, "lat": 45.7734887, "lon": 4.8090988, "tags": {"amenity": "bar", "check_date": "2024-01-02", "name": "Louis Bar", "outdoor_seating": "yes"}}, {"type": "node", "id": 4795817524, "lat": 45.7659506, "lon": 4.833876, "tags": {"amenity": "bar", "name": "Le Passage", "opening_hours": "Tu-Sa 20:00-01:00", "ref:FR:SIRET": "33189063200010"}}, {"type": "node", "id": 4825868924, "lat": 45.7509384, "lon": 4.8424799, "tags": {"amenity": "bar", "contact:email": "contact@bourbignon.fr", "name": "L'Atelier du Bourbignon", "opening_hours": "Tu-Sa 17:00-24:00", "phone": "+33 9 83 68 96 85", "ref:FR:SIRET": "98022856300014", "website": "https://www.bourbignon.fr/"}}, {"type": "node", "id": 4858312416, "lat": 45.7744806, "lon": 4.8304779, "tags": {"amenity": "bar", "name": "Galopin", "opening_hours": "Mo-Su 10:00-01:00, Mo-Su,PH 10:00-01:00", "ref:FR:SIRET": "82158956100017"}}, {"type": "node", "id": 4930487821, "lat": 45.7613189, "lon": 4.832046, "tags": {"amenity": "bar", "check_date:opening_hours": "2024-02-14", "name": "L'Ange Di Vin", "opening_hours:signed": "no", "ref:FR:SIRET": "75171004700018", "survey:date": "2023-09-14"}}, {"type": "node", "id": 4940584513, "lat": 45.7536464, "lon": 4.8385663, "tags": {"air_conditioning": "yes", "amenity": "bar", "brewery": "mystic;weihenstephaner;benediktiner;k\u00f6stritzer", "cuisine": "german", "diet:vegan": "yes", "email": "lyon7@kaffeeberlin.com", "internet_access": "no", "name": "Kaffee Berlin", "opening_hours": "Mo-Sa 11:30-00:00; Su 11:30-23:00", "outdoor_seating": "yes", "phone": "+33 4 72 70 88 77", "ref:FR:SIRET": "89316954000026", "website": "https://www.kaffeeberlin.com", "website:menu": "https://www.kaffeeberlin.com/index.php/menu/", "wheelchair": "limited"}}, {"type": "node", "id": 5039727657, "lat": 45.7503386, "lon": 4.8866761, "tags": {"amenity": "bar", "contact:facebook": "Drink-Bar-102479353159379", "name": "Le Drink", "phone": "+33 4 78 53 26 06", "ref:FR:SIRET": "40846071500043"}}, {"type": "node", "id": 5102608321, "lat": 45.7703491, "lon": 4.8317138, "tags": {"amenity": "bar", "check_date": "2023-05-08", "indoor_seating": "yes", "level": "0", "name": "Aupr\u00e8s de mon arbre", "opening_hours": "Mo 16:00-23:00; Tu 16:00-00:45; We-Sa 09:30-00:45; Su 09:30-23:00", "outdoor_seating": "yes", "ref:FR:SIRET": "84849908300014", "website": "https://aupres-de-mon-arbre.eatbu.com/", "wheelchair": "no"}}, {"type": "node", "id": 5104774383, "lat": 45.7463042, "lon": 4.82364, "tags": {"amenity": "bar", "contact:city": "Lyon", "contact:housenumber": "32", "contact:postcode": "69002", "description": "Bar \u00e0 bi\u00e8res.", "email": "contact@brasserieplatypus.com", "name": "Platypus Caf\u00e9 Brewpub", "opening_hours": "Mo-We 17:00-24:00, Th-Sa 17:00-01:00", "phone": "+336 50 88 03 50", "ref:FR:SIRET": "80949216800020", "website": "https://brasserieplatypus.com/", "wheelchair": "no"}}, {"type": "node", "id": 5116858721, "lat": 45.7709807, "lon": 4.8373371, "tags": {"addr:housenumber": "19", "addr:street": "Rue Royale", "amenity": "bar", "cocktails": "yes", "contact:facebook": "https://www.facebook.com/fantome.opera.bar", "contact:instagram": "unfantomealyon", "email": "fantomeoperalyon@gmail.com", "name": "Le Fant\u00f4me de l'Op\u00e9ra", "opening_hours": "Tu-Sa 18:00-01:00", "phone": "+33437920388", "ref:FR:SIRET": "53096293500025", "website": "http://www.lefantomedelopera.fr/"}}, {"type": "node", "id": 5130495451, "lat": 45.7682605, "lon": 4.8563643, "tags": {"amenity": "bar", "name": "L\u2019Artchimiste", "opening_hours": "Mo-Su 17:00-01:00", "phone": "+33478411585", "ref:FR:SIRET": "82884757400021", "website": "https://www.lartchimiste.fr/"}}, {"type": "node", "id": 5230020620, "lat": 45.7704012, "lon": 4.836705, "tags": {"amenity": "bar", "brewery": "Guinness", "brewery:note": "Brasserie du Mont-Blanc", "contact:facebook": "https://www.facebook.com/LesBarjaqueurs/", "name": "Les Barjaqueurs", "opening_hours": "Mo-Su 17:00-01:00", "outdoor_seating": "yes", "phone": "+33 9 67 72 87 91", "ref:FR:SIRET": "82009625300019", "smoking": "outside", "website": "http://www.les-barjaqueurs.com/"}}, {"type": "node", "id": 5298143155, "lat": 45.7567937, "lon": 4.8161456, "tags": {"amenity": "bar", "contact:city": "Lyon", "contact:country": "FR", "contact:housenumber": "33", "contact:postcode": "69005", "contact:street": "Rue de Trion", "name": "Le bistro Nic\u00e9phore"}}, {"type": "node", "id": 5309712466, "lat": 45.7508907, "lon": 4.8421862, "tags": {"amenity": "bar", "brewery": "no", "contact:instagram": "https://www.instagram.com/basement.cool/", "indoor_seating": "yes", "name": "Basement", "opening_hours": "Tu-Sa 15:00-24:00, Su 15:00-22:00", "outdoor_seating": "yes", "ref:FR:SIRET": "88234722200011", "smoking": "outside", "toilets": "yes", "toilets:wheelchair": "no", "website": "https://www.basement.cool/", "wheelchair": "limited"}}, {"type": "node", "id": 5387193989, "lat": 45.7685124, "lon": 4.8300084, "tags": {"amenity": "bar", "contact:email": "contact@mmlyon.com", "contact:phone": "+33 4 72008767", "contact:website": "http://mmlyon.com/", "name": "La Maison M", "opening_hours": "We-Sa 19:30-04:00", "ref:FR:SIRET": "79788354300010"}}, {"type": "node", "id": 5403800843, "lat": 45.7709749, "lon": 4.8345855, "tags": {"amenity": "bar", "contact:facebook": "https://www.facebook.com/lebistrodacote", "contact:housenumber": "28", "contact:street": "Rue des Tables Claudiennes", "name": "Le BistrO d'\u00e0 c\u00d4t\u00e9", "ref:FR:SIRET": "80239715800014"}}, {"type": "node", "id": 5415142499, "lat": 45.7693037, "lon": 4.8320818, "tags": {"amenity": "bar", "brewery": "yes", "name": "Le Shalala", "opening_hours": "We-Sa 18:18-01:01", "outdoor_seating": "no", "phone": "+33 9 50 49 52 84", "website": "https://www.leshalala.com/"}}, {"type": "node", "id": 5435506467, "lat": 45.7549728, "lon": 4.875252, "tags": {"amenity": "bar", "check_date": "2023-10-17", "name": "La Station", "ref:FR:SIRET": "34206853300021", "wheelchair": "no"}}, {"type": "node", "id": 5512514457, "lat": 45.750057, "lon": 4.8299973, "tags": {"amenity": "bar", "name": "Caf\u00e9 Lyonnais", "survey:date": "2023-08-19"}}, {"type": "node", "id": 5536564126, "lat": 45.7540424, "lon": 4.8853953, "tags": {"amenity": "bar", "check_date": "2023-04-20", "name": "Bar du Tramway"}}, {"type": "node", "id": 5538563321, "lat": 45.7696185, "lon": 4.8568353, "tags": {"amenity": "bar", "indoor_seating": "yes", "name": "Barabaar", "opening_hours": "08:00-01:00", "outdoor_seating": "yes", "ref:FR:SIRET": "41495941100011"}}, {"type": "node", "id": 5598900921, "lat": 45.7654445, "lon": 4.8289244, "tags": {"amenity": "bar", "check_date:opening_hours": "2022-08-28", "indoor_seating": "yes", "name": "Le Bar Bu", "opening_hours:signed": "no", "outdoor_seating": "no"}}, {"type": "node", "id": 5606383068, "lat": 45.7570458, "lon": 4.8511828, "tags": {"air_conditioning": "yes", "amenity": "bar", "brewery": "yes", "name": "L\u2019Alternateur", "opening_hours": "Mo-We 17:00-23:30; Th-Sa 17:00-01:00", "outdoor_seating": "yes", "phone": "+33 981113514", "ref:FR:SIRET": "91145684600011", "website": "https://linktr.ee/lalternateurbar", "wheelchair": "limited"}}, {"type": "node", "id": 5703689695, "lat": 45.747567, "lon": 4.838654, "tags": {"amenity": "bar", "contact:instagram": "https://www.instagram.com/tic.et.tac.bar/", "name": "Tic & Tac Bar", "opening_hours": "Mo-Sa 16:30-00:30", "outdoor_seating": "yes", "ref:FR:SIRET": "91772552500013", "smoking": "outside"}}, {"type": "node", "id": 5706977358, "lat": 45.7706062, "lon": 4.8370066, "tags": {"amenity": "bar", "name": "Groom", "ref:FR:SIRET": "81459422200022"}}, {"type": "node", "id": 5752127441, "lat": 45.7521649, "lon": 4.8441559, "tags": {"alt_name": "L'Amicale du Futur", "amenity": "bar", "brewery": "yes", "check_date": "2024-05-29", "description": "Bar associatif, avec biblioth\u00e8que gratuite (sans emprunt)", "name": "L'Amicale", "note": "Pr\u00e9sence d'une biblioth\u00e8que gratuite (sans emprunt)", "opening_hours": "We-Fr 14:00-22:00", "outdoor_seating": "no", "smoking": "outside", "website": "https://amicale.online/", "wheelchair": "yes"}}, {"type": "node", "id": 5859940650, "lat": 45.7697199, "lon": 4.8289488, "tags": {"amenity": "bar", "contact:city": "Lyon 1er Arrondissement", "contact:housenumber": "30", "contact:phone": "+33 4 78 28 85 26", "contact:postcode": "69001", "contact:street": "Rue De L'annonciade", "name": "Cabana Caf\u00e9", "opening_hours": "Tu 18:30-23:59; We 00:00-02:00, 18:30-23:59; Th-Sa 00:00-04:00, 18:30-23:59; Su 00:00-04:00", "outdoor_seating": "no", "ref:FR:SIRET": "50069159700024", "website": "https://www.privateaser.com/lieu/43618-cabana-cafe"}}, {"type": "node", "id": 5871205186, "lat": 45.7544347, "lon": 4.8395915, "tags": {"amenity": "bar", "brewery": "BrewDog Punk Ipa", "happy_hours": "Mo-Su 16:00-20:00", "name": "PEPS public House", "opening_hours": "Mo-Su 15:00-01:00", "outdoor_seating": "yes", "ref:FR:SIRET": "83903938500019"}}, {"type": "node", "id": 5957804985, "lat": 45.7508453, "lon": 4.8205114}, {"type": "node", "id": 5957804986, "lat": 45.7508468, "lon": 4.8205263}, {"type": "node", "id": 5957804987, "lat": 45.7508443, "lon": 4.8205433}, {"type": "node", "id": 5957804988, "lat": 45.7508394, "lon": 4.8205553}, {"type": "node", "id": 5957804989, "lat": 45.750831, "lon": 4.820561}, {"type": "node", "id": 5957804990, "lat": 45.7508216, "lon": 4.820561}, {"type": "node", "id": 5957804991, "lat": 45.7508112, "lon": 4.8205589}, {"type": "node", "id": 5957804992, "lat": 45.7508003, "lon": 4.8205504}, {"type": "node", "id": 5957804993, "lat": 45.7506208, "lon": 4.8201811}, {"type": "node", "id": 5957804994, "lat": 45.7506198, "lon": 4.8201634}, {"type": "node", "id": 5957804995, "lat": 45.7506247, "lon": 4.8201464}, {"type": "node", "id": 5957804996, "lat": 45.7506346, "lon": 4.8201379}, {"type": "node", "id": 5957804997, "lat": 45.7506465, "lon": 4.8201364}, {"type": "node", "id": 5957804998, "lat": 45.7506613, "lon": 4.8201449}, {"type": "node", "id": 5988418586, "lat": 45.7418273, "lon": 4.8380445}, {"type": "node", "id": 6091582143, "lat": 45.7581758, "lon": 4.8360855, "tags": {"amenity": "bar", "check_date": "2024-07-07", "check_date:opening_hours": "2024-07-07", "level": "0", "name": "Justin", "opening_hours:signed": "no", "outdoor_seating": "yes"}}, {"type": "node", "id": 6146232983, "lat": 45.7473422, "lon": 4.8383745, "tags": {"addr:housenumber": "145", "addr:postcode": "69007", "addr:street": "Rue S\u00e9bastien Gryphe", "amenity": "bar", "check_date:opening_hours": "2023-11-03", "name": "Orgao Beer House", "opening_hours": "Tu-Sa 17:00-01:00", "outdoor_seating": "yes", "ref:FR:SIRET": "83858780600012", "smoking": "outside", "website": "https://orgaobeerhouse.com/", "website:menu": "https://untappd.com/v/orgao-beer-house-lyon/8598406"}}, {"type": "node", "id": 6227571004, "lat": 45.7645674, "lon": 4.8273931, "tags": {"amenity": "bar", "description": "Club de fl\u00e9chettes et bar \u00e0 bi\u00e8res", "name": "Darts club des gones", "website": "https://dartsclubdesgones.blogspot.com/"}}, {"type": "node", "id": 6352641891, "lat": 45.7369791, "lon": 4.868997, "tags": {"amenity": "bar", "name": "Le Bachut", "opening_hours": "Mo-Fr 15:30-19:00; Sa 10:00-12:00", "wheelchair": "yes"}}, {"type": "node", "id": 6376310776, "lat": 45.7631242, "lon": 4.8522504, "tags": {"amenity": "bar", "name": "City Bar", "opening_hours": "Mo-Fr 08:00-22:00; Sa 10:00-22:00", "ref:FR:SIRET": "81356078600010"}}, {"type": "node", "id": 6376365165, "lat": 45.7666814, "lon": 4.8425326, "tags": {"amenity": "bar", "name": "Le Moli\u00e8re", "ref:FR:SIRET": "79012996900024"}}, {"type": "node", "id": 6376637433, "lat": 45.7704867, "lon": 4.8371669, "tags": {"amenity": "bar", "name": "Le Speaker", "old_name": "Imp\u00e9rial Discoth\u00e8que", "website": "https://speaker-lyon.com/"}}, {"type": "node", "id": 6381278834, "lat": 45.7686796, "lon": 4.835799, "tags": {"amenity": "bar", "name": "Sudaka"}}, {"type": "node", "id": 6406885808, "lat": 45.7698414, "lon": 4.8487517, "tags": {"amenity": "bar", "name": "Le Paddock", "phone": "+33 4 78 17 75 40", "ref:FR:SIRET": "44045392600014"}}, {"type": "node", "id": 6407224082, "lat": 45.7658946, "lon": 4.8442707, "tags": {"amenity": "bar", "name": "L\u2019Edgar Quinet", "ref:FR:SIRET": "82112998800027", "survey:date": "2021-01-27"}}, {"type": "node", "id": 6407257906, "lat": 45.7695834, "lon": 4.8425839, "tags": {"amenity": "bar", "name": "Le Queen Mary", "ref:FR:SIRET": "79106095700010"}}, {"type": "node", "id": 6407340021, "lat": 45.7695299, "lon": 4.8357103, "tags": {"amenity": "bar", "name": "Le Romarin Caf\u00e9", "ref:FR:SIRET": "83227938400016"}}, {"type": "node", "id": 6449268484, "lat": 45.7652937, "lon": 4.8334836, "tags": {"amenity": "bar", "check_date": "2023-09-22", "contact:email": "letempsdescop1@gmail.com", "contact:facebook": "https://www.facebook.com/pg/BarLeTempsDesCopains", "name": "Le Temps des Copains", "opening_hours": "Mo-Su 18:00-03:00", "outdoor_seating": "no", "phone": "+33 625222010", "ref:FR:SIRET": "81326914900023"}}, {"type": "node", "id": 6480642985, "lat": 45.7491595, "lon": 4.84445, "tags": {"amenity": "bar", "contact:email": "contact@pivert-lyon.fr", "contact:phone": "+33427829609", "facebook": "https://www.facebook.com/pivertlyon/", "name": "Pivert Caf\u00e9-Restaurant", "opening_hours": "Tu-Fr 07:30-23:00, Sa 08:00-17:30", "ref:FR:SIRET": "52086812600043"}}, {"type": "node", "id": 6496954833, "lat": 45.7687792, "lon": 4.8353961, "tags": {"amenity": "bar", "name": "Le B\u00e2ton Rouge"}}, {"type": "node", "id": 6651896452, "lat": 45.7575704, "lon": 4.8248577, "tags": {"amenity": "bar", "contact:city": "Lyon 5eme Arrondissement", "contact:housenumber": "48", "contact:phone": "+33 9 74 73 58 68", "contact:postcode": "69005", "contact:street": "Rue Saint-Georges", "cuisine": "burger", "name": "Johnny's Kitchen", "opening_hours": "Mo-Su 00:00-01:00, 12:00-23:59", "phone": "+33 4 78 37 94 13", "ref:FR:SIRET": "44490711700022", "website": "https://www.privateaser.com/lieu/43745-johnny-s-kitchen"}}, {"type": "node", "id": 6710231398, "lat": 45.7629433, "lon": 4.8327947, "tags": {"addr:city": "Lyon", "addr:housenumber": "35", "addr:postcode": "69002", "addr:street": "Rue Merci\u00e8re", "amenity": "bar", "name": "UNI Merci\u00e8re", "outdoor_seating": "yes", "ref:FR:SIRET": "81535085500012", "survey:date": "2023-09-14", "website": "https://www.lieuxdevie.restaurant-uni.com/"}}, {"type": "node", "id": 6710231400, "lat": 45.7630275, "lon": 4.8326011, "tags": {"amenity": "bar", "name": "La Galacia", "survey:date": "2023-09-14"}}, {"type": "node", "id": 6724424885, "lat": 45.7652039, "lon": 4.8324186, "tags": {"amenity": "bar", "name": "Le Chavanne"}}, {"type": "node", "id": 6781125931, "lat": 45.7760005, "lon": 4.8013875, "tags": {"amenity": "bar", "check_date": "2023-12-10", "check_date:opening_hours": "2024-03-10", "name": "L'Atelier", "opening_hours:signed": "no", "outdoor_seating": "yes", "ref:FR:SIRET": "44378974800011"}}, {"type": "node", "id": 6792062839, "lat": 45.7498904, "lon": 4.8853257, "tags": {"amenity": "bar", "name": "Le Moli\u00e8re", "ref:FR:SIRET": "45238608900042"}}, {"type": "node", "id": 6792062842, "lat": 45.7497517, "lon": 4.884904, "tags": {"amenity": "bar", "check_date": "2023-01-03", "description": "Bar PMU", "indoor_seating": "yes", "name": "Caf\u00e9 Montchat", "opening_hours": "Mo 12:00-20:30; Tu-Sa 08:00-20:30; Su 08:00-15:30", "outdoor_seating": "parklet", "ref:FR:SIRET": "82993902400016"}}, {"type": "node", "id": 6855176187, "lat": 45.7671971, "lon": 4.8269127, "tags": {"amenity": "bar", "check_date:opening_hours": "2023-05-29", "contact:city": "Lyon 5eme Arrondissement", "contact:housenumber": "113", "contact:phone": "+33 9 74 73 53 92", "contact:postcode": "69005", "contact:street": "Quai De Pierre-Scize", "delivery": "no", "name": "Kodama Bar Lyon", "opening_hours": "Tu-Su 18:30-01:00", "opening_hours:signed": "no", "website": "https://www.privateaser.com/lieu/40824-kodama", "wheelchair": "yes"}}, {"type": "node", "id": 6874995535, "lat": 45.763077, "lon": 4.8321849, "tags": {"amenity": "bar", "brewery": "yes", "contact:city": "Lyon 2eme Arrondissement", "contact:housenumber": "19", "contact:phone": "+33 4 78 79 17 58", "contact:postcode": "69002", "contact:street": "Quai Saint-Antoine", "cuisine": "burger", "diet:vegetarian": "yes", "food": "yes", "name": "Le Quai 19", "opening_hours": "Mo-We 16:00-02:00, Th-Sa 16:00-04:00, Su 17:00-01:00", "phone": "+33 4 78 79 17 58", "ref:FR:SIRET": "79540170200027"}}, {"type": "node", "id": 6874995536, "lat": 45.762129, "lon": 4.8320294, "tags": {"alt_name": "Best beers concept", "amenity": "bar", "contact:facebook": "https://www.facebook.com/bbccafelyon", "description": "Bar \u00e0 Bi\u00e8re", "name": "BBC Caf\u00e9", "opening_hours": "Tu 17:00-01:00, We-Sa 17:00-04:00", "phone": "+33 4 28 29 41 41", "ref:FR:SIRET": "44467430300045"}}, {"type": "node", "id": 6906110495, "lat": 45.7615606, "lon": 4.8324186, "tags": {"amenity": "bar", "name": "Wallace", "ref:FR:SIRET": "48255136300021", "survey:date": "2023-09-14"}}, {"type": "node", "id": 6918242550, "lat": 45.7614165, "lon": 4.8320304, "tags": {"amenity": "bar", "contact:city": "Lyon 2eme Arrondissement", "contact:housenumber": "14", "contact:phone": "+33 4 87 61 96 77", "contact:postcode": "69002", "contact:street": "Rue De La Monnaie", "name": "Caf\u00e9 Court", "opening_hours": "Mo 18:00-23:59; Tu-Sa 00:00-01:00, 17:00-23:59; Su 00:00-01:00", "ref:FR:SIRET": "88315971700015", "survey:date": "2023-09-14", "website": "https://www.privateaser.com/lieu/41138-cafe-court"}}, {"type": "node", "id": 6920874554, "lat": 45.7848366, "lon": 4.8528161, "tags": {"amenity": "bar", "name": "Barum", "website": "https://www.barum-lyon.fr/"}}, {"type": "node", "id": 6933010211, "lat": 45.7619092, "lon": 4.840454, "tags": {"access": "customers", "entrance": "yes"}}, {"type": "node", "id": 6933010212, "lat": 45.761979, "lon": 4.8404642, "tags": {"access": "customers", "entrance": "yes"}}, {"type": "node", "id": 6939926699, "lat": 45.758533, "lon": 4.8363211, "tags": {"amenity": "bar", "name": "Kabestan", "opening_hours": "Mo-Sa 11:00-24:00, Su 11:00-18:00", "survey:date": "2023-09-17", "wheelchair": "yes"}}, {"type": "node", "id": 6939998885, "lat": 45.7582788, "lon": 4.8355588, "tags": {"amenity": "bar", "check_date:opening_hours": "2024-02-24", "description": "Bar \u00e0 vin", "drink:wine": "yes", "indoor_seating": "yes", "name": "Le 20", "opening_hours:signed": "no", "outdoor_seating": "yes", "ref:FR:SIRET": "79862628900010", "survey:date": "2023-09-17"}}, {"type": "node", "id": 6954907660, "lat": 45.7609797, "lon": 4.8323809, "tags": {"amenity": "bar", "name": "Le Big", "ref:FR:SIRET": "82407582400014", "survey:date": "2023-08-27"}}, {"type": "node", "id": 6954907664, "lat": 45.7607611, "lon": 4.8322856, "tags": {"amenity": "bar", "name": "Le Temple", "opening_hours": "Mo-Su 16:00-01:00", "survey:date": "2023-08-27"}}, {"type": "node", "id": 7006019625, "lat": 45.7320189, "lon": 4.8836828, "tags": {"amenity": "bar", "name": "Bis'tram", "ref:FR:SIRET": "84824610400014"}}, {"type": "node", "id": 7071592322, "lat": 45.7568378, "lon": 4.8282159, "tags": {"amenity": "bar", "drink:wine": "yes", "name": "L'Encart", "opening_hours": "Mo-Fr 12:00-14:00, Th,Fr 19:00-01:00", "ref:FR:SIRET": "78994682900023"}}, {"type": "node", "id": 7090377600, "lat": 45.755988, "lon": 4.8679961, "tags": {"amenity": "bar", "check_date": "2023-09-04", "name": "LB Lyon", "opening_hours": "14:00-01:00; Fr,Sa 14:00-02:00", "phone": "+33 4 87 38 90 64", "wheelchair": "no"}}, {"type": "node", "id": 7115053320, "lat": 45.7513037, "lon": 4.8262374, "tags": {"amenity": "bar", "contact:facebook": "https://www.facebook.com/people/Chenin-N20/100033687733651/", "contact:instagram": "https://www.instagram.com/chenin_n20/?hl=en", "description": "Bar \u00e0 vins", "min_age": "18", "name": "Chenin \u2116 20", "phone": "+33983456469", "ref:FR:SIRET": "82430076800010"}}, {"type": "node", "id": 7122675887, "lat": 45.7750605, "lon": 4.830997, "tags": {"addr:housenumber": "6", "addr:street": "Rue de Cuire", "amenity": "bar", "check_date": "2022-11-01", "internet_access": "no", "level": "0", "name": "Tok\u00e9", "opening_hours": "11:30-22:30", "payment:credit_cards": "yes", "ref:FR:SIRET": "79376508200011", "wheelchair": "limited"}}, {"type": "node", "id": 7122780885, "lat": 45.7543402, "lon": 4.8394045, "tags": {"amenity": "bar", "check_date": "2023-04-09", "email": "pierre@lesemple-lyon.com", "name": "Le Semple", "opening_hours": "Tu-We 10:00-23:00; Th-Fr 10:00-01:00; Sa 14:00-01:00", "phone": "+33 6 12 89 15 89", "ref:FR:SIRET": "84772347500012", "website": "http://lesemple-lyon.com"}}, {"type": "node", "id": 7301436176, "lat": 45.7617695, "lon": 4.8345576, "tags": {"amenity": "bar", "check_date:opening_hours": "2024-02-24", "name": "El Chapeau", "opening_hours:signed": "no", "ref:FR:SIRET": "95302571500020", "survey:date": "2023-08-17"}}, {"type": "node", "id": 7302402755, "lat": 45.7597714, "lon": 4.8310044, "tags": {"amenity": "bar", "name": "Le Kabuki", "survey:date": "2023-10-08"}}, {"type": "node", "id": 7343100457, "lat": 45.7616895, "lon": 4.831789, "tags": {"amenity": "bar", "contact:phone": "+33478857074", "name": "Ffa - Federation Fran\u00e7aise De L'aperitif - Lyon", "opening_hours": "Tu,We 10:00-22:00; Th-Sa 10:00-23:00; Su 10:00-14:00", "ref:FR:SIRET": "89784081500020", "website": "https://www.ffaperitif.com"}}, {"type": "node", "id": 7344124789, "lat": 45.7745922, "lon": 4.8291135, "tags": {"amenity": "bar", "cuisine": "french", "indoor_seating": "yes", "name": "Caf\u00e9 de la Soierie", "outdoor_seating": "yes", "ref:FR:SIRET": "81335268900018"}}, {"type": "node", "id": 7379273258, "lat": 45.7487726, "lon": 4.8382682, "tags": {"amenity": "bar", "check_date": "2023-09-13", "internet_access": "wlan", "name": "La Plante du Loup", "opening_hours": "Mo 16:00-23:00; Sa 10:00-23:00; Tu-Fr 11:00-14:00,16:00-23:00"}}, {"type": "node", "id": 7433527651, "lat": 45.7627632, "lon": 4.8351111, "tags": {"addr:housenumber": "12", "addr:street": "Rue du Palais Grillet", "amenity": "bar", "check_date:opening_hours": "2024-06-30", "cocktails": "yes", "contact:instagram": "pompette_lyon", "name": "Pompette", "opening_hours": "Mo-Tu 18:00-00:00; We-Sa 18:00-01:00", "opening_hours:signed": "no", "phone": "+33487372154", "ref:FR:SIRET": "89486285300013", "website": "https://www.pompettelyon.com/"}}, {"type": "node", "id": 7434190912, "lat": 45.7629309, "lon": 4.8329968, "tags": {"access:covid19": "no", "amenity": "bar", "contact:city": "Lyon 2eme Arrondissement", "contact:facebook": "https://www.facebook.com/BarLePleinSud/", "contact:housenumber": "3", "contact:instagram": "https://www.instagram.com/plein_sud_lyon2/", "contact:phone": "+33 6 11 95 23 20", "contact:postcode": "69002", "contact:street": "Rue Tupin", "delivery:covid19": "yes", "delivery:ubereats": "https://www.ubereats.com/fr/lyon/food-delivery/plein-sud-lyon-2/-Dd3IleyQ9aTziMeY2_CIA", "name": "Plein Sud", "opening_hours": "Mo 11:00-23:59; Tu-Sa 00:00-04:00, 11:00-23:59; Su 00:00-04:00", "phone": "+33 4 78 42 52 62", "ref:FR:SIRET": "35097151100018", "survey:date": "2023-09-14", "takeaway:covid19": "yes"}}, {"type": "node", "id": 7499062668, "lat": 45.7652482, "lon": 4.8362787, "tags": {"amenity": "bar", "check_date:opening_hours": "2022-10-29", "name": "Vivants", "opening_hours:signed": "no", "survey:date": "2022-09-16"}}, {"type": "node", "id": 7499064153, "lat": 45.7646911, "lon": 4.8369857, "tags": {"amenity": "bar", "name": "Le Hall de la Bourse", "ref:FR:SIRET": "53814548300029", "survey:date": "2023-08-19"}}, {"type": "node", "id": 7499089705, "lat": 45.7663571, "lon": 4.8369235, "tags": {"amenity": "bar", "lgbtq": "primary", "name": "L bar", "ref:FR:SIRET": "53438607300017", "survey:date": "2022-03-13"}}, {"type": "node", "id": 7499147567, "lat": 45.7641224, "lon": 4.8376452, "tags": {"amenity": "bar", "lgbtq": "primary", "name": "XS Bar", "ref:FR:SIRET": "52457070200018", "survey:date": "2022-03-13"}}, {"type": "node", "id": 7501744140, "lat": 45.7627084, "lon": 4.8343952, "tags": {"amenity": "bar", "check_date:opening_hours": "2023-09-16", "contact:city": "Lyon 2eme Arrondissement", "contact:housenumber": "4", "contact:phone": "+33 9 74 64 01 39", "contact:postcode": "69002", "contact:street": "Rue Des Quatre Chapeaux", "name": "Le Qu4Tre", "opening_hours": "Tu-Sa 16:00-01:00", "ref:FR:SIRET": "81437022700013", "short_name": "Iv", "website": "https://www.privateaser.com/lieu/1669-le-qu4tre"}}, {"type": "node", "id": 7549176121, "lat": 45.7597582, "lon": 4.8408111, "tags": {"amenity": "bar", "check_date": "2023-05-15", "name": "Buvette du pont Wilson", "outdoor_seating": "yes"}}, {"type": "node", "id": 7551752924, "lat": 45.7657414, "lon": 4.8328359, "tags": {"amenity": "bar", "name": "Les arcades", "ref:FR:SIRET": "30327455900010"}}, {"type": "node", "id": 7551897549, "lat": 45.7529902, "lon": 4.8529874, "tags": {"amenity": "bar", "name": "Le F\u00e9lix Faure"}}, {"type": "node", "id": 7552254922, "lat": 45.7532256, "lon": 4.8549458, "tags": {"amenity": "bar", "check_date:opening_hours": "2022-12-31", "name": "Le Bistrot de la Place", "opening_hours:signed": "no", "ref:FR:SIRET": "44194420400037"}}, {"type": "node", "id": 7573415021, "lat": 45.7441376, "lon": 4.8696472, "tags": {"amenity": "bar", "cuisine": "tapas", "indoor_seating": "yes", "name": "Bar des Champ's", "opening_hours": "Tu-Sa 07:30-24:00", "outdoor_seating": "yes", "wheelchair": "no"}}, {"type": "node", "id": 7578578794, "lat": 45.7684612, "lon": 4.8359632, "tags": {"amenity": "bar", "check_date": "2024-07-14", "name": "Les Poup\u00e9es Russes", "ref:FR:SIRET": "38145436200025"}}, {"type": "node", "id": 7578623544, "lat": 45.767839, "lon": 4.8338655, "tags": {"amenity": "bar", "check_date": "2023-05-08", "name": "Le Leffe"}}, {"type": "node", "id": 7580971615, "lat": 45.7683272, "lon": 4.830405, "tags": {"addr:housenumber": "27", "addr:postcode": "69001", "addr:street": "Rue de la Martini\u00e8re", "amenity": "bar", "brewery": "orange mecanique;hara kiri;red is dead;temp\u00eate du d\u00e9sert;rousse @Mont-Blanc;Saison bio;Punk IPA;Big Job;La Trappe Isidor;Carolus Tripel;La Chouffe;Tank7;sex ale & rock n rolll", "brewery:note": "sex ale and rock n rolll", "indoor_seating": "yes", "name": "Hopstore", "opening_hours": "Mo-Su 10:00-01:00", "outdoor_seating": "yes", "website": "https://hopstorelyon.fr/#/home"}}, {"type": "node", "id": 7589703671, "lat": 45.761342, "lon": 4.8318992, "tags": {"amenity": "bar", "name": "Dix Huit M\u00e8tres Carr\u00e9", "opening_hours": "We-Sa 08:00-01:00", "ref:FR:SIRET": "82140835800017", "survey:date": "2023-09-14"}}, {"type": "node", "id": 7610278195, "lat": 45.7649787, "lon": 4.8337015, "tags": {"amenity": "bar", "name": "Le Boulevardier Bar"}}, {"type": "node", "id": 7610356827, "lat": 45.7652598, "lon": 4.8349263, "tags": {"amenity": "bar", "capacity": "200", "contact:city": "Lyon 1er Arrondissement", "contact:housenumber": "7", "contact:phone": "+33 4 81 69 47 26", "contact:postcode": "69001", "contact:street": "Rue Neuve", "cuisine": "italian;pizza;pasta", "diet:vegetarian": "yes", "internet_access": "wlan", "name": "Carmelo - Big Mamma", "opening_hours": "Mo-Fr 11:45-14:15,18:45-22:45; Sa 12:00-15:15,18:45-23:00; Su 12:00-15:15,18:45-22:45", "outdoor_seating": "no", "ref:FR:SIRET": "83416827000025", "reservation": "recommended", "toilets": "yes", "website": "https://www.bigmammagroup.com/fr/trattorias/carmelo"}}, {"type": "node", "id": 7610379739, "lat": 45.7654604, "lon": 4.8327736, "tags": {"addr:city": "Lyon", "addr:housenumber": "1", "addr:postcode": "69001", "addr:street": "Rue Chavanne", "amenity": "bar", "email": "contact@legrisbi.fr", "name": "Le Grisbi", "opening_hours": "Tu-Sa 19:00-01:00", "phone": "+33 66 949 46 30", "ref:FR:SIRET": "83816654400026", "website": "https://legrisbi.fr"}}, {"type": "node", "id": 7610501423, "lat": 45.7669321, "lon": 4.8350727, "tags": {"amenity": "bar", "contact:phone": "+33 9 74 64 03 75", "name": "Chamax"}}, {"type": "node", "id": 7615617419, "lat": 45.7410975, "lon": 4.8208492, "tags": {"amenity": "bar", "amenity_1": "restaurant", "contact:phone": "+33437574355", "name": "Conflutime", "opening_hours": "Mo-Fr 10:00-23:30; Sa 15:00-23:30", "outdoor_seating": "yes", "phone": "+33437574355", "ref:FR:SIRET": "83198940500020", "website": "https://conflutime.fr/"}}, {"type": "node", "id": 7783349437, "lat": 45.7692247, "lon": 4.8319487, "tags": {"amenity": "bar", "brewery": "yes", "check_date": "2023-10-20", "check_date:opening_hours": "2023-05-20", "harassment_prevention": "ask_angela", "internet_access": "wlan", "internet_access:fee": "no", "level": "0", "name": "AlternatiBar - Maison des alternatives", "opening_hours": "Th-Sa 18:00-24:00", "outdoor_seating": "no", "payment:cb": "yes", "payment:credit_cards": "yes", "phone": "+33 4 78 28 42 06", "smoking": "no", "toilets": "yes", "toilets:access": "permissive", "toilets:wheelchair": "limited", "website": "https://alternatiba.eu/rhone/alternatibar/", "wheelchair": "limited"}}, {"type": "node", "id": 7795049785, "lat": 45.7645661, "lon": 4.8271756, "tags": {"amenity": "bar", "name": "La Traboule"}}, {"type": "node", "id": 7958968034, "lat": 45.7694151, "lon": 4.853024, "tags": {"amenity": "bar", "name": "Le Berkeley", "survey:date": "2020-10-06"}}, {"type": "node", "id": 7987480640, "lat": 45.7365802, "lon": 4.842202, "tags": {"air_conditioning": "yes", "amenity": "bar", "brewery": "yes", "check_date": "2024-10-05", "check_date:opening_hours": "2024-10-05", "internet_access": "no", "name": "La maison bleue", "opening_hours": "Mo-Fr 08:00-01:00, Sa 17:00-01:00", "outdoor_seating": "yes", "payment:mastercard": "yes", "payment:visa": "yes", "wheelchair": "limited"}}, {"type": "node", "id": 7997621826, "lat": 45.7616302, "lon": 4.8440574, "tags": {"amenity": "bar", "contact:city": "Lyon 3eme Arrondissement", "contact:housenumber": "96", "contact:instagram": "@bazar.lyon", "contact:phone": "+33 4 78 60 21 28", "contact:postcode": "69003", "contact:street": "Rue Pierre Corneille", "name": "Bazar", "opening_hours": "Mo, Tu 12:00-14:00; We-Fr 12:00-14:00, 19:00-22:00", "phone": "+33 4 78 60 21 28"}}, {"type": "node", "id": 8065834043, "lat": 45.766287, "lon": 4.8184734, "tags": {"amenity": "bar", "contact:city": "Lyon 9eme Arrondissement", "contact:housenumber": "42", "contact:phone": "+33 6 58 57 54 64", "contact:postcode": "69009", "contact:street": "Quai De Pierre-Scize", "name": "Bar Le 42", "ref:FR:SIRET": "80002794800028"}}, {"type": "node", "id": 8098209305, "lat": 45.7627439, "lon": 4.8284086, "tags": {"amenity": "bar", "name": "American Bar"}}, {"type": "node", "id": 8098237064, "lat": 45.7628703, "lon": 4.8284427, "tags": {"amenity": "bar", "name": "Since the Cavern"}}, {"type": "node", "id": 8098237071, "lat": 45.7625805, "lon": 4.8288025, "tags": {"amenity": "bar", "name": "La Fonderie", "ref:FR:SIRET": "80315201600017"}}, {"type": "node", "id": 8098269136, "lat": 45.7632565, "lon": 4.828971, "tags": {"amenity": "bar", "name": "Black Hole", "ref:FR:SIRET": "88469378900015"}}, {"type": "node", "id": 8098270240, "lat": 45.7627604, "lon": 4.8288482, "tags": {"amenity": "bar", "contact:city": "Lyon 5eme Arrondissement", "contact:housenumber": "17", "contact:phone": "+33 6 18 37 95 69", "contact:postcode": "69005", "contact:street": "Quai Romain Rolland", "name": "Big Easy - Cocktail Bar & Tapas", "opening_hours": "We 18:30-23:59; Th-Fr 00:00-01:00, 18:30-23:59; Sa 00:00-03:00, 18:30-23:59; Su 00:00-03:00", "ref:FR:SIRET": "97050494000010", "website": "https://www.privateaser.com/lieu/40689-big-easy"}}, {"type": "node", "id": 8098278335, "lat": 45.7631359, "lon": 4.8289635, "tags": {"amenity": "bar", "name": "Le Chic", "ref:FR:SIRET": "51013777100018"}}, {"type": "node", "id": 8108778708, "lat": 45.7590777, "lon": 4.8254627, "tags": {"amenity": "bar", "name": "Les petits joueurs"}}, {"type": "node", "id": 8108852030, "lat": 45.7585864, "lon": 4.8253433, "tags": {"addr:city": "Lyon", "addr:housenumber": "20", "addr:postcode": "69005", "addr:street": "Rue Saint-Georges", "amenity": "bar", "check_date": "2023-07-12", "name": "Imohtep Bar"}}, {"type": "node", "id": 8108892447, "lat": 45.7589336, "lon": 4.8260156, "tags": {"amenity": "bar", "check_date": "2023-07-12", "name": "Tata Mona"}}, {"type": "node", "id": 8108966207, "lat": 45.7569519, "lon": 4.8244684, "tags": {"amenity": "bar", "name": "Le Comptoir des Buvards"}}, {"type": "node", "id": 8109003046, "lat": 45.7595307, "lon": 4.8255715, "tags": {"amenity": "bar", "contact:city": "Lyon 5eme Arrondissement", "contact:housenumber": "25", "contact:phone": "+33 9 74 64 00 16", "contact:postcode": "69005", "contact:street": "Rue Tramassac", "indoor_seating": "yes", "name": "Oa\u00ef Resto Bar", "opening_hours": "We-Fr 18:30-23:00; Sa 11:00-23:00; Su 11:00-15:00", "outdoor_seating": "yes", "website": "https://www.privateaser.com/lieu/44448-oai-resto-bar"}}, {"type": "node", "id": 8109830295, "lat": 45.7682665, "lon": 4.8437762, "tags": {"amenity": "bar", "contact:facebook": "LesMarechauxLyon", "email": "lesmarechauxlyon@gmail.com", "name": "Les Mar\u00e9chaux", "phone": "+33 4 26 07 22 56", "ref:FR:SIRET": "83409577000014"}}, {"type": "node", "id": 8112707828, "lat": 45.7657976, "lon": 4.8277767, "tags": {"amenity": "bar", "name": "Bar \u00e0 Gones"}}, {"type": "node", "id": 8113126597, "lat": 45.7688553, "lon": 4.8505863, "tags": {"amenity": "bar", "name": "Josy's Club", "ref:FR:SIRET": "48770803400037"}}, {"type": "node", "id": 8117522046, "lat": 45.7433852, "lon": 4.8217146, "tags": {"amenity": "bar", "name": "La Calanque", "ref:FR:SIRET": "42897828200013"}}, {"type": "node", "id": 8118959034, "lat": 45.7665183, "lon": 4.8281783, "tags": {"amenity": "bar", "name": "Le Dystopik", "opening_hours": "Tu-Sa 14:00-01:00; Su 14:00-00:00", "website": "https://ledystopik.fr/"}}, {"type": "node", "id": 8118987038, "lat": 45.7673734, "lon": 4.8261563, "tags": {"amenity": "bar", "name": "La Parranda"}}, {"type": "node", "id": 8126641319, "lat": 45.7541291, "lon": 4.8412688, "tags": {"amenity": "bar", "name": "Bar Jurassien", "survey:date": "2020-11-16"}}, {"type": "node", "id": 8151049719, "lat": 45.764035, "lon": 4.8438866, "tags": {"amenity": "bar", "name": "Le Scorsese", "survey:date": "2020-11-22"}}, {"type": "node", "id": 8157810109, "lat": 45.7471669, "lon": 4.8243781, "tags": {"amenity": "bar", "name": "Caf\u00e9 Kot - Cocktails & Bi\u00e8res", "opening_hours": "Mo 10:30-24:00; Tu-Fr 10:30-01:00", "website": "http://cafekot.com/"}}, {"type": "node", "id": 8165000119, "lat": 45.7679052, "lon": 4.8445134, "tags": {"amenity": "bar", "brewery": "yes", "name": "Chez Garbis", "opening_hours": "Mo-Fr 08:00-20:00; Sa 08:30-18:00"}}, {"type": "node", "id": 8165540521, "lat": 45.7539447, "lon": 4.8423508, "tags": {"amenity": "bar", "name": "Bar des Artisans", "survey:date": "2020-11-25"}}, {"type": "node", "id": 8168847025, "lat": 45.7515118, "lon": 4.8486205, "tags": {"amenity": "bar", "check_date": "2024-06-30", "name": "Puzzle Bar Retro Gaming"}}, {"type": "node", "id": 8168847034, "lat": 45.7513639, "lon": 4.8475608, "tags": {"amenity": "bar", "indoor_seating": "yes", "name": "Jupiter Bar", "outdoor_seating": "no", "survey:date": "2020-11-26"}}, {"type": "node", "id": 8180762817, "lat": 45.7568291, "lon": 4.8434408, "tags": {"amenity": "bar", "name": "Boomerang", "survey:date": "2020-11-30"}}, {"type": "node", "id": 8197463623, "lat": 45.7468436, "lon": 4.8433249, "tags": {"amenity": "bar", "name": "Verso", "survey:date": "2020-12-05"}}, {"type": "node", "id": 8300633091, "lat": 45.7399277, "lon": 4.8406072, "tags": {"amenity": "bar", "brewery": "Tank;Budweiser;Kwak;Hoeggarden;Ginette;Tripel_Karmeliet;Chouffe;Leffe;Paix_Dieu", "contact:facebook": "https://www.facebook.com/Tank-Lyon-109280200609766/about/?ref=page_internal", "contact:phone": "+33437653653", "name": "Le Tank", "opening_hours": "Mo,Tu 12:00-14:30,17:00-23:30, We-Fr 12:00-14:30,17:00-01:00, Sa 18:00-01:00", "outdoor_seating": "yes", "ref:FR:SIRET": "52833936900027", "website": "https://tank-lyon.fr/", "website:menu": "https://tank-lyon.fr/fr/services"}}, {"type": "node", "id": 8385091824, "lat": 45.7732327, "lon": 4.8096206, "tags": {"amenity": "bar", "check_date": "2024-01-02", "name": "Ziggy"}}, {"type": "node", "id": 8600278031, "lat": 45.769524, "lon": 4.8317257, "tags": {"amenity": "bar", "contact:phone": "+33472057392", "name": "TechNoir", "opening_hours": "Su-Fr 16:00-01:00; Sa 15:00-01:00", "ref:FR:SIRET": "81875435000010", "sport": "table_soccer"}}, {"type": "node", "id": 8633108280, "lat": 45.7585277, "lon": 4.8368818, "tags": {"amenity": "bar", "level": "0", "name": "Le Th\u00e9odore", "survey:date": "2023-09-17"}}, {"type": "node", "id": 8653047543, "lat": 45.7779154, "lon": 4.835195, "tags": {"amenity": "bar", "name": "Gogniols"}}, {"type": "node", "id": 8653047557, "lat": 45.7748988, "lon": 4.8309713, "tags": {"amenity": "bar", "name": "Au Go\u00fbt \u00e0 Goutte", "opening_hours": "Tu-Fr 15:00-24:00; Sa 11:00-24:00"}}, {"type": "node", "id": 8822458669, "lat": 45.7484407, "lon": 4.8551314, "tags": {"amenity": "bar", "check_date": "2024-07-02", "contact:facebook": "https://www.facebook.com/skulllyon7", "email": "contact@skull-lyon.com", "name": "Skull", "opening_hours": "Tu,We 17:00-24:00; Th-Sa 17:00-01:00", "website": "https://www.skull-lyon.com"}}, {"type": "node", "id": 9428129225, "lat": 45.7559499, "lon": 4.8240702, "tags": {"amenity": "bar", "brewery": "Kilkenny;Kronenbourg;Grimbergen;Strongbow;Cervoise;Picon;Guinness", "building": "yes", "contact:city": "Lyon 5eme Arrondissement", "contact:housenumber": "108", "contact:phone": "+33 4 78 37 54 94", "contact:postcode": "69005", "contact:street": "Rue Saint-Georges", "name": "L\u2019antidote", "opening_hours": "Mo-Su 18:00-01:00", "ref:FR:SIRET": "44369689300017"}}, {"type": "node", "id": 9556101351, "lat": 45.7626944, "lon": 4.8351378, "tags": {"amenity": "bar", "diet:vegetarian": "yes", "food": "yes", "name": "Pop and Wine", "opening_hours": "Mo-Sa 12:00-14:00,17:00-22:30", "outdoor_seating": "yes", "ref:FR:SIRET": "90943533100030", "website": "https://popandwine.fr", "website:booking": "https://popandwine.fr/reservations"}}, {"type": "node", "id": 9637507915, "lat": 45.761599, "lon": 4.8404085}, {"type": "node", "id": 9643262249, "lat": 45.7338272, "lon": 4.8637405, "tags": {"air_conditioning": "yes", "amenity": "bar", "name": "Antiq'Bar"}}, {"type": "node", "id": 9718251736, "lat": 45.7615703, "lon": 4.8322061, "tags": {"amenity": "bar", "brewery": "various", "food": "tapas", "name": "Welsh Beer Bar", "opening_hours": "16:00-01:00", "survey:date": "2023-09-14"}}, {"type": "node", "id": 9724632746, "lat": 45.735977, "lon": 4.8397598, "tags": {"amenity": "bar", "contact:city": "Lyon 7eme Arrondissement", "contact:housenumber": "97", "contact:phone": "+33 4 37 29 26 67", "contact:postcode": "69007", "contact:street": "Rue De Gerland", "facebook": "https://www.facebook.com/profile.php?id=100063745833010", "name": "Des Bulles Sous Le Plafond", "opening_hours": "Mo 09:00-14:00, 16:00-23:00; Tu 09:00-14:00, 16:00-23:59; We-Fr 00:00-01:00, 09:00-14:00", "phone": "+33 4 37 29 26 67", "ref:FR:SIRET": "88170418300014", "website": "https://www.desbullessousleplafond-restaurant-lyon.fr"}}, {"type": "node", "id": 9809304925, "lat": 45.7588461, "lon": 4.8364893, "tags": {"addr:city": "Lyon", "addr:housenumber": "3", "addr:postcode": "69002", "addr:street": "Cour Saint-Henri", "amenity": "bar", "level": "0", "name": "L\u2019Officine", "opening_hours": "Tu-Th 18:30-00:00; Fr, Sa 18:30-01:00", "phone": "+33 4 72 41 84 96", "terrace": "roofed", "website": "https://www.legrandrefectoire.com/officine"}}, {"type": "node", "id": 9897317012, "lat": 45.7617725, "lon": 4.856004}, {"type": "node", "id": 9897317013, "lat": 45.7616886, "lon": 4.8560189}, {"type": "node", "id": 9897317014, "lat": 45.761679, "lon": 4.855908}, {"type": "node", "id": 9897317017, "lat": 45.7617629, "lon": 4.8558931}, {"type": "node", "id": 9897317018, "lat": 45.7617313, "lon": 4.8558987}, {"type": "node", "id": 10042828149, "lat": 45.7425355, "lon": 4.8381457}, {"type": "node", "id": 10042828151, "lat": 45.7421018, "lon": 4.8386108}, {"type": "node", "id": 10042828152, "lat": 45.7423459, "lon": 4.838118}, {"type": "node", "id": 10042828160, "lat": 45.7424907, "lon": 4.8386728}, {"type": "node", "id": 10056222330, "lat": 45.7745655, "lon": 4.8276338, "tags": {"amenity": "bar", "name": "Le Vitis"}}, {"type": "node", "id": 10082772350, "lat": 45.775035, "lon": 4.8294574, "tags": {"addr:city": "Lyon", "addr:housenumber": "2", "addr:postcode": "69004", "addr:street": "Rue Perrod", "amenity": "bar", "contact:email": "burning.cat.lyon@gmail.com", "contact:facebook": "https://facebook.com/BurningCatLyon", "internet_access": "wlan", "internet_access:fee": "no", "level": "0;1", "name": "Burning Cat", "opening_hours": "Mo 09:00-01:00; Tu-Sa 06:00-01:00; Su 10:00-01:00", "outdoor_seating": "no", "source": "survey", "toilets": "yes", "wheelchair": "limited"}}, {"type": "node", "id": 10086749488, "lat": 45.74457, "lon": 4.8259584, "tags": {"addr:city": "Lyon", "addr:housenumber": "12", "addr:postcode": "69002", "addr:street": "Rue Marc-Antoine Petit", "amenity": "bar", "contact:city": "Lyon 2eme Arrondissement", "contact:housenumber": "12", "contact:phone": "+33 6 37 91 21 00", "contact:postcode": "69002", "contact:street": "Rue Marc-Antoine Petit", "cuisine": "american", "name": "The Hill Club", "old_name": "Le Chalut", "opening_hours": "Mo-Su 12:00-14:00; Mo-Su 19:00-22:00", "phone": "+33472777070", "terrace": "yes", "website": "https://www.the-hill-club.com/"}}, {"type": "node", "id": 10126449464, "lat": 45.7554184, "lon": 4.8748444, "tags": {"amenity": "bar", "check_date": "2022-10-24", "contact:instagram": "https://www.instagram.com/Le_volff_lyon", "name": "Le Volff", "opening_hours": "15:30-01:00"}}, {"type": "node", "id": 10132441471, "lat": 45.7807501, "lon": 4.8365611, "tags": {"amenity": "bar", "name": "Jerovine Bar"}}, {"type": "node", "id": 10242368588, "lat": 45.7733812, "lon": 4.8084084, "tags": {"air_conditioning": "yes", "amenity": "bar", "brewery": "yes", "contact:city": "Lyon 9eme Arrondissement", "contact:housenumber": "3", "contact:phone": "+33 4 72 48 78 68", "contact:postcode": "69009", "contact:street": "Rue Saint-Pierre De Vaise", "description": "Cave & Bar \u00e0 bi\u00e8res artisanales", "internet_access": "wlan", "min_age": "18", "name": "La Plante Du Loup", "opening_hours": "Mo-Th 16:00-23:00; Fr 11:00-14:00,16:00-23:00; Sa 11:00-23:00", "survey:date": "2023-03-21", "wheelchair": "no"}}, {"type": "node", "id": 10253247609, "lat": 45.7666722, "lon": 4.850106, "tags": {"addr:housenumber": "71", "addr:postcode": "69006", "addr:street": "Rue Bugeaud", "amenity": "bar", "board_games": "yes", "contact:phone": "+33983893422", "food": "yes", "name": "Tire-toi une b\u00fbche", "opening_hours": "Tu-We 12:00-00:00; Fr 12:00-01:00; Sa 16:30-01:00; Th 12:00-15:00, 17:00-01:00", "ref:FR:SIRET": "90014130000013", "website": "https://tiretoiunebuche.fr"}}, {"type": "node", "id": 10684425059, "lat": 45.7293216, "lon": 4.8529959, "tags": {"amenity": "bar", "contact:city": "Lyon", "contact:housenumber": "168", "contact:postcode": "69008", "contact:street": "Rue Challemel-Lacour", "name": "Bar du Moulin d'Or", "opening_hours": "Mo-Su 07:00-19:00", "outdoor_seating": "yes"}}, {"type": "node", "id": 10762149404, "lat": 45.7692292, "lon": 4.8364726, "tags": {"amenity": "bar", "name": "Bambi", "opening_hours": "We-Sa 18:00-01:00"}}, {"type": "node", "id": 10795791548, "lat": 45.7749449, "lon": 4.8288781, "tags": {"amenity": "bar", "name": "Gourmet Croix Rousse"}}, {"type": "node", "id": 10822403731, "lat": 45.7687199, "lon": 4.8296478, "tags": {"amenity": "bar", "name": "Paradox", "opening_hours": "Mo,Tu 10:00-20:00; We,Th 10:00-23:00; Fr,Sa 10:00-01:00"}}, {"type": "node", "id": 10966285179, "lat": 45.7765518, "lon": 4.8307073, "tags": {"amenity": "bar", "brewery": "yes", "contact:city": "Lyon 4eme Arrondissement", "contact:housenumber": "21", "contact:phone": "+33 4 37 26 13 62", "contact:postcode": "69004", "contact:street": "Rue Dumont", "cuisine": "tapas", "name": "Le D\u00e9rob\u00e9", "opening_hours": "Tu-Sa 18:00-23:59", "phone": "+33437261362", "website": "https://www.lederobe.fr/"}}, {"type": "node", "id": 11176700426, "lat": 45.7689581, "lon": 4.8315037, "tags": {"amenity": "bar", "check_date": "2023-10-27", "currency:XBT": "yes", "name": "Soif !", "opening_hours": "Mo,Su off; Tu-Sa 16:00-01:00", "outdoor_seating": "no", "payment:lightning": "yes", "payment:lightning_contactless": "no", "phone": "+33 6 43 14 83 34", "smoking": "no", "wheelchair": "no"}}, {"type": "node", "id": 11212411784, "lat": 45.769898, "lon": 4.8582988, "tags": {"amenity": "bar", "indoor_seating": "yes", "name": "Jobaar", "opening_hours": "Mo-Su 11:00-01:00", "outdoor_seating": "yes", "ref:FR:SIRET": "91372978600016", "website": "https://jobaar.fr"}}, {"type": "node", "id": 11234124637, "lat": 45.7656061, "lon": 4.8316974, "tags": {"amenity": "bar", "name": "United caf\u00e9"}}, {"type": "node", "id": 11248543633, "lat": 45.7592695, "lon": 4.8315857, "tags": {"amenity": "bar", "name": "Poligone", "opening_hours": "Tu-Sa 17:00-01:00, Su 17:00-23:00", "survey:date": "2023-10-08"}}, {"type": "node", "id": 11248565069, "lat": 45.760245, "lon": 4.830884, "tags": {"amenity": "bar", "name": "O'Quai Wine", "survey:date": "2023-10-08"}}, {"type": "node", "id": 11257968973, "lat": 45.7716368, "lon": 4.835394, "tags": {"amenity": "bar", "contact:city": "Lyon 1er Arrondissement", "contact:housenumber": "37", "contact:phone": "+33 9 74 64 02 19", "contact:postcode": "69001", "contact:street": "Rue Imbert-Colom\u00e8s", "location": "Lyon 1", "name": "La Bonne G\u00e2che", "opening_hours": "Mo 18:30-23:59; Tu 17:30-23:59; We-Sa 00:00-01:00, 17:30-23:59; Su 00:00-01:00", "phone": "+33478391295", "website": "https://www.privateaser.com/lieu/41126-la-bonne-gache"}}, {"type": "node", "id": 11278148669, "lat": 45.7698773, "lon": 4.8342518, "tags": {"amenity": "bar", "check_date": "2023-10-20", "level": "0", "name": "Catie\u2018s", "wheelchair": "limited"}}, {"type": "node", "id": 11360219969, "lat": 45.7681989, "lon": 4.8328274, "tags": {"amenity": "bar", "name": "Manneken-Pis", "opening_hours": "Mo-Su 17:00-03:00"}}, {"type": "node", "id": 11364389769, "lat": 45.7677616, "lon": 4.819245, "tags": {"amenity": "bar", "contact:city": "Lyon 1er Arrondissement", "contact:housenumber": "12", "contact:phone": "+33 6 64 05 69 10", "contact:postcode": "69001", "contact:street": "Quai Saint-Vincent", "name": "Distrikt Xii"}}, {"type": "node", "id": 11364396769, "lat": 45.7678896, "lon": 4.8338274, "tags": {"amenity": "bar", "contact:city": "Lyon 1er Arrondissement", "contact:housenumber": "2", "contact:phone": "+33 6 35 38 55 58", "contact:postcode": "69001", "contact:street": "Place Des Terreaux", "name": "L'abbaye"}}, {"type": "node", "id": 11366289969, "lat": 45.7509023, "lon": 4.8245639, "tags": {"amenity": "bar", "contact:city": "Lyon 2eme Arrondissement", "contact:housenumber": "3", "contact:phone": "+33 4 51 23 54 30", "contact:postcode": "69002", "contact:street": "Cours Verdun Gensoul", "name": "Calle Latino", "opening_hours": "Tu-Th 18:30-23:59; Fr 00:00-01:00, 18:30-23:59; Sa 00:00-03:00, 18:30-23:59; Su 00:00-03:00", "outdoor_seating": "yes", "phone": "+33 4 51 23 54 30"}}, {"type": "node", "id": 11366310169, "lat": 45.7423518, "lon": 4.8210855, "tags": {"amenity": "bar", "contact:city": "Lyon 2eme Arrondissement", "contact:housenumber": "16", "contact:phone": "+33 6 22 74 18 95", "contact:postcode": "69002", "contact:street": "Rue Casimir P\u00e9rier", "name": "Nutopia Lyon"}}, {"type": "node", "id": 11366429769, "lat": 45.7662523, "lon": 4.8183693, "tags": {"amenity": "bar", "contact:city": "Lyon 9eme Arrondissement", "contact:housenumber": "41", "contact:phone": "+33 6 24 31 52 41", "contact:postcode": "69009", "contact:street": "Quai De Pierre-Scize", "name": "L'adresse"}}, {"type": "node", "id": 11418258497, "lat": 45.7417015, "lon": 4.8396009}, {"type": "node", "id": 11428238270, "lat": 45.7516421, "lon": 4.8324294, "tags": {"amenity": "bar", "name": "L'escale", "opening_hours": "Mo-Su 17:00-04:00", "website": "https://sites.google.com/view/lescale/accueil"}}, {"type": "node", "id": 11844562771, "lat": 45.7658195, "lon": 4.827736, "tags": {"amenity": "bar", "name": "Bar\u00e3gones"}}, {"type": "node", "id": 11984298292, "lat": 45.7692439, "lon": 4.8171683, "tags": {"amenity": "bar", "cocktails": "yes", "contact:instagram": "abstract_bistrot_", "email": "abstract.bistrot@gmail.com", "name": "Abstract", "opening_hours": "Th-Su 16:00-23:00", "phone": "+33478988455", "ref:FR:SIRET": "95169113800014", "website": "https://www.abstract-lab.art/"}}, {"type": "node", "id": 12019762663, "lat": 45.7488918, "lon": 4.8619846, "tags": {"amenity": "bar", "name": "L'horacio"}}, {"type": "node", "id": 12162016260, "lat": 45.7686474, "lon": 4.8508829, "tags": {"amenity": "bar", "name": "B\u00e9guin"}}, {"type": "node", "id": 12255426308, "lat": 45.7602108, "lon": 4.8590787}, {"type": "node", "id": 12255426315, "lat": 45.7602157, "lon": 4.8590235}, {"type": "node", "id": 12255426316, "lat": 45.7602067, "lon": 4.859124}, {"type": "node", "id": 12255426317, "lat": 45.7601857, "lon": 4.859124}, {"type": "node", "id": 12255426318, "lat": 45.7601866, "lon": 4.8591911}, {"type": "node", "id": 12255426319, "lat": 45.7602086, "lon": 4.8591924}, {"type": "node", "id": 12255426320, "lat": 45.7603658, "lon": 4.8591884}, {"type": "node", "id": 12255426330, "lat": 45.7603733, "lon": 4.85912}, {"type": "node", "id": 12255426331, "lat": 45.7603787, "lon": 4.8590563}, {"type": "node", "id": 12260669922, "lat": 45.7413439, "lon": 4.8154651, "tags": {"amenity": "bar", "harassment_prevention": "ask_angela", "name": "Gourmet bar Novotel"}}, {"type": "node", "id": 12266037501, "lat": 45.7651211, "lon": 4.8680671, "tags": {"addr:housenumber": "17", "addr:postcode": "69006", "addr:street": "Rue Notre-Dame", "amenity": "bar", "name": "Las Palmeras"}}, {"type": "node", "id": 12266037502, "lat": 45.7652883, "lon": 4.8681174, "tags": {"addr:housenumber": "15", "addr:postcode": "69006", "addr:street": "Rue Notre-Dame", "amenity": "bar", "name": "L'Aristide"}}, {"type": "node", "id": 12270577501, "lat": 45.766235, "lon": 4.8670908, "tags": {"amenity": "bar", "name": "Bar du Sagittaire"}}, {"type": "node", "id": 12278921766, "lat": 45.774493, "lon": 4.8061657, "tags": {"amenity": "bar", "name": "P\u00e9lo"}}, {"type": "node", "id": 12280016297, "lat": 45.7664862, "lon": 4.8450588, "tags": {"amenity": "bar", "food": "yes", "name": "Levantia", "opening_hours": "Tu-Sa 17:30-01:00", "ref:FR:SIRET": "90865073200021"}}, {"type": "node", "id": 12297734601, "lat": 45.7621585, "lon": 4.8374504, "tags": {"amenity": "bar", "name": "Cafe Comptoir-Bar a Vins"}}, {"type": "node", "id": 12348679631, "lat": 45.7551504, "lon": 4.8404226, "tags": {"amenity": "bar", "name": "Karaok\u00e9 Box", "opening_hours": "Mo-Su 14:00-01:00"}}, {"type": "way", "id": 125551305, "nodes": [1394154811, 1394154806, 1394154807, 1394154816, 1394154811], "tags": {"amenity": "bar", "building": "yes", "layer": "1", "source": "cadastre-dgi-fr source : Direction G\u00e9n\u00e9rale des Imp\u00f4ts - Cadastre. Mise \u00e0 jour : 2011"}}, {"type": "way", "id": 217996220, "nodes": [2273063778, 2273063775, 2273063781, 2273063783, 2273063776, 2273063782, 6933010212, 6933010211, 9637507915, 2273063784, 2273063779, 2273063780, 2273063777, 2273063778], "tags": {"alt_name": "Caf\u00e9 Oz", "amenity": "bar", "building": "boat", "capacity": "750", "name": "Oz Boat", "opening_date": "Apr 2024", "survey:date": "2024-07-25", "website": "https://cafe-oz.com"}}, {"type": "way", "id": 630985144, "nodes": [5957804985, 5957804986, 5957804987, 5957804988, 5957804989, 5957804990, 5957804991, 5957804992, 5957804993, 5957804994, 5957804995, 5957804996, 5957804997, 5957804998, 5957804985], "tags": {"amenity": "bar", "building": "houseboat", "name": "Sonic Lyon", "website": "https://www.sonic-lyon.fr/"}}, {"type": "way", "id": 961830404, "nodes": [5988418586, 11418258497, 569062085, 10042828151, 10042828160, 10042828149, 10042828152, 5988418586], "tags": {"amenity": "bar", "area": "yes", "brewery": "yes", "description": "Friche avec terrains de boules et basket, petite restauration.", "name": "La cit\u00e9 des Halles", "opening_hours": "Jul-Sep Th,Fr 16:00-22:00; Jul-Sep Sa,Su 11:00-22:00", "outdoor_seating": "yes", "website": "https://www.lacitedeshalles.com/", "wheelchair": "yes"}}, {"type": "way", "id": 1079744695, "nodes": [9897317017, 9897317018, 9897317014, 9897317013, 9897317012, 9897317017], "tags": {"amenity": "bar", "indoor": "room", "level": "3", "name": "Bentomania"}}, {"type": "way", "id": 1324402653, "nodes": [12255426330, 12255426320, 12255426319, 12255426318, 12255426317, 12255426316, 12255426308, 12255426315, 12255426331, 12255426330], "tags": {"amenity": "bar", "indoor": "room", "indoor_seating": "yes", "level": "0", "name": "Daniel & Denise en voyage"}}]}