{"version": 0.6, "generator": "Overpass API 0.7.62.4 2390de5a", "osm3s": {"timestamp_osm_base": "2024-12-01T13:01:30Z", "copyright": "The data included in this document is from www.openstreetmap.org. The data is made available under ODbL."}, "elements": [{"type": "node", "id": 2025480126, "lat": 45.7777832, "lon": 4.9502699, "tags": {"bus": "yes", "highway": "bus_stop", "name": "Pont de D\u00e9cines", "network": "TCL", "public_transport": "platform", "ref:FR:TCL": "10489", "route_ref": "57A:R", "source": "SYTRAL 12/2016"}}, {"type": "node", "id": 2025480127, "lat": 45.7778796, "lon": 4.9498789, "tags": {"bus": "yes", "highway": "bus_stop", "name": "Pont de D\u00e9cines", "network": "TCL", "public_transport": "platform", "ref:FR:TCL": "10488", "route_ref": "57A:A", "source": "SYTRAL 12/2016"}}, {"type": "node", "id": 2025480131, "lat": 45.7720032, "lon": 4.957177, "tags": {"bench": "no", "bin": "yes", "bus": "yes", "highway": "bus_stop", "lit": "no", "name": "\u00c9mile Bertrand", "network": "TCL", "operator": "SYTRAL", "public_transport": "platform", "ref:FR:TCL": "10490", "route_ref": "57A:A", "shelter": "no", "source": "SYTRAL 12/2016", "tactile_paving": "no", "wheelchair": "yes"}}, {"type": "node", "id": 2809829922, "lat": 45.7713724, "lon": 4.9658543, "tags": {"bench": "yes", "bin": "yes", "bus": "yes", "highway": "bus_stop", "name": "Le Molard", "network": "TCL", "operator": "SYTRAL", "public_transport": "platform", "ref:FR:TCL": "11841", "route_ref": "79A:R", "shelter": "yes", "source": "SYTRAL 12/2016", "wheelchair": "yes"}}, {"type": "node", "id": 2810611870, "lat": 45.7582546, "lon": 4.9719665, "tags": {"bus": "yes", "highway": "bus_stop", "name": "Le Bi\u00e9zin", "network": "TCL", "network:wikidata": "Q8700", "operator": "Keolis Lyon", "operator:wikidata": "Q61456136", "public_transport": "platform", "ref:FR:TCL": "11110", "route_ref": "76A:R", "source": "SYTRAL 12/2016", "wheelchair": "yes"}}, {"type": "node", "id": 3146318329, "lat": 45.768244, "lon": 4.9751628, "tags": {"bus": "yes", "highway": "bus_stop", "name": "Georges Brassens", "network": "TCL", "network:wikidata": "Q8700", "operator": "Keolis Lyon", "operator:wikidata": "Q61456136", "public_transport": "platform", "ref:FR:TCL": "10372", "route_ref": "76A:R", "shelter": "yes", "source": "SYTRAL 03/2020", "wheelchair": "yes"}}, {"type": "node", "id": 3146318363, "lat": 45.7686059, "lon": 4.9753944, "tags": {"bus": "yes", "highway": "bus_stop", "name": "Georges Brassens", "network": "TCL", "network:wikidata": "Q8700", "operator": "Keolis Lyon", "operator:wikidata": "Q61456136", "public_transport": "platform", "ref:FR:TCL": "10371", "route_ref": "76A:A", "shelter": "no", "source": "SYTRAL 03/2020", "wheelchair": "yes"}}, {"type": "node", "id": 3150882514, "lat": 45.7505219, "lon": 4.9342449, "tags": {"bus": "yes", "departures_board": "timetable", "highway": "bus_stop", "name": "Z.I. Roosevelt", "network": "TCL", "public_transport": "platform", "ref:FR:TCL": "37175", "route_ref": "ZI3A:A,ZI3A:R", "shelter": "no", "source": "SYTRAL 12/2016"}}, {"type": "node", "id": 3151267926, "lat": 45.7544066, "lon": 4.9431517, "tags": {"highway": "bus_stop", "name": "Vaucanson", "public_transport": "platform", "ref:FR:TCL": "47417", "route_ref": "ZI3A:A", "source": "SYTRAL 03/2020"}}, {"type": "node", "id": 3151454086, "lat": 45.7629056, "lon": 4.9413112, "tags": {"bus": "yes", "highway": "bus_stop", "name": "Bruy\u00e8res", "network": "TCL", "network:wikidata": "Q8700", "operator": "Keolis Lyon", "operator:wikidata": "Q61456136", "public_transport": "platform", "ref:FR:TCL": "285", "route_ref": "16A:A", "source": "SYTRAL 12/2016", "wheelchair": "yes"}}, {"type": "node", "id": 3426833327, "lat": 45.7725126, "lon": 4.9741801, "tags": {"bus": "yes", "highway": "bus_stop", "name": "D\u00e9cines Esplanade", "network": "TCL", "network:wikidata": "Q8700", "operator": "Keolis Lyon", "operator:wikidata": "Q61456136", "public_transport": "platform", "ref:FR:TCL": "11729", "route_ref": "57A:A", "source": "SYTRAL 03/2020", "wheelchair": "yes"}}, {"type": "node", "id": 3448572337, "lat": 45.7747477, "lon": 4.9757032, "tags": {"bench": "no", "bin": "yes", "bus": "yes", "highway": "bus_stop", "lit": "yes", "name": "D\u00e9cines Grand Large", "network": "TCL", "network:wikidata": "Q8700", "operator": "Keolis Lyon", "operator:wikidata": "Q61456136", "public_transport": "platform", "ref:FR:TCL": "36094", "route_ref": "16A:A,57A:A,76A:A,79A:A,85A:R,NAV1:A,NAV1:R", "shelter": "no", "source": "SYTRAL 03/2020", "tactile_paving": "yes"}}, {"type": "node", "id": 3448572338, "lat": 45.774749, "lon": 4.9754346, "tags": {"bench": "yes", "bus": "yes", "covered": "yes", "highway": "bus_stop", "name": "D\u00e9cines Grand Large", "network": "TCL", "network:wikidata": "Q8700", "operator": "Keolis Lyon", "operator:wikidata": "Q61456136", "public_transport": "platform", "ref:FR:TCL": "36095", "route_ref": "16A:R,57A:R,76A:R,79A:R,85A:A,NAV1:A,NAV1:R", "shelter": "yes", "source": "SYTRAL 03/2020", "wheelchair": "yes"}}, {"type": "node", "id": 3461696523, "lat": 45.7724537, "lon": 4.9740786, "tags": {"bench": "yes", "bin": "yes", "bus": "yes", "highway": "bus_stop", "name": "D\u00e9cines Esplanade", "network": "TCL", "network:wikidata": "Q8700", "operator": "Keolis Lyon", "operator:wikidata": "Q61456136", "public_transport": "platform", "ref:FR:TCL": "30229", "route_ref": "16A:R,67A:R,79A:R", "shelter": "yes", "source": "SYTRAL 03/2020", "wheelchair": "yes"}}, {"type": "node", "id": 3461696525, "lat": 45.7723823, "lon": 4.9745521, "tags": {"bus": "yes", "highway": "bus_stop", "name": "D\u00e9cines Esplanade", "network": "TCL", "network:wikidata": "Q8700", "operator": "Keolis Lyon", "operator:wikidata": "Q61456136", "public_transport": "platform", "ref:FR:TCL": "30230", "route_ref": "57A:R", "source": "SYTRAL 03/2020", "wheelchair": "yes"}}, {"type": "node", "id": 3461703378, "lat": 45.7727517, "lon": 4.9761947, "tags": {"bench": "no", "bin": "no", "bus": "yes", "highway": "bus_stop", "lit": "no", "name": "D\u00e9cines Esplanade", "network": "TCL", "network:wikidata": "Q8700", "operator": "Keolis Lyon", "operator:wikidata": "Q61456136", "public_transport": "platform", "ref:FR:TCL": "36176", "route_ref": "76A:A,85A:R", "shelter": "no", "source": "SYTRAL 03/2020", "tactile_paving": "no", "wheelchair": "yes"}}, {"type": "node", "id": 3508454130, "lat": 45.7734339, "lon": 4.9813552, "tags": {"bench": "no", "bus": "yes", "highway": "bus_stop", "name": "Moulin d'Amont", "network": "TCL", "network:wikidata": "Q8700", "operator": "Keolis Lyon", "operator:wikidata": "Q61456136", "public_transport": "platform", "ref:FR:TCL": "2098", "route_ref": "67A:A", "shelter": "no", "source": "SYTRAL 12/2016", "wheelchair": "yes"}}, {"type": "node", "id": 3508454131, "lat": 45.7733915, "lon": 4.9807262, "tags": {"bus": "yes", "highway": "bus_stop", "name": "Moulin d'Amont", "network": "TCL", "network:wikidata": "Q8700", "operator": "Keolis Lyon", "operator:wikidata": "Q61456136", "public_transport": "platform", "ref:FR:TCL": "2099", "route_ref": "67A:R", "source": "SYTRAL 12/2016", "wheelchair": "yes"}}, {"type": "node", "id": 3580985393, "lat": 45.7629777, "lon": 4.9751369, "tags": {"bus": "yes", "highway": "bus_stop", "name": "Les Six Noyers", "network": "TCL", "network:wikidata": "Q8700", "operator": "Keolis Lyon", "operator:wikidata": "Q61456136", "public_transport": "platform", "ref:FR:TCL": "31863", "route_ref": "76A:A", "source": "SYTRAL 12/2016", "wheelchair": "yes"}}, {"type": "node", "id": 3580985394, "lat": 45.7607243, "lon": 4.9734291, "tags": {"bus": "yes", "highway": "bus_stop", "name": "Pierre Gay", "network": "TCL", "network:wikidata": "Q8700", "operator": "Keolis Lyon", "operator:wikidata": "Q61456136", "public_transport": "platform", "ref:FR:TCL": "11210", "route_ref": "76A:A", "source": "SYTRAL 12/2016"}}, {"type": "node", "id": 3607611490, "lat": 45.7739753, "lon": 4.972286, "tags": {"bus": "yes", "highway": "bus_stop", "name": "D\u00e9cines Champ Fleuri", "network": "TCL", "network:wikidata": "Q8700", "network:wikipedia": "fr:Transports en commun lyonnais", "operator": "Keolis Lyon", "operator:wikidata": "Q61456136", "public_transport": "platform", "ref:FR:TCL": "698", "route_ref": "67A:R", "source": "SYTRAL 12/2016"}}, {"type": "node", "id": 3607611491, "lat": 45.7754348, "lon": 4.9696995, "tags": {"bus": "yes", "highway": "bus_stop", "name": "Berthaudi\u00e8re", "network": "TCL", "network:wikidata": "Q8700", "operator": "Keolis Lyon", "operator:wikidata": "Q61456136", "public_transport": "platform", "ref:FR:TCL": "10590", "route_ref": "67A:A", "source": "SYTRAL 12/2016", "wheelchair": "yes"}}, {"type": "node", "id": 3607611492, "lat": 45.7741069, "lon": 4.9635025, "tags": {"bus": "yes", "highway": "bus_stop", "name": "Sablons", "network": "TCL", "network:wikidata": "Q8700", "operator": "Keolis Lyon", "operator:wikidata": "Q61456136", "public_transport": "platform", "ref:FR:TCL": "2664", "route_ref": "67A:R", "source": "SYTRAL 12/2016"}}, {"type": "node", "id": 3607613193, "lat": 45.7713743, "lon": 4.9610841, "tags": {"bus": "yes", "highway": "bus_stop", "name": "D\u00e9cines Bascule", "network": "TCL", "network:wikidata": "Q8700", "operator": "Keolis Lyon", "operator:wikidata": "Q61456136", "public_transport": "platform", "ref:FR:TCL": "695", "route_ref": "67A:A", "source": "SYTRAL 12/2016"}}, {"type": "node", "id": 3607613194, "lat": 45.7710897, "lon": 4.9616603, "tags": {"bench": "no", "bin": "no", "bus": "yes", "highway": "bus_stop", "lit": "no", "name": "D\u00e9cines Bascule", "network": "TCL", "operator": "SYTRAL", "public_transport": "platform", "ref:FR:TCL": "11839", "route_ref": "79A:R", "shelter": "no", "source": "SYTRAL 12/2016", "tactile_paving": "no", "wheelchair": "yes"}}, {"type": "node", "id": 3607614155, "lat": 45.7710707, "lon": 4.9677994, "tags": {"bus": "yes", "highway": "bus_stop", "name": "Le Molard", "network": "TCL", "network:wikidata": "Q8700", "operator": "Keolis Lyon", "operator:wikidata": "Q61456136", "public_transport": "platform", "ref:FR:TCL": "1551", "route_ref": "16A:R", "source": "SYTRAL 12/2016"}}, {"type": "node", "id": 3607614156, "lat": 45.771207, "lon": 4.9706823, "tags": {"highway": "bus_stop", "name": "Jaur\u00e8s - Blum", "public_transport": "platform", "ref:FR:TCL": "11287", "route_ref": "57A:R", "source": "SYTRAL 03/2020"}}, {"type": "node", "id": 3607614157, "lat": 45.7718145, "lon": 4.9703622, "tags": {"bus": "yes", "highway": "bus_stop", "name": "Jaur\u00e8s - Blum", "network": "TCL", "network:wikidata": "Q8700", "operator": "Keolis Lyon", "operator:wikidata": "Q61456136", "public_transport": "platform", "ref:FR:TCL": "11836", "route_ref": "16A:A,79A:A", "source": "SYTRAL 03/2020", "wheelchair": "yes"}}, {"type": "node", "id": 3608506021, "lat": 45.7700199, "lon": 4.9522038, "tags": {"bus": "yes", "highway": "bus_stop", "name": "D\u00e9cines Gare", "network": "TCL", "network:wikidata": "Q8700", "operator": "Keolis Lyon", "operator:wikidata": "Q61456136", "public_transport": "platform", "ref:FR:TCL": "702", "route_ref": "67A:R", "source": "SYTRAL 12/2016", "wheelchair": "yes"}}, {"type": "node", "id": 3608509089, "lat": 45.7704369, "lon": 4.9566768, "tags": {"bus": "yes", "highway": "bus_stop", "name": "D\u00e9cines Centre", "network": "TCL", "network:wikidata": "Q8700", "operator": "Keolis Lyon", "operator:wikidata": "Q61456136", "public_transport": "platform", "ref:FR:TCL": "2742", "route_ref": "67A:A,79A:A", "source": "SYTRAL 12/2016", "wheelchair": "yes"}}, {"type": "node", "id": 3610789627, "lat": 45.769121, "lon": 4.9458638, "tags": {"bench": "no", "bin": "yes", "bus": "yes", "highway": "bus_stop", "name": "Coli", "network": "TCL", "network:wikidata": "Q8700", "operator": "Keolis Lyon", "operator:wikidata": "Q61456136", "public_transport": "platform", "ref:FR:TCL": "576", "route_ref": "67A:A", "shelter": "no", "source": "SYTRAL 12/2016"}}, {"type": "node", "id": 3610789628, "lat": 45.7686578, "lon": 4.9427001, "tags": {"bench": "yes", "bin": "yes", "bus": "yes", "highway": "bus_stop", "lit": "no", "name": "D\u00e9cines Wilson", "network": "TCL", "network:wikidata": "Q8700", "operator": "Keolis Lyon", "operator:wikidata": "Q61456136", "public_transport": "platform", "ref:FR:TCL": "707", "route_ref": "67A:A", "shelter": "yes", "source": "SYTRAL 12/2016", "tactile_paving": "no", "wheelchair": "yes"}}, {"type": "node", "id": 3610789629, "lat": 45.7680798, "lon": 4.9378818, "tags": {"bench": "yes", "bus": "yes", "highway": "bus_stop", "name": "Montaberlet", "network": "TCL", "network:wikidata": "Q8700", "operator": "Keolis Lyon", "operator:wikidata": "Q61456136", "public_transport": "platform", "ref:FR:TCL": "30308", "route_ref": "67A:R", "shelter": "yes", "source": "SYTRAL 12/2016", "tactile_paving": "no", "wheelchair": "yes"}}, {"type": "node", "id": 3610789631, "lat": 45.7683335, "lon": 4.9364606, "tags": {"bus": "yes", "highway": "bus_stop", "name": "Entr\u00e9e de D\u00e9cines", "network": "TCL", "network:wikidata": "Q8700", "operator": "Keolis Lyon", "operator:wikidata": "Q61456136", "public_transport": "platform", "ref:FR:TCL": "856", "route_ref": "52A:R", "source": "SYTRAL 12/2016", "tactile_paving": "no", "wheelchair": "yes"}}, {"type": "node", "id": 3610947364, "lat": 45.7447051, "lon": 4.9330365, "tags": {"bus": "yes", "highway": "bus_stop", "name": "Sept Chemins", "network": "TCL", "network:wikidata": "Q8700", "operator": "Keolis Lyon", "operator:wikidata": "Q61456136", "public_transport": "platform", "ref:FR:TCL": "2711", "route_ref": "24A:A,24A:R", "source": "SYTRAL 12/2016", "wheelchair": "yes"}}, {"type": "node", "id": 3610947365, "lat": 45.7445498, "lon": 4.9327868, "tags": {"bus": "yes", "highway": "bus_stop", "name": "Sept Chemins", "network": "TCL", "network:wikidata": "Q8700", "operator": "Keolis Lyon", "operator:wikidata": "Q61456136", "public_transport": "platform", "ref:FR:TCL": "2712", "route_ref": "25A:A,25A:R", "source": "SYTRAL 12/2016", "wheelchair": "yes"}}, {"type": "node", "id": 3610947366, "lat": 45.7446513, "lon": 4.9327125, "tags": {"bus": "yes", "highway": "bus_stop", "name": "Sept Chemins", "network": "TCL", "network:wikidata": "Q8700", "operator": "Keolis Lyon", "operator:wikidata": "Q61456136", "public_transport": "platform", "ref:FR:TCL": "37254", "route_ref": "52A:A,52A:R", "source": "SYTRAL 12/2016", "wheelchair": "yes"}}, {"type": "node", "id": 3614476490, "lat": 45.7629555, "lon": 4.9415057, "tags": {"bus": "yes", "highway": "bus_stop", "name": "Bruy\u00e8res", "network": "TCL", "network:wikidata": "Q8700", "operator": "Keolis Lyon", "operator:wikidata": "Q61456136", "public_transport": "platform", "ref:FR:TCL": "286", "route_ref": "16A:R", "source": "SYTRAL 12/2016", "wheelchair": "yes"}}, {"type": "node", "id": 3614476491, "lat": 45.7627241, "lon": 4.9407361, "tags": {"bus": "yes", "highway": "bus_stop", "name": "Bruy\u00e8res", "network": "TCL", "operator": "SYTRAL", "public_transport": "platform", "ref:FR:TCL": "37179", "route_ref": "ZI3A:A", "source": "SYTRAL 12/2016"}}, {"type": "node", "id": 3614489093, "lat": 45.763458, "lon": 4.9379317, "tags": {"bus": "yes", "highway": "bus_stop", "name": "Grosso - Roosevelt", "network": "TCL", "network:wikidata": "Q8700", "operator": "Keolis Lyon", "operator:wikidata": "Q61456136", "public_transport": "platform", "ref:FR:TCL": "10934", "route_ref": "16A:R", "source": "SYTRAL 12/2016", "wheelchair": "yes"}}, {"type": "node", "id": 3614489094, "lat": 45.7624438, "lon": 4.9371756, "tags": {"bus": "yes", "highway": "bus_stop", "name": "Grosso - Roosevelt", "network": "TCL", "operator": "SYTRAL", "public_transport": "platform", "ref:FR:TCL": "37171", "route_ref": "ZI3A:A,ZI3A:R", "source": "SYTRAL 12/2016"}}, {"type": "node", "id": 3614502674, "lat": 45.754363, "lon": 4.9352814, "tags": {"bus": "yes", "highway": "bus_stop", "name": "Roosevelt - Vaucanson", "network": "TCL", "operator": "SYTRAL", "public_transport": "platform", "ref:FR:TCL": "37176", "route_ref": "ZI3A:A,ZI3A:R", "source": "SYTRAL 12/2016"}}, {"type": "node", "id": 3614502675, "lat": 45.7574973, "lon": 4.9361346, "tags": {"bus": "yes", "highway": "bus_stop", "name": "Z.I. Ouest", "network": "TCL", "operator": "SYTRAL", "public_transport": "platform", "ref:FR:TCL": "37177", "route_ref": "ZI3A:A,ZI3A:R", "source": "SYTRAL 12/2016"}}, {"type": "node", "id": 3614520719, "lat": 45.7597918, "lon": 4.9416213, "tags": {"bus": "yes", "highway": "bus_stop", "name": "Z.I. Bruy\u00e8res", "network": "TCL", "operator": "SYTRAL", "public_transport": "platform", "ref:FR:TCL": "37172", "route_ref": "ZI3A:A", "source": "SYTRAL 12/2016"}}, {"type": "node", "id": 3614520720, "lat": 45.756802, "lon": 4.9425943, "tags": {"bus": "yes", "highway": "bus_stop", "name": "Edelweiss", "network": "TCL", "operator": "SYTRAL", "public_transport": "platform", "ref:FR:TCL": "37173", "route_ref": "ZI3A:A", "source": "SYTRAL 12/2016"}}, {"type": "node", "id": 3614520721, "lat": 45.7528141, "lon": 4.9440037, "tags": {"bus": "yes", "highway": "bus_stop", "name": "D\u00e9cines Beauregard", "network": "TCL", "operator": "SYTRAL", "public_transport": "platform", "ref:FR:TCL": "10366", "route_ref": "79A:R", "source": "SYTRAL 12/2016", "wheelchair": "yes"}}, {"type": "node", "id": 3614521555, "lat": 45.747507, "lon": 4.9371481, "tags": {"bus": "yes", "highway": "bus_stop", "name": "\u00c9lis\u00e9e Reclus", "public_transport": "platform", "ref:FR:TCL": "10359", "route_ref": "79A:A", "source": "SYTRAL 03/2020", "wheelchair": "yes"}}, {"type": "node", "id": 3614521556, "lat": 45.7477373, "lon": 4.9372746, "tags": {"bus": "yes", "highway": "bus_stop", "name": "\u00c9lis\u00e9e Reclus", "public_transport": "platform", "ref:FR:TCL": "46518", "route_ref": "79A:R,ZI3A:A", "source": "SYTRAL 03/2020", "wheelchair": "yes"}}, {"type": "node", "id": 3614524092, "lat": 45.7507734, "lon": 4.941031, "tags": {"highway": "bus_stop", "name": "D\u00e9cines Verlaine", "public_transport": "platform", "ref:FR:TCL": "10363", "route_ref": "79A:A", "source": "SYTRAL 03/2020", "wheelchair": "yes"}}, {"type": "node", "id": 3616902307, "lat": 45.7724152, "lon": 4.9748754, "tags": {"bench": "yes", "bus": "yes", "highway": "bus_stop", "name": "D\u00e9cines Esplanade", "network": "TCL", "network:wikidata": "Q8700", "operator": "Keolis Lyon", "operator:wikidata": "Q61456136", "public_transport": "platform", "ref:FR:TCL": "30231", "route_ref": "16A:A,67A:A,79A:A", "shelter": "yes", "source": "SYTRAL 03/2020", "wheelchair": "yes"}}, {"type": "node", "id": 3635345108, "lat": 45.7637085, "lon": 4.9638382, "tags": {"bus": "yes", "highway": "bus_stop", "name": "D\u00e9cines \u00c9glise", "network": "TCL", "network:wikidata": "Q8700", "operator": "Keolis Lyon", "operator:wikidata": "Q61456136", "public_transport": "platform", "ref:FR:TCL": "700", "route_ref": "16A:R,57A:R", "source": "SYTRAL 12/2016", "wheelchair": "yes"}}, {"type": "node", "id": 3635345109, "lat": 45.7651954, "lon": 4.9702866, "tags": {"bus": "yes", "highway": "bus_stop", "name": "D\u00e9cines Verdun", "network": "TCL", "operator": "SYTRAL", "public_transport": "platform", "ref:FR:TCL": "10048", "route_ref": "57A:R", "source": "SYTRAL 12/2016"}}, {"type": "node", "id": 3635345110, "lat": 45.7663811, "lon": 4.9709512, "tags": {"bus": "yes", "highway": "bus_stop", "name": "Ruffini\u00e8res", "network": "TCL", "operator": "SYTRAL", "public_transport": "platform", "ref:FR:TCL": "10045", "route_ref": "57A:A", "source": "SYTRAL 12/2016", "wheelchair": "yes"}}, {"type": "node", "id": 3635345111, "lat": 45.7673615, "lon": 4.9706213, "tags": {"bus": "yes", "highway": "bus_stop", "name": "Ruffini\u00e8res", "network": "TCL", "operator": "SYTRAL", "public_transport": "platform", "ref:FR:TCL": "10046", "route_ref": "57A:R", "source": "SYTRAL 12/2016"}}, {"type": "node", "id": 3635351341, "lat": 45.7691159, "lon": 4.9674221, "tags": {"bus": "yes", "highway": "bus_stop", "name": "Cornavent", "network": "TCL", "network:wikidata": "Q8700", "operator": "Keolis Lyon", "operator:wikidata": "Q61456136", "public_transport": "platform", "ref:FR:TCL": "31022", "route_ref": "16A:A", "source": "SYTRAL 12/2016", "wheelchair": "yes"}}, {"type": "node", "id": 3635351342, "lat": 45.7677587, "lon": 4.9669701, "tags": {"bus": "yes", "highway": "bus_stop", "name": "Andr\u00e9 Brun", "network": "TCL", "network:wikidata": "Q8700", "operator": "Keolis Lyon", "operator:wikidata": "Q61456136", "public_transport": "platform", "ref:FR:TCL": "65", "route_ref": "16A:A", "source": "SYTRAL 12/2016", "wheelchair": "yes"}}, {"type": "node", "id": 3635351343, "lat": 45.7646406, "lon": 4.9658759, "tags": {"bus": "yes", "highway": "bus_stop", "name": "Le Prainet", "network": "TCL", "network:wikidata": "Q8700", "operator": "Keolis Lyon", "operator:wikidata": "Q61456136", "public_transport": "platform", "ref:FR:TCL": "1562", "route_ref": "16A:R", "source": "SYTRAL 12/2016"}}, {"type": "node", "id": 3635351344, "lat": 45.7650746, "lon": 4.9665821, "tags": {"bus": "yes", "highway": "bus_stop", "name": "Le Prainet", "network": "TCL", "network:wikidata": "Q8700", "operator": "Keolis Lyon", "operator:wikidata": "Q61456136", "public_transport": "platform", "ref:FR:TCL": "1561", "route_ref": "16A:A", "source": "SYTRAL 12/2016"}}, {"type": "node", "id": 3635351345, "lat": 45.7647997, "lon": 4.9679565, "tags": {"bus": "yes", "highway": "bus_stop", "name": "Verdun - Paul C\u00e9zanne", "network": "TCL", "operator": "SYTRAL", "public_transport": "platform", "ref:FR:TCL": "43314", "route_ref": "57A:R", "source": "SYTRAL 12/2016"}}, {"type": "node", "id": 3635355245, "lat": 45.7637398, "lon": 4.9615822, "tags": {"bus": "yes", "highway": "bus_stop", "name": "D\u00e9cines Jules Ferry", "network": "TCL", "network:wikidata": "Q8700", "operator": "Keolis Lyon", "operator:wikidata": "Q61456136", "public_transport": "platform", "ref:FR:TCL": "1283", "route_ref": "16A:A", "source": "SYTRAL 12/2016", "wheelchair": "yes"}}, {"type": "node", "id": 3635355246, "lat": 45.7686861, "lon": 4.9600475, "tags": {"bench": "no", "bin": "yes", "bus": "yes", "highway": "bus_stop", "lit": "yes", "name": "D\u00e9cines R\u00e9publique", "network": "TCL", "operator": "SYTRAL", "public_transport": "platform", "ref:FR:TCL": "32205", "route_ref": "57A:R", "shelter": "no", "source": "SYTRAL 12/2016", "tactile_paving": "no"}}, {"type": "node", "id": 3635365387, "lat": 45.7636606, "lon": 4.9563147, "tags": {"bus": "yes", "highway": "bus_stop", "name": "Centre Nautique", "network": "TCL", "network:wikidata": "Q8700", "operator": "Keolis Lyon", "operator:wikidata": "Q61456136", "public_transport": "platform", "ref:FR:TCL": "1729", "route_ref": "16A:R,79A:R", "source": "SYTRAL 12/2016"}}, {"type": "node", "id": 3635365388, "lat": 45.7605023, "lon": 4.9555054, "tags": {"bus": "yes", "highway": "bus_stop", "name": "Proudhon", "network": "TCL", "network:wikidata": "Q8700", "operator": "Keolis Lyon", "operator:wikidata": "Q61456136", "public_transport": "platform", "ref:FR:TCL": "2446", "route_ref": "16A:R,79A:R", "source": "SYTRAL 12/2016"}}, {"type": "node", "id": 3635370489, "lat": 45.7610521, "lon": 4.9472081, "tags": {"bus": "yes", "highway": "bus_stop", "name": "Champ Blanc", "network": "TCL", "network:wikidata": "Q8700", "operator": "Keolis Lyon", "operator:wikidata": "Q61456136", "public_transport": "platform", "ref:FR:TCL": "378", "route_ref": "16A:A", "source": "SYTRAL 12/2016", "wheelchair": "yes"}}, {"type": "node", "id": 3635373815, "lat": 45.7592364, "lon": 4.9488853, "tags": {"bus": "yes", "highway": "bus_stop", "name": "D\u00e9cines Acacias", "network": "TCL", "operator": "SYTRAL", "public_transport": "platform", "ref:FR:TCL": "10369", "route_ref": "79A:A", "source": "SYTRAL 12/2016", "wheelchair": "yes"}}, {"type": "node", "id": 4108021065, "lat": 45.7627189, "lon": 4.981832, "tags": {"bus": "yes", "highway": "bus_stop", "local_ref": "4", "name": "D\u00e9cines - OL Vall\u00e9e", "network": "TCL", "network:wikidata": "Q8700", "operator": "Keolis Lyon", "operator:wikidata": "Q61456136", "public_transport": "platform", "ref:FR:TCL": "46580", "route_ref": "BGS1:A,BGS1:R", "shelter": "yes", "source": "SYTRAL 09/2017"}}, {"type": "node", "id": 4108021066, "lat": 45.762528, "lon": 4.9827815, "tags": {"bus": "yes", "highway": "bus_stop", "local_ref": "3", "name": "D\u00e9cines - OL Vall\u00e9e", "network": "TCL", "network:wikidata": "Q8700", "operator": "Keolis Lyon", "operator:wikidata": "Q61456136", "public_transport": "platform", "ref:FR:TCL": "46574", "route_ref": "BGS1:A,BGS1:R,BGS2:A,BGS2:R", "shelter": "yes", "source": "SYTRAL 09/2017"}}, {"type": "node", "id": 4400587929, "lat": 45.7704329, "lon": 4.9824302, "tags": {"bench": "no", "bin": "yes", "bus": "yes", "highway": "bus_stop", "lit": "yes", "name": "Balzac", "network": "TCL", "network:wikidata": "Q8700", "operator": "Keolis Lyon", "operator:wikidata": "Q61456136", "public_transport": "platform", "ref:FR:TCL": "46662", "route_ref": "85A:R", "shelter": "no", "source": "SYTRAL 12/2016", "tactile_paving": "no", "wheelchair": "yes"}}, {"type": "node", "id": 4595565812, "lat": 45.7479701, "lon": 4.9335484, "tags": {"bus": "yes", "highway": "bus_stop", "name": "Roosevelt Centre Commercial", "network": "TCL", "network:wikidata": "Q8700", "operator": "Keolis Lyon", "operator:wikidata": "Q61456136", "public_transport": "platform", "ref:FR:TCL": "10361", "route_ref": "28A:A,52A:R,79A:A", "source": "SYTRAL 03/2020", "wheelchair": "yes"}}, {"type": "node", "id": 4595565813, "lat": 45.7448886, "lon": 4.9327449, "tags": {"bus": "yes", "highway": "bus_stop", "name": "Sept Chemins", "network": "TCL", "network:wikidata": "Q8700", "operator": "Keolis Lyon", "operator:wikidata": "Q61456136", "public_transport": "platform", "ref:FR:TCL": "36955", "route_ref": "79A:A", "source": "SYTRAL 12/2016", "wheelchair": "yes"}}, {"type": "node", "id": 4600845067, "lat": 45.7682659, "lon": 4.9807922, "tags": {"bench": "no", "bin": "no", "bus": "yes", "highway": "bus_stop", "lit": "yes", "mapillary": "117061027097676", "name": "D\u00e9cines - OL Vall\u00e9e", "network": "TCL", "network:wikidata": "Q8700", "operator": "Keolis Lyon", "operator:wikidata": "Q61456136", "pole": "yes", "public_transport": "platform", "ref:FR:TCL": "47402", "route_ref": "85A:R,NAV1:A,NAV1:R", "shelter": "no", "source": "SYTRAL 03/2020", "survey:date": "2018-08-05", "tactile_paving": "no"}}, {"type": "node", "id": 4600845068, "lat": 45.7671197, "lon": 4.9665519, "tags": {"bus": "yes", "highway": "bus_stop", "name": "Andr\u00e9 Brun", "network": "TCL", "network:wikidata": "Q8700", "operator": "Keolis Lyon", "operator:wikidata": "Q61456136", "public_transport": "platform", "ref:FR:TCL": "66", "route_ref": "16A:R", "source": "SYTRAL 12/2016"}}, {"type": "node", "id": 4600845069, "lat": 45.7680354, "lon": 4.9814119, "tags": {"bench": "no", "bin": "yes", "bus": "yes", "highway": "bus_stop", "lit": "yes", "mapillary": "319364366202654", "name": "D\u00e9cines - OL Vall\u00e9e", "network": "TCL", "network:wikidata": "Q8700", "operator": "Keolis Lyon", "operator:wikidata": "Q61456136", "pole": "yes", "public_transport": "platform", "ref:FR:TCL": "46659", "route_ref": "85A:A,NAV1:A,NAV1:R", "shelter": "no", "source": "SYTRAL 03/2020", "survey:date": "2018-08-05", "tactile_paving": "no"}}, {"type": "node", "id": 4600845070, "lat": 45.7706136, "lon": 4.9568495, "tags": {"bench": "yes", "bin": "yes", "bus": "yes", "highway": "bus_stop", "name": "D\u00e9cines Centre", "network": "TCL", "network:wikidata": "Q8700", "operator": "Keolis Lyon", "operator:wikidata": "Q61456136", "public_transport": "platform", "ref:FR:TCL": "2743", "route_ref": "67A:R,79A:R", "shelter": "yes", "source": "SYTRAL 12/2016", "tactile_paving": "no", "wheelchair": "yes"}}, {"type": "node", "id": 4600845071, "lat": 45.7675815, "lon": 4.9604172, "tags": {"bench": "no", "bus": "yes", "highway": "bus_stop", "name": "D\u00e9cines R\u00e9publique", "network": "TCL", "public_transport": "platform", "ref:FR:TCL": "32204", "route_ref": "57A:A", "shelter": "no", "source": "SYTRAL 12/2016"}}, {"type": "node", "id": 4600845073, "lat": 45.76824, "lon": 4.9561451, "tags": {"bus": "yes", "highway": "bus_stop", "name": "D\u00e9cines Mairie", "network": "TCL", "operator": "SYTRAL", "public_transport": "platform", "ref:FR:TCL": "32203", "route_ref": "79A:R", "source": "SYTRAL 12/2016", "wheelchair": "yes"}}, {"type": "node", "id": 4600845074, "lat": 45.764016, "lon": 4.9607116, "tags": {"bus": "yes", "highway": "bus_stop", "name": "D\u00e9cines Jules Ferry", "network": "TCL", "network:wikidata": "Q8700", "operator": "Keolis Lyon", "operator:wikidata": "Q61456136", "public_transport": "platform", "ref:FR:TCL": "1284", "route_ref": "16A:R", "source": "SYTRAL 12/2016", "wheelchair": "yes"}}, {"type": "node", "id": 4600845075, "lat": 45.7693692, "lon": 4.9467124, "tags": {"bench": "yes", "bin": "yes", "bus": "yes", "highway": "bus_stop", "name": "Coli", "network": "TCL", "network:wikidata": "Q8700", "operator": "Keolis Lyon", "operator:wikidata": "Q61456136", "public_transport": "platform", "ref:FR:TCL": "577", "route_ref": "67A:R", "shelter": "yes", "source": "SYTRAL 12/2016", "tactile_paving": "no", "wheelchair": "yes"}}, {"type": "node", "id": 4600845076, "lat": 45.7612914, "lon": 4.9467981, "tags": {"bus": "yes", "highway": "bus_stop", "name": "Champ Blanc", "network": "TCL", "network:wikidata": "Q8700", "operator": "Keolis Lyon", "operator:wikidata": "Q61456136", "public_transport": "platform", "ref:FR:TCL": "379", "route_ref": "16A:R", "shelter": "yes", "source": "SYTRAL 12/2016", "wheelchair": "yes"}}, {"type": "node", "id": 4600845078, "lat": 45.7698785, "lon": 4.9521892, "tags": {"bus": "yes", "highway": "bus_stop", "name": "D\u00e9cines Gare", "network": "TCL", "network:wikidata": "Q8700", "operator": "Keolis Lyon", "operator:wikidata": "Q61456136", "public_transport": "platform", "source": "SYTRAL 12/2016", "wheelchair": "yes"}}, {"type": "node", "id": 4600845079, "lat": 45.7602624, "lon": 4.9733193, "tags": {"bus": "yes", "highway": "bus_stop", "name": "Pierre Gay", "network": "TCL", "network:wikidata": "Q8700", "operator": "Keolis Lyon", "operator:wikidata": "Q61456136", "public_transport": "platform", "ref:FR:TCL": "11209", "route_ref": "76A:R", "source": "SYTRAL 12/2016"}}, {"type": "node", "id": 4600845080, "lat": 45.7681341, "lon": 4.956281, "tags": {"bus": "yes", "highway": "bus_stop", "name": "D\u00e9cines Mairie", "network": "TCL", "public_transport": "platform", "ref:FR:TCL": "32202", "route_ref": "79A:A", "source": "SYTRAL 12/2016", "wheelchair": "yes"}}, {"type": "node", "id": 4600845081, "lat": 45.7580541, "lon": 4.9723246, "tags": {"bus": "yes", "highway": "bus_stop", "name": "Le Bi\u00e9zin", "network": "TCL", "network:wikidata": "Q8700", "operator": "Keolis Lyon", "operator:wikidata": "Q61456136", "public_transport": "platform", "ref:FR:TCL": "11111", "route_ref": "76A:A", "source": "SYTRAL 12/2016", "wheelchair": "yes"}}, {"type": "node", "id": 4600845082, "lat": 45.7531421, "lon": 4.9454618, "tags": {"bus": "yes", "highway": "bus_stop", "name": "D\u00e9cines Beauregard", "network": "TCL", "public_transport": "platform", "ref:FR:TCL": "10365", "route_ref": "79A:A", "source": "SYTRAL 12/2016", "wheelchair": "yes"}}, {"type": "node", "id": 4600845083, "lat": 45.7651175, "lon": 4.9703977, "tags": {"bus": "yes", "highway": "bus_stop", "name": "D\u00e9cines Verdun", "network": "TCL", "public_transport": "platform", "ref:FR:TCL": "10047", "route_ref": "57A:A", "source": "SYTRAL 12/2016"}}, {"type": "node", "id": 4600845084, "lat": 45.7715884, "lon": 4.9709153, "tags": {"bus": "yes", "highway": "bus_stop", "name": "Jaur\u00e8s - Blum", "network": "TCL", "network:wikidata": "Q8700", "operator": "Keolis Lyon", "operator:wikidata": "Q61456136", "public_transport": "platform", "ref:FR:TCL": "11286", "route_ref": "57A:A", "source": "SYTRAL 03/2020"}}, {"type": "node", "id": 4600845085, "lat": 45.7554456, "lon": 4.9488326, "tags": {"bus": "yes", "highway": "bus_stop", "name": "D\u00e9cines Jonquilles", "network": "TCL", "public_transport": "platform", "ref:FR:TCL": "10367", "route_ref": "79A:A", "source": "SYTRAL 12/2016", "wheelchair": "yes"}}, {"type": "node", "id": 4600845086, "lat": 45.7551012, "lon": 4.9487996, "tags": {"bus": "yes", "highway": "bus_stop", "name": "D\u00e9cines Jonquilles", "network": "TCL", "public_transport": "platform", "ref:FR:TCL": "10368", "route_ref": "79A:R", "source": "SYTRAL 12/2016", "wheelchair": "yes"}}, {"type": "node", "id": 4600845087, "lat": 45.771181, "lon": 4.9679539, "tags": {"bus": "yes", "highway": "bus_stop", "name": "Le Molard", "network": "TCL", "network:wikidata": "Q8700", "operator": "Keolis Lyon", "operator:wikidata": "Q61456136", "public_transport": "platform", "ref:FR:TCL": "1550", "route_ref": "16A:A", "source": "SYTRAL 12/2016"}}, {"type": "node", "id": 4600845088, "lat": 45.7633083, "lon": 4.9650949, "tags": {"bus": "yes", "highway": "bus_stop", "name": "D\u00e9cines \u00c9glise", "network": "TCL", "network:wikidata": "Q8700", "operator": "Keolis Lyon", "operator:wikidata": "Q61456136", "public_transport": "platform", "ref:FR:TCL": "699", "route_ref": "16A:A,57A:A", "source": "SYTRAL 12/2016"}}, {"type": "node", "id": 4600845389, "lat": 45.7586991, "lon": 4.9486397, "tags": {"bus": "yes", "highway": "bus_stop", "name": "D\u00e9cines Acacias", "network": "TCL", "public_transport": "platform", "ref:FR:TCL": "10370", "route_ref": "79A:R", "source": "SYTRAL 12/2016", "wheelchair": "yes"}}, {"type": "node", "id": 4600845390, "lat": 45.7727548, "lon": 4.9760666, "tags": {"bench": "yes", "bin": "yes", "bus": "yes", "highway": "bus_stop", "lit": "yes", "name": "D\u00e9cines Esplanade", "network": "TCL", "network:wikidata": "Q8700", "operator": "Keolis Lyon", "operator:wikidata": "Q61456136", "public_transport": "platform", "ref:FR:TCL": "36175", "route_ref": "76A:R,85A:A", "shelter": "yes", "source": "SYTRAL 03/2020", "tactile_paving": "no", "wheelchair": "yes"}}, {"type": "node", "id": 4600845391, "lat": 45.7680392, "lon": 4.9386185, "tags": {"bench": "yes", "bus": "yes", "highway": "bus_stop", "name": "Montaberlet", "network": "TCL", "network:wikidata": "Q8700", "operator": "Keolis Lyon", "operator:wikidata": "Q61456136", "public_transport": "platform", "ref:FR:TCL": "41774", "route_ref": "67A:A", "source": "SYTRAL 12/2016", "tactile_paving": "no", "wheelchair": "yes"}}, {"type": "node", "id": 4600845392, "lat": 45.7647441, "lon": 4.9680694, "tags": {"bus": "yes", "highway": "bus_stop", "name": "Verdun - Paul C\u00e9zanne", "network": "TCL", "public_transport": "platform", "ref:FR:TCL": "43313", "route_ref": "57A:A", "source": "SYTRAL 12/2016"}}, {"type": "node", "id": 4600845393, "lat": 45.7734652, "lon": 4.972425, "tags": {"bus": "yes", "highway": "bus_stop", "name": "D\u00e9cines Champ Fleuri", "network": "TCL", "network:wikidata": "Q8700", "network:wikipedia": "fr:Transports en commun lyonnais", "operator": "Keolis Lyon", "operator:wikidata": "Q61456136", "public_transport": "platform", "ref:FR:TCL": "10591", "route_ref": "67A:A", "source": "SYTRAL 12/2016"}}, {"type": "node", "id": 4600845394, "lat": 45.7714892, "lon": 4.9610345, "tags": {"bus": "yes", "highway": "bus_stop", "name": "D\u00e9cines Bascule", "network": "TCL", "network:wikidata": "Q8700", "operator": "Keolis Lyon", "operator:wikidata": "Q61456136", "public_transport": "platform", "ref:FR:TCL": "696", "route_ref": "67A:R", "source": "SYTRAL 12/2016"}}, {"type": "node", "id": 4600845395, "lat": 45.7720455, "lon": 4.9706057, "tags": {"bus": "yes", "highway": "bus_stop", "name": "Jaur\u00e8s - Blum", "network": "TCL", "network:wikidata": "Q8700", "operator": "Keolis Lyon", "operator:wikidata": "Q61456136", "public_transport": "platform", "ref:FR:TCL": "11837", "route_ref": "16A:R,79A:R", "shelter": "yes", "source": "SYTRAL 03/2020", "wheelchair": "yes"}}, {"type": "node", "id": 4600845396, "lat": 45.7687286, "lon": 4.9419586, "tags": {"bench": "yes", "bin": "yes", "bus": "yes", "highway": "bus_stop", "lit": "no", "name": "D\u00e9cines Wilson", "network": "TCL", "network:wikidata": "Q8700", "operator": "Keolis Lyon", "operator:wikidata": "Q61456136", "public_transport": "platform", "ref:FR:TCL": "708", "route_ref": "67A:R", "shelter": "yes", "source": "SYTRAL 12/2016", "tactile_paving": "no"}}, {"type": "node", "id": 4600845397, "lat": 45.7735019, "lon": 4.9630218, "tags": {"bus": "yes", "highway": "bus_stop", "name": "Sablons", "network": "TCL", "network:wikidata": "Q8700", "operator": "Keolis Lyon", "operator:wikidata": "Q61456136", "public_transport": "platform", "ref:FR:TCL": "2663", "route_ref": "67A:A", "source": "SYTRAL 12/2016", "wheelchair": "yes"}}, {"type": "node", "id": 4600845398, "lat": 45.7632136, "lon": 4.9750607, "tags": {"bus": "yes", "highway": "bus_stop", "name": "Les Six Noyers", "network": "TCL", "network:wikidata": "Q8700", "operator": "Keolis Lyon", "operator:wikidata": "Q61456136", "public_transport": "platform", "ref:FR:TCL": "31862", "route_ref": "76A:R", "source": "SYTRAL 12/2016", "wheelchair": "yes"}}, {"type": "node", "id": 4600845399, "lat": 45.7712404, "lon": 4.9657345, "tags": {"bus": "yes", "highway": "bus_stop", "name": "Le Molard", "network": "TCL", "public_transport": "platform", "ref:FR:TCL": "11840", "route_ref": "79A:A", "shelter": "no", "source": "SYTRAL 12/2016", "wheelchair": "yes"}}, {"type": "node", "id": 4600845400, "lat": 45.7690711, "lon": 4.9673019, "tags": {"bus": "yes", "highway": "bus_stop", "name": "Cornavent", "network": "TCL", "network:wikidata": "Q8700", "operator": "Keolis Lyon", "operator:wikidata": "Q61456136", "public_transport": "platform", "ref:FR:TCL": "31023", "route_ref": "16A:R", "source": "SYTRAL 12/2016", "wheelchair": "yes"}}, {"type": "node", "id": 4600845401, "lat": 45.7720802, "lon": 4.957297, "tags": {"bench": "yes", "bin": "yes", "bus": "yes", "highway": "bus_stop", "lit": "yes", "name": "\u00c9mile Bertrand", "network": "TCL", "public_transport": "platform", "ref:FR:TCL": "10491", "route_ref": "57A:R", "shelter": "yes", "source": "SYTRAL 12/2016", "tactile_paving": "no", "wheelchair": "yes"}}, {"type": "node", "id": 4600845402, "lat": 45.7756223, "lon": 4.9690581, "tags": {"bus": "yes", "highway": "bus_stop", "name": "Berthaudi\u00e8re", "network": "TCL", "network:wikidata": "Q8700", "operator": "Keolis Lyon", "operator:wikidata": "Q61456136", "public_transport": "platform", "ref:FR:TCL": "198", "route_ref": "67A:R", "source": "SYTRAL 12/2016"}}, {"type": "node", "id": 4600845403, "lat": 45.7635926, "lon": 4.9564705, "tags": {"bus": "yes", "highway": "bus_stop", "name": "Centre Nautique", "network": "TCL", "network:wikidata": "Q8700", "operator": "Keolis Lyon", "operator:wikidata": "Q61456136", "public_transport": "platform", "ref:FR:TCL": "1728", "route_ref": "16A:A,79A:A", "source": "SYTRAL 12/2016"}}, {"type": "node", "id": 4600845404, "lat": 45.7704326, "lon": 4.9825325, "tags": {"bench": "no", "bin": "yes", "bus": "yes", "highway": "bus_stop", "lit": "yes", "name": "Balzac", "network": "TCL", "network:wikidata": "Q8700", "operator": "Keolis Lyon", "operator:wikidata": "Q61456136", "public_transport": "platform", "ref:FR:TCL": "46661", "route_ref": "85A:A", "shelter": "no", "source": "SYTRAL 12/2016", "tactile_paving": "no", "wheelchair": "yes"}}, {"type": "node", "id": 4600845405, "lat": 45.7709441, "lon": 4.9623229, "tags": {"bench": "no", "bin": "no", "bus": "yes", "highway": "bus_stop", "lit": "no", "name": "D\u00e9cines Bascule", "network": "TCL", "public_transport": "platform", "ref:FR:TCL": "11838", "route_ref": "79A:A", "shelter": "no", "source": "SYTRAL 12/2016", "tactile_paving": "no", "wheelchair": "yes"}}, {"type": "node", "id": 4600845406, "lat": 45.7512184, "lon": 4.9414235, "tags": {"highway": "bus_stop", "name": "D\u00e9cines Verlaine", "public_transport": "platform", "ref:FR:TCL": "10364", "route_ref": "79A:R,ZI3A:A", "source": "SYTRAL 03/2020", "wheelchair": "yes"}}, {"type": "node", "id": 4600845407, "lat": 45.7603094, "lon": 4.9555386, "tags": {"bus": "yes", "highway": "bus_stop", "name": "Proudhon", "network": "TCL", "network:wikidata": "Q8700", "operator": "Keolis Lyon", "operator:wikidata": "Q61456136", "public_transport": "platform", "ref:FR:TCL": "2445", "route_ref": "16A:A,79A:A", "source": "SYTRAL 12/2016"}}, {"type": "node", "id": 5118566767, "lat": 45.7623841, "lon": 4.9815009, "tags": {"bus": "yes", "highway": "bus_stop", "local_ref": "5", "name": "D\u00e9cines - OL Vall\u00e9e", "network": "TCL", "network:wikidata": "Q8700", "operator": "Keolis Lyon", "operator:wikidata": "Q61456136", "public_transport": "platform", "ref:FR:TCL": "46581", "route_ref": "BGS2:A,BGS2:R", "shelter": "yes", "source": "SYTRAL 09/2017"}}, {"type": "node", "id": 5203586321, "lat": 45.7690909, "lon": 4.9753607, "tags": {"bench": "no", "bus": "yes", "highway": "bus_stop", "mapillary": "293469335598148", "name": "Georges Brassens", "network": "TCL", "network:wikidata": "Q8700", "operator": "Keolis Lyon", "operator:wikidata": "Q61456136", "public_transport": "platform", "ref:FR:TCL": "46908", "route_ref": "85A:A,85A:R", "shelter": "no", "tactile_paving": "no"}}, {"type": "node", "id": 5203586322, "lat": 45.7687951, "lon": 4.9764115, "tags": {"bench": "no", "bin": "no", "bus": "yes", "highway": "bus_stop", "lit": "yes", "mapillary": "969114333826214", "name": "Georges Brassens", "network": "TCL", "network:wikidata": "Q8700", "operator": "Keolis Lyon", "operator:wikidata": "Q61456136", "public_transport": "platform", "ref:FR:TCL": "46907", "route_ref": "85A:A,85A:R", "shelter": "no", "source": "SYTRAL 03/2020", "tactile_paving": "no"}}, {"type": "node", "id": 11020650629, "lat": 45.7698922, "lon": 4.9522407}, {"type": "node", "id": 11020650630, "lat": 45.7698749, "lon": 4.9520503}, {"type": "node", "id": 11020650631, "lat": 45.7700133, "lon": 4.9523355}, {"type": "node", "id": 11020650632, "lat": 45.7699959, "lon": 4.9521451}, {"type": "node", "id": 11843573755, "lat": 45.7449166, "lon": 4.9330964, "tags": {"bus": "yes", "highway": "bus_stop", "name": "Sept Chemins", "network": "TCL", "network:wikidata": "Q8700", "operator": "Keolis Lyon", "operator:wikidata": "Q61456136", "public_transport": "platform", "ref:FR:TCL": "36955", "route_ref": "79A:A", "source": "SYTRAL 12/2016", "wheelchair": "yes"}}, {"type": "node", "id": 11862036891, "lat": 45.762059, "lon": 4.9828227, "tags": {"bus": "yes", "highway": "bus_stop", "local_ref": "2", "name": "D\u00e9cines - OL Vall\u00e9e", "network": "TCL", "network:wikidata": "Q8700", "operator": "Keolis Lyon", "operator:wikidata": "Q61456136", "public_transport": "platform", "ref:FR:TCL": "46574", "route_ref": "BGS1:A,BGS1:R,BGS2:A,BGS2:R", "shelter": "yes", "source": "SYTRAL 09/2017"}}, {"type": "node", "id": 11862036892, "lat": 45.7617583, "lon": 4.9828348, "tags": {"bus": "yes", "highway": "bus_stop", "local_ref": "1", "name": "D\u00e9cines - OL Vall\u00e9e", "network": "TCL", "network:wikidata": "Q8700", "operator": "Keolis Lyon", "operator:wikidata": "Q61456136", "public_transport": "platform", "ref:FR:TCL": "46574", "route_ref": "BGS1:A,BGS1:R,BGS2:A,BGS2:R", "shelter": "yes", "source": "SYTRAL 09/2017"}}, {"type": "node", "id": 11862036893, "lat": 45.7619734, "lon": 4.9815525, "tags": {"bus": "yes", "highway": "bus_stop", "local_ref": "6", "name": "D\u00e9cines - OL Vall\u00e9e", "network": "TCL", "network:wikidata": "Q8700", "operator": "Keolis Lyon", "operator:wikidata": "Q61456136", "public_transport": "platform", "ref:FR:TCL": "46574", "route_ref": "BGS1:A,BGS1:R,BGS2:A,BGS2:R", "shelter": "yes", "source": "SYTRAL 09/2017"}}, {"type": "node", "id": 11862036894, "lat": 45.7615781, "lon": 4.9815729, "tags": {"bus": "yes", "highway": "bus_stop", "local_ref": "7", "name": "D\u00e9cines - OL Vall\u00e9e", "network": "TCL", "network:wikidata": "Q8700", "operator": "Keolis Lyon", "operator:wikidata": "Q61456136", "public_transport": "platform", "ref:FR:TCL": "46574", "route_ref": "BGS1:A,BGS1:R,BGS2:A,BGS2:R", "shelter": "yes", "source": "SYTRAL 09/2017"}}, {"type": "way", "id": 1186554841, "nodes": [11020650630, 11020650629], "tags": {"bus": "yes", "highway": "bus_stop", "name": "D\u00e9cines Gare", "network": "TCL", "operator": "Keolis Lyon", "public_transport": "platform", "ref:FR:TCL": "701", "route_ref": "67A:A", "source": "SYTRAL 12/2016", "wheelchair": "yes"}}, {"type": "way", "id": 1186554842, "nodes": [11020650632, 11020650631], "tags": {"bus": "yes", "highway": "bus_stop", "name": "D\u00e9cines Gare", "network": "TCL", "operator": "Keolis Lyon", "public_transport": "platform", "ref:FR:TCL": "702", "route_ref": "67A:R", "source": "SYTRAL 12/2016", "wheelchair": "yes"}}]}