{"version": 0.6, "generator": "Overpass API 0.7.62.1 084b4234", "osm3s": {"timestamp_osm_base": "2024-11-19T06:11:37Z", "copyright": "The data included in this document is from www.openstreetmap.org. The data is made available under ODbL."}, "elements": [{"type": "node", "id": 1387400240, "lat": 46.805952, "lon": 4.417713}, {"type": "node", "id": 1387400429, "lat": 46.8059662, "lon": 4.4176223}, {"type": "node", "id": 1387400452, "lat": 46.8059669, "lon": 4.4176992}, {"type": "node", "id": 1387400512, "lat": 46.8059721, "lon": 4.4177301}, {"type": "node", "id": 1387400755, "lat": 46.8059886, "lon": 4.4177007}, {"type": "node", "id": 1387400756, "lat": 46.8059888, "lon": 4.4177291}, {"type": "node", "id": 1387400934, "lat": 46.8060041, "lon": 4.4178254}, {"type": "node", "id": 1387400950, "lat": 46.8060046, "lon": 4.4178064}, {"type": "node", "id": 1387401058, "lat": 46.8060151, "lon": 4.4176999}, {"type": "node", "id": 1387401085, "lat": 46.8060166, "lon": 4.4178058}, {"type": "node", "id": 1387401609, "lat": 46.8060556, "lon": 4.4176246}, {"type": "node", "id": 1387401635, "lat": 46.8060583, "lon": 4.4178278}, {"type": "node", "id": 1540680444, "lat": 46.7986254, "lon": 4.4324295, "tags": {"amenity": "bar"}}, {"type": "node", "id": 2018785940, "lat": 46.7974298, "lon": 4.4332208, "tags": {"amenity": "bar", "name": "Bar le Magenta"}}, {"type": "node", "id": 3283750624, "lat": 46.6753822, "lon": 4.3635426, "tags": {"addr:housenumber": "4", "addr:street": "Rue Blanqui", "amenity": "bar", "name": "Le Cheffield", "phone": "+33 683417316"}}, {"type": "node", "id": 3676700169, "lat": 46.7493618, "lon": 4.4686573, "tags": {"addr:city": "Montchanin", "addr:housenumber": "60", "addr:postcode": "71210", "addr:street": "Avenue de la R\u00e9publique", "amenity": "bar", "name": "Le M\u00e9mento", "ref:FR:NAF": "56.30Z", "ref:FR:SIRET": "91773288500012", "source": "INSEE-SIRET 2024"}}, {"type": "node", "id": 4144957985, "lat": 46.8368799, "lon": 4.3574685, "tags": {"amenity": "bar"}}, {"type": "node", "id": 4308371566, "lat": 46.6602177, "lon": 4.3825724, "tags": {"amenity": "bar", "name": "Le chant du coq"}}, {"type": "node", "id": 4308388325, "lat": 46.6710083, "lon": 4.3607606, "tags": {"amenity": "bar", "name": "La Bourgogne"}}, {"type": "node", "id": 4308388326, "lat": 46.6713929, "lon": 4.3612757, "tags": {"amenity": "bar", "description": "bar tabac jeux fdj", "name": "La civette"}}, {"type": "node", "id": 5044730232, "lat": 46.7450347, "lon": 4.4710251, "tags": {"addr:city": "Montchanin", "addr:housenumber": "112", "addr:postcode": "71210", "addr:street": "Avenue de la R\u00e9publique", "amenity": "bar", "name": "Le Longchamp", "ref:FR:NAF": "56.30Z", "ref:FR:SIRET": "39189924200013"}}, {"type": "node", "id": 7395994669, "lat": 46.8013571, "lon": 4.444699, "tags": {"amenity": "bar", "name": "Le Bilou's Bar", "ref:FR:SIRET": "50827655700016", "source": "INSEE - 06/2019"}}, {"type": "node", "id": 7396109376, "lat": 46.8002479, "lon": 4.4209238, "tags": {"amenity": "bar", "name": "EL LOCO CAFE", "ref:FR:SIRET": "80156471700016", "source": "INSEE - 06/2019"}}, {"type": "node", "id": 7396109402, "lat": 46.8054512, "lon": 4.4203817, "tags": {"amenity": "bar", "name": "CHEZ EMILIO BAR BRASSERIE", "ref:FR:SIRET": "84096376300015", "source": "INSEE - 06/2019"}}, {"type": "node", "id": 7396109408, "lat": 46.8045265, "lon": 4.439931, "tags": {"amenity": "bar", "fixme": "select an amenity type", "name": "Le Concorde", "ref:FR:SIRET": "51958311600016", "source": "INSEE - 06/2019"}}, {"type": "node", "id": 7900533312, "lat": 46.8244066, "lon": 4.4333953, "tags": {"amenity": "bar", "contact:city": "Saint-Sernin-du-Bois", "contact:housenumber": "71 bis", "contact:postcode": "71200", "contact:street": "Route de Saint-Sernin", "name": "La Casa d\u2019El Bidaut", "opening_hours": "24/7"}}, {"type": "node", "id": 9018025650, "lat": 46.6046606, "lon": 4.3002143, "tags": {"amenity": "bar", "name": "L'Essentiel"}}, {"type": "node", "id": 11118513406, "lat": 46.8078872, "lon": 4.4187662, "tags": {"addr:city": "Le Creusot", "addr:housenumber": "380", "addr:postcode": "71200", "addr:street": "Avenue de l'Europe", "amenity": "bar", "leisure": "escape_game", "name": "Le Stratag\u00e8me", "website": "https://le-stratageme.fr"}}, {"type": "way", "id": 124739795, "nodes": [1387401635, 1387401609, 1387400429, 1387400452, 1387400240, 1387400512, 1387400756, 1387400755, 1387401058, 1387401085, 1387400950, 1387400934, 1387401635], "tags": {"amenity": "bar", "building": "yes", "name": "The New Highland", "source": "extraction vectorielle v1 cadastre-dgi-fr source : Direction G\u00e9n\u00e9rale des Imp\u00f4ts - Cadas. Mise \u00e0 jour : 2010"}}]}