{"version": 0.6, "generator": "Overpass API 0.7.62.4 2390de5a", "osm3s": {"timestamp_osm_base": "2024-11-29T11:40:45Z", "copyright": "The data included in this document is from www.openstreetmap.org. The data is made available under ODbL."}, "elements": [{"type": "node", "id": 25468552, "lat": 45.7498291, "lon": 4.7846148, "tags": {"amenity": "marketplace"}}, {"type": "node", "id": 25468556, "lat": 45.7562025, "lon": 4.7973142, "tags": {"amenity": "marketplace", "name": "Point du Jour", "opening_hours": "Tu; Fr"}}, {"type": "node", "id": 665047599, "lat": 45.7497908, "lon": 4.8875966, "tags": {"amenity": "marketplace", "name": "March\u00e9 de Montchat", "opening_hours": "We 07:00-12:00; Sa 07:00-12:00"}}, {"type": "node", "id": 706989907, "lat": 45.7585292, "lon": 4.8407038, "tags": {"amenity": "marketplace", "name": "March\u00e9 Quai Augagneur", "opening_hours": "Th 14:00-20:00; Sa-Su 06:00-13:30"}}, {"type": "node", "id": 706990809, "lat": 45.7589157, "lon": 4.8473744, "tags": {"amenity": "marketplace", "name": "March\u00e9 Guichard", "opening_hours": "Tu, Su 06:00-13:30", "wheelchair": "yes"}}, {"type": "node", "id": 778814211, "lat": 45.7293099, "lon": 4.8669343}, {"type": "node", "id": 778829487, "lat": 45.7293993, "lon": 4.8671939}, {"type": "node", "id": 778843744, "lat": 45.7305424, "lon": 4.8659727}, {"type": "node", "id": 778845888, "lat": 45.7306421, "lon": 4.8662333}, {"type": "node", "id": 983318939, "lat": 45.76844, "lon": 4.8299713}, {"type": "node", "id": 983319050, "lat": 45.7684232, "lon": 4.829479}, {"type": "node", "id": 983330919, "lat": 45.7683186, "lon": 4.82998}, {"type": "node", "id": 983331095, "lat": 45.7683022, "lon": 4.829487}, {"type": "node", "id": 1425774288, "lat": 45.7603915, "lon": 4.8267376, "tags": {"amenity": "marketplace", "check_date:opening_hours": "2023-10-03", "description": "March\u00e9 Bio", "name": "March\u00e9 bio de Saint-Jean", "opening_hours": "Th 06:00-12:30", "opening_hours:signed": "no", "organic": "yes", "wheelchair": "yes"}}, {"type": "node", "id": 1574041857, "lat": 45.7492781, "lon": 4.8481034, "tags": {"amenity": "marketplace", "check_date:opening_hours": "2024-09-01", "name": "March\u00e9 place Saint-Louis", "opening_hours": "Tu 06:00-12:30; Fr,Su 06:00-13:30", "ref:FR:FANTOIR": "693874527N", "wheelchair": "yes"}}, {"type": "node", "id": 1728047684, "lat": 45.7460979, "lon": 4.8426943, "tags": {"amenity": "marketplace", "name": "March\u00e9 place Jean Mac\u00e9", "opening_hours": "We 06:00-13:30; Sa 06:00-13:30", "ref:FR:FANTOIR": "693873768N", "wheelchair": "yes"}}, {"type": "node", "id": 1852659167, "lat": 45.7561178, "lon": 4.7872659}, {"type": "node", "id": 1852659170, "lat": 45.755518, "lon": 4.786481}, {"type": "node", "id": 1852659185, "lat": 45.7564412, "lon": 4.7864961}, {"type": "node", "id": 1852659186, "lat": 45.7555049, "lon": 4.7872723}, {"type": "node", "id": 1962279908, "lat": 45.7276069, "lon": 4.8778272, "tags": {"amenity": "marketplace", "name": "March\u00e9 alimentaire G\u00e9n\u00e9ral Andr\u00e9", "opening_hours": "We,Fr,Su 06:00-13:00"}}, {"type": "node", "id": 2019574506, "lat": 45.7758643, "lon": 4.8325531, "tags": {"amenity": "marketplace", "check_date:opening_hours": "2024-07-21", "name": "March\u00e9 alimentaire Petite Place de la Croix-Rousse", "opening_hours": "Tu-Th 06:00-13:00; Fr-Su 06:00-13:30", "operator": "Ville de Lyon", "wheelchair": "yes"}}, {"type": "node", "id": 2083961881, "lat": 45.75651, "lon": 4.7864918}, {"type": "node", "id": 2084378595, "lat": 45.7561768, "lon": 4.7872675}, {"type": "node", "id": 2159556320, "lat": 45.7515374, "lon": 4.8280094, "tags": {"amenity": "marketplace", "description": "March\u00e9 de producteur le mercredi", "name": "March\u00e9 de Carnot", "opening_hours": "We 15:00-20:00; Su 06:00-13:30"}}, {"type": "node", "id": 2911180061, "lat": 45.7615248, "lon": 4.831339, "tags": {"access:covid19": "yes", "alt_name": "March\u00e9 Saint-Antoine / C\u00e9lestins", "amenity": "marketplace", "contact:facebook": "marchequaisaintantoine", "contact:instagram": "quaisdesdelices", "email": "contact@quaisdesdelices.com", "name": "March\u00e9 Saint-Antoine", "opening_hours": "Tu-Sa 07:30-13:00; Su 07:30-14:00", "phone": "+33 4 72 77 92 83", "ref:FR:FANTOIR": "693821333N"}}, {"type": "node", "id": 4560922275, "lat": 45.7299406, "lon": 4.832888, "tags": {"amenity": "marketplace", "name": "March\u00e9 de Jean Jaur\u00e8s", "opening_hours": "Tu 06:00-12:30; Fr, Su 06:00-13:30", "ref:FR:FANTOIR": "693873747R"}}, {"type": "node", "id": 4560926007, "lat": 45.734394, "lon": 4.8536155, "tags": {"amenity": "marketplace", "check_date": "2024-02-24", "internet_access": "no", "level": "0", "name": "March\u00e9 Place Belleville", "opening_hours": "We,Su 06:00-13:00", "payment:cash": "yes", "payment:credit_cards": "yes", "payment:debit_cards": "yes", "wheelchair": "yes"}}, {"type": "node", "id": 4560940233, "lat": 45.7441987, "lon": 4.8707735, "tags": {"amenity": "marketplace", "check_date:opening_hours": "2024-05-14", "name": "March\u00e9 Bio Ambroise Courtois", "opening_hours": "We 15:00-20:00", "organic": "only", "wheelchair": "yes"}}, {"type": "node", "id": 4560940234, "lat": 45.7443042, "lon": 4.8708245, "tags": {"amenity": "marketplace", "name": "March\u00e9 Ambroise Courtois", "opening_hours": "Tu-Sa 06:00-13:30; We,Fr off, We 16:30-19:00, Th 06:00-13:30", "wheelchair": "yes"}}, {"type": "node", "id": 5305852539, "lat": 45.7576059, "lon": 4.8648489, "tags": {"amenity": "marketplace", "name": "March\u00e9 Gabillot", "opening_hours": "We,Fr 06:00-13:00; Su 06:00-13:30", "wheelchair": "yes"}}, {"type": "node", "id": 5381482688, "lat": 45.7789342, "lon": 4.8049052, "tags": {"amenity": "marketplace", "capacity": "42", "name": "March\u00e9 Roger Salengro", "opening_hours": "We,Sa,Su 06:00-14:00"}}, {"type": "node", "id": 6681664801, "lat": 45.7720078, "lon": 4.848172, "tags": {"amenity": "marketplace", "name": "March\u00e9 Montgolfier"}}, {"type": "node", "id": 6919286763, "lat": 45.730481, "lon": 4.8660206}, {"type": "node", "id": 7343098364, "lat": 45.7739748, "lon": 4.8256963, "tags": {"amenity": "marketplace", "check_date:opening_hours": "2023-09-25", "name": "March\u00e9 produits manufactur\u00e9s Croix-Rousse", "opening_hours": "Tu 06:00-13:30", "operator": "Ville de Lyon", "wheelchair": "yes", "wikidata": "Q113950887"}}, {"type": "node", "id": 7343098365, "lat": 45.7795094, "lon": 4.8200302, "tags": {"amenity": "marketplace", "name": "March\u00e9 alimentaire Camille Flammarion", "opening_hours": "We,Fr 06:00-13:00", "operator": "Ville de Lyon", "wheelchair": "yes"}}, {"type": "node", "id": 7343098366, "lat": 45.7796123, "lon": 4.8349808, "tags": {"amenity": "marketplace", "check_date:opening_hours": "2023-04-27", "name": "March\u00e9 alimentaire Commandant Arnaud", "opening_hours": "Th 06:00-12:30", "operator": "Ville de Lyon", "wheelchair": "yes"}}, {"type": "node", "id": 7343098367, "lat": 45.7742269, "lon": 4.8315885, "tags": {"amenity": "marketplace", "name": "March\u00e9 Biologique Croix-Rousse", "opening_hours": "Sa 06:00-13:30", "operator": "Ville de Lyon", "organic": "only", "ref:FR:FANTOIR": "693812008B", "wheelchair": "yes"}}, {"type": "node", "id": 7343098368, "lat": 45.7739515, "lon": 4.8280969, "tags": {"amenity": "marketplace", "name": "March\u00e9 alimentaire de la Croix-Rousse", "opening_hours": "Tu-Su 06:00-13:30; We,Th 06:00-13:00", "operator": "Ville de Lyon", "organic": "yes", "wheelchair": "yes"}}, {"type": "node", "id": 8149345762, "lat": 45.7296572, "lon": 4.8666633}, {"type": "node", "id": 8395370575, "lat": 45.7678307, "lon": 4.8051104, "tags": {"amenity": "marketplace", "capacity": "10", "name": "March\u00e9 alimentaire Ilot Louis Loucheur", "opening_hours": "Fr 14:00-20:00"}}, {"type": "node", "id": 8827007153, "lat": 45.7859819, "lon": 4.7953015, "tags": {"amenity": "marketplace", "name": "March\u00e9 alimentaire du soir de l'Abb\u00e9 Pierre", "opening_hours": "Th 14:00-20:00"}}, {"type": "node", "id": 9820655746, "lat": 45.7664818, "lon": 4.8302694}, {"type": "node", "id": 9820655747, "lat": 45.766525, "lon": 4.8303672}, {"type": "node", "id": 9820655748, "lat": 45.7650498, "lon": 4.831586}, {"type": "node", "id": 9820655749, "lat": 45.7650048, "lon": 4.8314749}, {"type": "node", "id": 9820655751, "lat": 45.7652623, "lon": 4.8312547}, {"type": "node", "id": 10203692389, "lat": 45.7431177, "lon": 4.8231268, "tags": {"amenity": "marketplace", "name": "March\u00e9 cours Bayard", "opening_hours": "Th, Su 06:00-13:00", "wheelchair": "yes"}}, {"type": "node", "id": 11215284115, "lat": 45.7356914, "lon": 4.8830178, "tags": {"addr:floor": "0", "amenity": "marketplace", "check_date": "2024-11-06", "level": "0", "name": "March\u00e9 alimentaire Ambroise Par\u00e9", "opening_hours": "We,Su 06:00-13:00", "payment:cash": "yes", "payment:credit_cards": "yes", "payment:debit_cards": "yes", "source": "survey", "website": "https://mairie8.lyon.fr/lieu/marches-alimentaires/marche-alimentaire-ambroise-pare", "wheelchair": "yes"}}, {"type": "node", "id": 11215299689, "lat": 45.7292861, "lon": 4.8853742, "tags": {"amenity": "marketplace", "name": "March\u00e9 alimentaire Mermoz Sud", "opening_hours": "Sa 06:00-13:30", "website": "https://mairie8.lyon.fr/lieu/marches-alimentaires/marche-alimentaire-mermoz-sud", "wheelchair": "yes"}}, {"type": "node", "id": 12032892072, "lat": 45.7658886, "lon": 4.8308929}, {"type": "node", "id": 12056949254, "lat": 45.7305936, "lon": 4.8662708}, {"type": "node", "id": 12056949255, "lat": 45.7304926, "lon": 4.8660116}, {"type": "node", "id": 12134063306, "lat": 45.7671441, "lon": 4.8530966, "tags": {"addr:city": "Lyon", "addr:postcode": "69006", "addr:street": "place Jacques Elmaleh", "amenity": "marketplace", "name": "March\u00e9 alimentaire T\u00eate d'Or", "opening_hours": "WE,Sa 06:00-13:30", "operator": "Ville de Lyon"}}, {"type": "node", "id": 12169801174, "lat": 45.7749131, "lon": 4.8057099, "tags": {"amenity": "marketplace", "capacity": "3", "name": "March\u00e9 biologique Vaise", "opening_hours": "Tu 06:00-13:00"}}, {"type": "node", "id": 12169801175, "lat": 45.7983612, "lon": 4.8301153, "tags": {"amenity": "marketplace", "capacity": "1", "name": "March\u00e9 alimentaire St Rambert - Henri Barbusse", "opening_hours": "Su 06:00-13:00"}}, {"type": "node", "id": 12169801176, "lat": 45.7883886, "lon": 4.8000008, "tags": {"amenity": "marketplace", "capacity": "10", "name": "March\u00e9 alimentaire Duch\u00e8re Balmont", "opening_hours": "Sa 06:00-13:30"}}, {"type": "node", "id": 12169801177, "lat": 45.7637798, "lon": 4.7970376, "tags": {"amenity": "marketplace", "capacity": "15", "name": "March\u00e9 alimentaire Champvert", "opening_hours": "Sa 06:00-13:00"}}, {"type": "node", "id": 12169801178, "lat": 45.7999095, "lon": 4.8263025, "tags": {"amenity": "marketplace", "capacity": "11", "name": "March\u00e9 alimentaire place Sch\u00f6nberg", "opening_hours": "We 06:00-13:00"}}, {"type": "node", "id": 12169801179, "lat": 45.7890076, "lon": 4.7897078, "tags": {"amenity": "marketplace", "capacity": "8", "name": "March\u00e9 alimentaire Duch\u00e8re Sauvegarde", "opening_hours": "Th,Su 06:00-13:00"}}, {"type": "way", "id": 62350484, "nodes": [778843744, 12056949255, 6919286763, 8149345762, 778814211, 778829487, 12056949254, 778845888, 778843744], "tags": {"amenity": "marketplace", "building": "yes", "name": "March\u00e9 des \u00c9tats-Unis", "opening_hours": "Tu,Th 06:00-13:00; Sa 06:00-13:30", "wall": "no", "wheelchair": "yes"}}, {"type": "way", "id": 84647330, "nodes": [983330919, 983318939, 983319050, 983331095, 983330919], "tags": {"amenity": "marketplace", "building": "yes", "name": "Halle de la Martini\u00e8re", "ref:FR:FANTOIR": "693814610E", "source": "cadastre-dgi-fr source : Direction G\u00e9n\u00e9rale des Imp\u00f4ts - Cadastre. Mise \u00e0 jour : 2010", "website": "http://www.hallesmartiniere.fr/"}}, {"type": "way", "id": 205944768, "nodes": [1852659185, 2083961881, 2084378595, 1852659167, 1852659186, 1852659170, 1852659185], "tags": {"amenity": "marketplace", "opening_hours": "We,Fr,Su 08:00-13:00"}}, {"type": "way", "id": 1070010667, "nodes": [9820655746, 9820655747, 12032892072, 9820655748, 9820655749, 9820655751, 9820655746], "tags": {"amenity": "marketplace", "covered": "no", "name": "March\u00e9 des bouquinistes", "name:en": "Book market", "opening_hours": "Sa-Su,PH 09:00-18:00"}}]}