{"version": 0.6, "generator": "Overpass API 0.7.62.1 084b4234", "osm3s": {"timestamp_osm_base": "2024-11-19T06:11:37Z", "copyright": "The data included in this document is from www.openstreetmap.org. The data is made available under ODbL."}, "elements": [{"type": "node", "id": 656446961, "lat": 45.4365751, "lon": 4.3870082, "tags": {"amenity": "bar", "name": "La Foule", "ref:FR:SIRET": "91218876000017"}}, {"type": "node", "id": 661339914, "lat": 45.4336814, "lon": 4.3881886, "tags": {"amenity": "bar", "diet:vegetarian": "yes", "name": "\u00c9ph\u00e9m\u00e8re", "ref:FR:SIRET": "85293233400018"}}, {"type": "node", "id": 661339916, "lat": 45.4338375, "lon": 4.3881503, "tags": {"amenity": "bar", "name": "Barathi", "ref:FR:SIRET": "92283347000011"}}, {"type": "node", "id": 665440643, "lat": 45.4190535, "lon": 4.3947107, "tags": {"amenity": "bar", "gambling": "yes", "name": "Le Gotham", "tobacco": "yes"}}, {"type": "node", "id": 685756015, "lat": 45.4386913, "lon": 4.3902027, "tags": {"amenity": "bar", "contact:email": "hello@example.com", "contact:facebook": "https://www.facebook.com/PileouFace42/", "contact:instagram": "https://www.instagram.com/42pof42/", "contact:phone": "+33 7 56 92 92 42", "contact:website": "https://pileouface42.fr/", "name": "Pile ou Face", "opening_hours": "We-Sa 17:00-01:00"}}, {"type": "node", "id": 703830768, "lat": 45.4279591, "lon": 4.3935341, "tags": {"amenity": "bar", "check_date:opening_hours": "2023-03-31", "name": "DS", "opening_hours:signed": "no"}}, {"type": "node", "id": 728789639, "lat": 45.4363429, "lon": 4.3900578, "tags": {"addr:housenumber": "13", "addr:street": "Rue des Martyrs de Vingr\u00e9", "alt_name": "Caf\u00e9 Saint-Jacques", "amenity": "bar", "email": "contact@cafesaintjacques.com", "name": "Saint-Jacques", "opening_hours": "Mo,Su off; Tu-Fr 08:00-01:30; Sa 09:00-01:30", "phone": "+33477320079", "ref:FR:SIRET": "84431751100013", "website": "https://cafesaintjacques.com/"}}, {"type": "node", "id": 738899780, "lat": 45.4389375, "lon": 4.3968905, "tags": {"amenity": "bar", "contact:email": "hopenbar@outlook.fr", "contact:facebook": "https://www.facebook.com/p/HopeN-Bar-100083171350775/", "name": "Hope 'n' Bar", "opening_hours": "Tu-Th 17:00-24:00; Fr-Sa 17:00-01:00", "phone": "+33 6 35 12 93 03", "ref:FR:SIRET": "91219745600029"}}, {"type": "node", "id": 767817912, "lat": 45.4158963, "lon": 4.395061, "tags": {"amenity": "bar", "name": "Le V\u00e9rone", "ref:FR:SIRET": "47931963400016"}}, {"type": "node", "id": 783735637, "lat": 45.4447946, "lon": 4.3618973}, {"type": "node", "id": 783736358, "lat": 45.4448324, "lon": 4.361698}, {"type": "node", "id": 784317254, "lat": 45.444682, "lon": 4.3618946}, {"type": "node", "id": 784447884, "lat": 45.4447879, "lon": 4.3619332}, {"type": "node", "id": 784610706, "lat": 45.4447265, "lon": 4.3616594}, {"type": "node", "id": 793516217, "lat": 45.4276796, "lon": 4.3915501, "tags": {"amenity": "bar", "name": "Le Voltaire", "ref:FR:SIRET": "44943847200010"}}, {"type": "node", "id": 926536402, "lat": 45.4280494, "lon": 4.3901751, "tags": {"amenity": "bar", "name": "Le D'Rap", "ref:FR:SIRET": "84772368100023"}}, {"type": "node", "id": 1353845038, "lat": 45.4314878, "lon": 4.3938154, "tags": {"amenity": "bar", "name": "Mendes"}}, {"type": "node", "id": 1718384169, "lat": 45.632353, "lon": 4.4552793, "tags": {"addr:city": "Saint-Symphorien-sur-Coise", "addr:housenumber": "19", "addr:postcode": "69590", "addr:street": "Place du March\u00e9", "amenity": "bar", "brewery": "yes", "internet_access": "wlan", "internet_access:fee": "no", "name": "L'ixo caf\u00e9", "phone": "+33478190393", "ref:FR:SIRET": "52358339100017", "tobacco": "yes"}}, {"type": "node", "id": 1718384612, "lat": 45.6324242, "lon": 4.4549721, "tags": {"addr:city": "Saint-Symphorien-sur-Coise", "addr:housenumber": "64", "addr:postcode": "69590", "addr:street": "Place du March\u00e9", "amenity": "bar", "email": "cavelabelleepoque@outlook.fr", "facebook": "https://www.facebook.com/people/Cave-La-Belle-%C3%89poque/100094164639847/", "name": "La Belle \u00e9poque", "phone": "+33426554671", "shop": "wine", "terrace": "yes", "was:amenity": "bar", "was:name": "Le P'tit Bistrot", "wifi": "no"}}, {"type": "node", "id": 1720992116, "lat": 45.6320215, "lon": 4.4568115, "tags": {"addr:city": "Saint-Symphorien-sur-Coise", "addr:housenumber": "51", "addr:postcode": "69590", "addr:street": "Place des Terreaux", "amenity": "bar", "name": "Brasserie des Terreaux", "phone": "+33478519480", "ref:FR:SIRET": "80025301500013", "shop": "tobacco"}}, {"type": "node", "id": 1721783739, "lat": 45.2920308, "lon": 4.3126491, "tags": {"amenity": "bar", "name": "Le M & M's"}}, {"type": "node", "id": 1757134866, "lat": 45.3401187, "lon": 4.4199263, "tags": {"addr:city": "Saint-Genest-Malifaux", "addr:housenumber": "5", "addr:postcode": "42660", "addr:street": "Place Marechal Foch", "amenity": "bar", "name": "L'eden"}}, {"type": "node", "id": 1757134893, "lat": 45.3403638, "lon": 4.4198138, "tags": {"amenity": "bar"}}, {"type": "node", "id": 1767258383, "lat": 45.339513, "lon": 4.313459}, {"type": "node", "id": 1767258390, "lat": 45.339514, "lon": 4.313488}, {"type": "node", "id": 1767258420, "lat": 45.339532, "lon": 4.313454}, {"type": "node", "id": 1767258422, "lat": 45.339534, "lon": 4.313489}, {"type": "node", "id": 1767258423, "lat": 45.339534, "lon": 4.313532}, {"type": "node", "id": 1767258450, "lat": 45.339557, "lon": 4.313532}, {"type": "node", "id": 1767258451, "lat": 45.339558, "lon": 4.31354}, {"type": "node", "id": 1767258496, "lat": 45.339608, "lon": 4.313451}, {"type": "node", "id": 1767258499, "lat": 45.339609, "lon": 4.313544}, {"type": "node", "id": 1767258544, "lat": 45.33966, "lon": 4.313753}, {"type": "node", "id": 1767258555, "lat": 45.3396428, "lon": 4.3139445}, {"type": "node", "id": 1767258608, "lat": 45.339721, "lon": 4.31372}, {"type": "node", "id": 1767258611, "lat": 45.339724, "lon": 4.313915}, {"type": "node", "id": 1767258636, "lat": 45.339748, "lon": 4.313903}, {"type": "node", "id": 1831935491, "lat": 45.4360428, "lon": 4.4133792, "tags": {"amenity": "bar", "name": "Le Mon\u2019 Plaiz", "ref:FR:SIRET": "93229745000011", "shop": "newsagent", "tobacco": "yes"}}, {"type": "node", "id": 2266097267, "lat": 45.441836, "lon": 4.38728, "tags": {"addr:housenumber": "14", "addr:postcode": "42000", "addr:street": "Place Jean Jaur\u00e8s", "amenity": "bar", "check_date": "2023-11-15", "name": "Six Nations"}}, {"type": "node", "id": 2318557396, "lat": 45.5654275, "lon": 4.4405179, "tags": {"amenity": "bar", "contact:facebook": "https://www.facebook.com/canit.grammoniod", "name": "Le Canit' Grammoniod"}}, {"type": "node", "id": 2436685093, "lat": 45.4380171, "lon": 4.3907118, "tags": {"amenity": "bar", "contact:phone": "+33 4 77 33 41 72", "name": "Le Cheval noir", "ref:FR:SIRET": "57450164900010", "stars": "3", "tourism": "hotel", "website": "https://hotel-chevalnoir.fr/"}}, {"type": "node", "id": 2440614190, "lat": 45.4393575, "lon": 4.3879713, "tags": {"addr:housenumber": "3", "addr:street": "Place de l'H\u00f4tel de Ville", "amenity": "bar", "check_date": "2023-05-26", "name": "Le Glasgow"}}, {"type": "node", "id": 2455906090, "lat": 45.4408704, "lon": 4.3853524, "tags": {"amenity": "bar", "name": "Delirium Caf\u00e9", "ref:FR:SIRET": "95114586100013"}}, {"type": "node", "id": 2470206702, "lat": 45.4357461, "lon": 4.3912388, "tags": {"amenity": "bar", "cocktails": "yes", "contact:instagram": "https://www.instagram.com/hive.cocktailbar/", "name": "Hive", "opening_hours": "Tu-Sa 17:00-01:30", "outdoor_seating": "yes", "ref:FR:SIRET": "90165014300026"}}, {"type": "node", "id": 2500911483, "lat": 45.4321517, "lon": 4.3877357, "tags": {"amenity": "bar", "contact:email": "srabbish@mail.com", "contact:facebook": "https://www.facebook.com/slagheaps/", "contact:phone": "+33 4 77 21 93 31", "name": "Slag Heaps", "opening_hours": "Su-Th 23:00-04:00; Fr-Sa 23:00-05:00", "ref:FR:SIRET": "78870758600012"}}, {"type": "node", "id": 2956450566, "lat": 45.4171268, "lon": 4.3932875, "tags": {"amenity": "bar", "name": "Le Lutetia", "ref:FR:SIRET": "79949478600012", "shop": "newsagent", "smoking": "outside"}}, {"type": "node", "id": 3089283177, "lat": 45.43584, "lon": 4.3868903, "tags": {"amenity": "bar", "name": "Aux Deux Cagettes"}}, {"type": "node", "id": 3159176288, "lat": 45.435638, "lon": 4.4377772, "tags": {"amenity": "bar"}}, {"type": "node", "id": 3177917971, "lat": 45.3960449, "lon": 4.3240397, "tags": {"addr:city": "Le Chambon-Feugerolles", "addr:housenumber": "1", "addr:postcode": "42500", "addr:street": "Rue de la R\u00e9publique", "amenity": "bar", "name": "Bar-Tabac Le Brazza", "tobacco": "yes"}}, {"type": "node", "id": 3178469263, "lat": 45.3968418, "lon": 4.3258824, "tags": {"addr:city": "Le Chambon-Feugerolles", "addr:housenumber": "8", "addr:postcode": "42500", "addr:street": "Place Claudinon Giraudet", "amenity": "bar", "gambling": "yes", "name": "Bar-Tabac Le Joker", "phone": "+33 4 77 61 85 05", "tobacco": "yes"}}, {"type": "node", "id": 3229782497, "lat": 45.4399282, "lon": 4.4027755, "tags": {"amenity": "bar", "name": "Le Cooling Bar", "smoking": "outside"}}, {"type": "node", "id": 3229793859, "lat": 45.4398413, "lon": 4.4032003, "tags": {"amenity": "bar", "gambling": "yes", "name": "Le Saint-Fran\u00e7ois", "opening_hours": "Mo-Su 06:00-19:00", "smoking": "outside", "tobacco": "yes"}}, {"type": "node", "id": 3617131384, "lat": 45.4362827, "lon": 4.3867862, "tags": {"amenity": "bar", "check_date": "2024-05-28", "email": "zanzybar.stetienne@outlook.com", "name": "Zanzy Bar", "old_name": "Le B Four", "opening_hours": "We-Su 18:00-01:00", "outdoor_seating": "no", "phone": "+33427646488", "smoking": "no", "wheelchair": "no"}}, {"type": "node", "id": 3618380367, "lat": 45.4399073, "lon": 4.3837635, "tags": {"amenity": "bar", "name": "Les Oliviers", "ref:FR:SIRET": "84349824700017"}}, {"type": "node", "id": 3619458350, "lat": 45.4410535, "lon": 4.3889132, "tags": {"amenity": "bar", "lottery": "yes", "name": "Le Joker", "ref:FR:SIRET": "82394351900020", "shop": "newsagent", "tobacco": "yes"}}, {"type": "node", "id": 3621539021, "lat": 45.4445474, "lon": 4.3857913, "tags": {"amenity": "bar", "name": "L'onyx bar"}}, {"type": "node", "id": 3622178893, "lat": 45.4388743, "lon": 4.3860903, "tags": {"amenity": "bar", "check_date": "2023-07-09", "description": "Salon de th\u00e9, bar \u00e0 chicha", "name": "White Lounge"}}, {"type": "node", "id": 3623130299, "lat": 45.4426686, "lon": 4.3848296, "tags": {"amenity": "bar", "check_date": "2023-07-09", "contact:facebook": "http://www.facebook.com/pages/Le-Perfect-Chicha/168107459940797", "description": "Salon de th\u00e9, bar \u00e0 shicha", "name": "Le Perfect"}}, {"type": "node", "id": 3886172353, "lat": 45.4403401, "lon": 4.3888263, "tags": {"amenity": "bar", "microbrewery": "yes", "name": "L'Ours qui brasse"}}, {"type": "node", "id": 3923934282, "lat": 45.4410518, "lon": 4.3890661, "tags": {"amenity": "bar", "name": "Le Touareg"}}, {"type": "node", "id": 4041646051, "lat": 45.6346248, "lon": 4.3990103, "tags": {"addr:city": "Chazelles-sur-Lyon", "addr:housenumber": "3", "addr:postcode": "42140", "addr:street": "Avenue du 8 Mai", "amenity": "bar", "brewery": "yes", "contact:facebook": "https://www.facebook.com/Brasserie-La-Farlodoise-499695766774468/", "craft": "brewery", "name": "La Farlodoise", "opening_hours": "We-Fr 16:00-20:00; Sa 15:00-19:00", "phone": "+33973108472", "produced_on_site": "yes", "website": "http://www.lafarlodoise.fr", "wheelchair": "yes"}}, {"type": "node", "id": 4054749745, "lat": 45.4394099, "lon": 4.3973957, "tags": {"amenity": "bar", "gambling": "yes", "name": "Le Django", "ref:FR:SIRET": "80283358200017", "tobacco": "yes"}}, {"type": "node", "id": 4077340318, "lat": 45.4349474, "lon": 4.3911069, "tags": {"addr:street": "Rue L\u00e9on Nautin", "amenity": "bar", "brand": "Barberousse", "check_date": "2023-06-18", "contact:facebook": "https://www.facebook.com/barberousse42000/", "contact:website": "https://barberousse.com/", "name": "Barberousse", "opening_hours": "Th-Sa 20:00-01:30", "ref:FR:SIRET": "53422661800013"}}, {"type": "node", "id": 4117048581, "lat": 45.4279331, "lon": 4.3904885, "tags": {"amenity": "bar", "name": "La Bodega", "ref:FR:SIRET": "80938571900012"}}, {"type": "node", "id": 4204813989, "lat": 45.4515077, "lon": 4.4471441, "tags": {"amenity": "bar", "name": "Caf\u00e9 du Centre"}}, {"type": "node", "id": 4232010938, "lat": 45.4364766, "lon": 4.387032, "tags": {"amenity": "bar", "name": "Contre Temps"}}, {"type": "node", "id": 4235453277, "lat": 45.4337931, "lon": 4.3820807, "tags": {"amenity": "bar", "name:signed": "no", "opening_hours:signed": "no", "ref:FR:SIRET": "52373194100036", "tobacco": "yes", "wikimedia_commons": "File:Bar Tabac rue Beaubrun.jpg"}}, {"type": "node", "id": 4306351674, "lat": 45.4355886, "lon": 4.3860925, "tags": {"amenity": "bar", "gambling": "yes", "name": "Le Symba", "tobacco": "yes"}}, {"type": "node", "id": 4327880545, "lat": 45.4364222, "lon": 4.3886263, "tags": {"amenity": "bar", "name": "Nicky's"}}, {"type": "node", "id": 4363363398, "lat": 45.4393585, "lon": 4.3862385, "tags": {"amenity": "bar", "name": "Boca Chica"}}, {"type": "node", "id": 4394458475, "lat": 45.4138718, "lon": 4.3985385, "tags": {"amenity": "bar", "name": "Le P'tit Vert", "ref:FR:SIRET": "80930241700021", "tobacco": "yes"}}, {"type": "node", "id": 4509235544, "lat": 45.4348782, "lon": 4.390568, "tags": {"amenity": "bar", "contact:facebook": "https://www.facebook.com/people/Belami/61559572978659/", "name": "Belami", "old_name": "VIP", "outdoor_seating": "yes", "phone": "+33 4 87 02 11 40"}}, {"type": "node", "id": 4560132636, "lat": 45.4348076, "lon": 4.3879098, "tags": {"amenity": "bar", "name": "Les Berthom", "ref:FR:SIRET": "94939996800013", "website": "https://www.lesberthom.com/les-bars/saint-etienne"}}, {"type": "node", "id": 4560139188, "lat": 45.4340263, "lon": 4.3883941, "tags": {"alt_name": "Be4", "amenity": "bar", "contact:facebook": "https://www.facebook.com/people/Le-Before/61561154849666/", "name": "Le Before", "ref:FR:SIRET": "92978809900018"}}, {"type": "node", "id": 4560188136, "lat": 45.4374779, "lon": 4.3861859, "tags": {"amenity": "bar", "lottery": "yes", "name": "Le 62", "ref:FR:SIRET": "98073557500014", "tobacco": "yes"}}, {"type": "node", "id": 4922160180, "lat": 45.4364064, "lon": 4.3888225, "tags": {"amenity": "bar", "contact:facebook": "https://www.facebook.com/pampille.saintetienne/", "drink:wine": "yes", "name": "Pampille", "ref:FR:SIRET": "82855412100016", "shop": "alcohol"}}, {"type": "node", "id": 5204693198, "lat": 45.40376, "lon": 4.3658688, "tags": {"amenity": "bar", "name": "Bar de l'H\u00f4tel de Ville"}}, {"type": "node", "id": 5236022216, "lat": 45.4202197, "lon": 4.4033891, "tags": {"amenity": "bar", "contact:facebook": "https://www.facebook.com/pg/La-guinguette-de-La-vieille-mule-291247198010627", "name": "La Guinguette de la Vieille Mule"}}, {"type": "node", "id": 5247558065, "lat": 45.4480645, "lon": 4.387807, "tags": {"amenity": "bar", "name": "Le P'tit Prince", "ref:FR:SIRET": "80300865500018"}}, {"type": "node", "id": 5308269223, "lat": 45.4378955, "lon": 4.3905893, "tags": {"addr:housenumber": "12", "addr:street": "Rue Fran\u00e7ois Gillet", "amenity": "bar", "name": "L'Elixir", "ref:FR:SIRET": "75041833700010", "toilets:wheelchair": "yes", "wheelchair": "yes"}}, {"type": "node", "id": 5337215567, "lat": 45.4313712, "lon": 4.3940686, "tags": {"amenity": "bar", "name": "Caf\u00e9 de France"}}, {"type": "node", "id": 5846539602, "lat": 45.4321116, "lon": 4.3890243, "tags": {"amenity": "bar", "name": "La Bonne Mine", "ref:FR:SIRET": "94872554400027"}}, {"type": "node", "id": 5864922194, "lat": 45.4350033, "lon": 4.3914285, "tags": {"amenity": "bar", "contact:facebook": "https://www.facebook.com/groups/333773813341109/", "contact:phone": "+33 4 77 34 15 40", "name": "Lo'Beau Bar", "opening_hours": "Th-Sa 18:30-01:30", "outdoor_seating": "yes", "ref:FR:SIRET": "98192116600014"}}, {"type": "node", "id": 5925784185, "lat": 45.4346735, "lon": 4.3920219, "tags": {"amenity": "bar", "contact:facebook": "https://www.facebook.com/p/Aux-Blondinettes-100080450293779/", "name": "Aux Blon'dinettes", "ref:FR:SIRET": "95107349300011"}}, {"type": "node", "id": 6027364730, "lat": 45.4657964, "lon": 4.379655, "tags": {"amenity": "bar", "name": "Le Massenet"}}, {"type": "node", "id": 6076115760, "lat": 45.7154296, "lon": 4.3969, "tags": {"amenity": "bar", "name": "Chez Cat et Dom", "phone": "+33474263558", "shop": "tobacco"}}, {"type": "node", "id": 6220820045, "lat": 45.4377941, "lon": 4.3828133, "tags": {"amenity": "bar", "gambling": "yes", "name:signed": "no", "shop": "newsagent", "tobacco": "yes"}}, {"type": "node", "id": 6344420407, "lat": 45.3396711, "lon": 4.3139412}, {"type": "node", "id": 6344420408, "lat": 45.3396626, "lon": 4.3138644}, {"type": "node", "id": 6381459606, "lat": 45.439692, "lon": 4.3912545, "tags": {"amenity": "bar", "contact:facebook": "https://www.facebook.com/AuBarEtVous", "name": "Au Bar... Et Vous ?", "ref:FR:SIRET": "83503588200017"}}, {"type": "node", "id": 6611024420, "lat": 45.4359739, "lon": 4.390229, "tags": {"amenity": "bar", "name": "Berliner", "ref:FR:SIRET": "85407305300019"}}, {"type": "node", "id": 6822229376, "lat": 45.4356703, "lon": 4.3907562, "tags": {"amenity": "bar", "contact:facebook": "https://www.facebook.com/HopSquareBar/", "contact:instagram": "https://www.instagram.com/le_hop_square/", "name": "Hop Square", "opening_hours": "Mo-Su 17:00-01:30", "outdoor_seating": "yes", "phone": "+33 4 69 68 50 88", "ref:FR:SIRET": "84345655900015"}}, {"type": "node", "id": 7890320220, "lat": 45.4305815, "lon": 4.391268, "tags": {"amenity": "bar", "name": "Le Tilibo", "ref:FR:SIRET": "98233265200014"}}, {"type": "node", "id": 8687849501, "lat": 45.4416729, "lon": 4.4159715, "tags": {"amenity": "bar", "name": "Le Monthieu", "ref:FR:SIRET": "89011238600010", "shop": "newsagent", "tobacco": "yes"}}, {"type": "node", "id": 9847828716, "lat": 45.6377103, "lon": 4.3918092, "tags": {"addr:city": "Chazelles-sur-Lyon", "addr:housenumber": "15", "addr:postcode": "42140", "addr:street": "Place de la Poterne", "amenity": "bar", "name": "Au Rendez-Vous des Sportifs"}}, {"type": "node", "id": 9872591367, "lat": 45.4491803, "lon": 4.4017055, "tags": {"amenity": "bar", "lottery": "yes", "tobacco": "yes"}}, {"type": "node", "id": 10044389609, "lat": 45.5015647, "lon": 4.3164948, "tags": {"amenity": "bar", "name": "Le Feuillantin"}}, {"type": "node", "id": 10044389611, "lat": 45.5008303, "lon": 4.3186532, "tags": {"addr:city": "La Fouillouse", "addr:housenumber": "57", "addr:postcode": "42480", "addr:street": "Rue de la Lib\u00e9ration", "amenity": "bar", "name": "L'Alibi"}}, {"type": "node", "id": 10269976140, "lat": 45.4365236, "lon": 4.3831525, "tags": {"amenity": "bar", "name": "La Com\u00e9die", "ref:FR:SIRET": "35183019500019"}}, {"type": "node", "id": 10273076854, "lat": 45.427734, "lon": 4.3850141, "tags": {"amenity": "bar", "check_date:opening_hours": "2024-11-05", "name": "Caf\u00e9 de Tardy", "opening_hours:signed": "no", "ref:FR:SIRET": "49429875500013"}}, {"type": "node", "id": 10273076861, "lat": 45.427382, "lon": 4.3860139, "tags": {"amenity": "bar", "name": "Le Castellet", "tobacco": "yes"}}, {"type": "node", "id": 10781271462, "lat": 45.4365407, "lon": 4.3908913, "tags": {"amenity": "bar", "name": "Le Wylde", "ref:FR:SIRET": "98356140800011"}}, {"type": "node", "id": 10914021440, "lat": 45.4373952, "lon": 4.3901614, "tags": {"amenity": "bar", "name": "Le Gallia", "opening_hours": "Tu-Fr 07:00-19:00,Sa 07:30-19:00,Mo,Su closed", "outdoor_seating": "yes", "ref:FR:SIRET": "34109412600040", "tobacco": "yes"}}, {"type": "node", "id": 10937303023, "lat": 45.4388282, "lon": 4.3980976, "tags": {"amenity": "bar", "name": "4Gamer", "opening_hours": "Mo-Fr 17:00-24:00; Sa 14:00-01:30", "website": "https://4gamer.fr/"}}, {"type": "node", "id": 10940447866, "lat": 45.4351089, "lon": 4.3903675, "tags": {"amenity": "bar", "contact:email": "unionjack.saintetienne42@gmail.com", "contact:facebook": "https://www.facebook.com/UnionJackstetienne/", "contact:phone": "+33 4 77 01 07 75", "name": "Union Jack", "outdoor_seating": "yes", "ref:FR:SIRET": "83226208300021"}}, {"type": "node", "id": 10940521068, "lat": 45.4346346, "lon": 4.3920444, "tags": {"amenity": "bar", "contact:email": "hotspotcoffe42@gmail.com", "contact:phone": "+33 4 27 77 19 76", "contact:website": "https://hot-spot-coffee-saint-etienne.eatbu.com/", "name": "Hot Spot Coffee", "opening_hours": "Mo-We 08:00-20:00; Th-Sa 08:00-01:00", "outdoor_seating": "yes", "ref:FR:SIRET": "84779694300011"}}, {"type": "node", "id": 10946243248, "lat": 45.4362081, "lon": 4.3844582, "tags": {"amenity": "bar", "name": "Les Acacias", "ref:FR:SIRET": "83912646300018"}}, {"type": "node", "id": 10946353623, "lat": 45.4352448, "lon": 4.3905379, "tags": {"amenity": "bar", "contact:email": "levingre85@gmail.com", "contact:facebook": "https://www.facebook.com/p/Bar-Tabac-Le-Vingr%C3%A9-100063576668570/", "name": "Le Vingr\u00e9", "outdoor_seating": "yes", "ref:FR:SIRET": "48751081000012", "tobacco": "yes"}}, {"type": "node", "id": 11030186188, "lat": 45.4362353, "lon": 4.3901228, "tags": {"amenity": "bar", "name": "Devine Cocktail Club", "ref:FR:SIRET": "91922429500015", "website": "https://devinecocktail.club/"}}, {"type": "node", "id": 11033428056, "lat": 45.4363544, "lon": 4.3906022, "tags": {"amenity": "bar", "name": "L'Antre Deux Verres", "ref:FR:SIRET": "85278947800017"}}, {"type": "node", "id": 11183569433, "lat": 45.3398325, "lon": 4.3117297, "tags": {"amenity": "bar", "name": "PMU"}}, {"type": "node", "id": 11230026903, "lat": 45.4181703, "lon": 4.3897264, "tags": {"amenity": "bar", "name": "Le Moka\u00ef"}}, {"type": "node", "id": 11383723167, "lat": 45.4465109, "lon": 4.400599, "tags": {"amenity": "bar", "name": "Bar PMU Le Jockey", "ref:FR:SIRET": "91498015600014"}}, {"type": "node", "id": 11528354912, "lat": 45.4067555, "lon": 4.3800285, "tags": {"amenity": "bar", "gambling": "yes", "name": "Le New's", "ref:FR:SIRET": "51361229100015", "shop": "newsagent", "tobacco": "yes"}}, {"type": "node", "id": 11540002400, "lat": 45.3987309, "lon": 4.3441323, "tags": {"addr:city": "Le Chambon-Feugerolles", "addr:housenumber": "66", "addr:postcode": "42500", "addr:street": "Rue James Jackson", "amenity": "bar", "name": "Bar-Tabac Au Tournant"}}, {"type": "node", "id": 11584287857, "lat": 45.4341069, "lon": 4.3874736, "tags": {"amenity": "bar", "contact:email": "saint-etienne@biltoki.com", "name": "Caf\u00e9 Biltoki", "outdoor_seating": "yes", "phone": "+33 4 28 04 44 18"}}, {"type": "node", "id": 11637290753, "lat": 45.4272093, "lon": 4.4011744, "tags": {"amenity": "bar", "name": "Demi Muid"}}, {"type": "node", "id": 11776522743, "lat": 45.438321, "lon": 4.3924612, "tags": {"amenity": "bar", "contact:facebook": "https://www.facebook.com/pages/Vol-de-Nuit/185504544824324", "contact:phone": "+33 4 77 33 48 02", "name": "Le Vol de Nuit", "opening_hours": "Tu-Sa 20:00-01:30", "ref:FR:SIRET": "44513941300014"}}, {"type": "node", "id": 11779894623, "lat": 45.4315661, "lon": 4.3975864, "tags": {"alt_name": "Le Saint Michel", "amenity": "bar", "name": "Le St Michel"}}, {"type": "node", "id": 12003574213, "lat": 45.4363958, "lon": 4.3908227, "tags": {"amenity": "bar", "check_date": "2024-06-23", "name": "L'Antidote"}}, {"type": "node", "id": 12057998040, "lat": 45.4367807, "lon": 4.3840175, "tags": {"amenity": "bar", "name": "Le Mineur St\u00e9phanois", "ref:FR:SIRET": "42484428000018"}}, {"type": "node", "id": 12073771715, "lat": 45.4379269, "lon": 4.3891845, "tags": {"amenity": "bar", "brand": "PMU", "brand:wikidata": "Q3086248", "name": "Bistrot la Fontaine", "outdoor_seating": "yes", "ref:FR:SIRET": "92937336300019"}}, {"type": "node", "id": 12176241364, "lat": 45.4102114, "lon": 4.3990907, "tags": {"amenity": "bar", "name": "Le Paris-Nice", "ref:FR:SIRET": "82356870400014", "tobacco": "yes"}}, {"type": "node", "id": 12260769866, "lat": 45.4788998, "lon": 4.443031, "tags": {"amenity": "bar", "drink:beer": "yes", "name": "911", "website": "https://www.911-bar-a-bieres.fr/"}}, {"type": "node", "id": 12289953823, "lat": 45.639105, "lon": 4.392729, "tags": {"amenity": "bar", "name": "Bar l'Escale"}}, {"type": "way", "id": 63302186, "nodes": [784610706, 784317254, 784447884, 783735637, 783736358, 784610706], "tags": {"amenity": "bar", "building": "yes", "source": "cadastre-dgi-fr source : Direction G\u00e9n\u00e9rale des Imp\u00f4ts - Cadastre. Mise \u00e0 jour : 2010"}}, {"type": "way", "id": 165164892, "nodes": [1767258611, 1767258636, 1767258608, 1767258544, 6344420408, 1767258555, 6344420407, 1767258611], "tags": {"addr:housenumber": "6", "addr:postcode": "43240", "addr:street": "Rue du Centre", "amenity": "bar", "building": "yes", "source": "cadastre-dgi-fr source : Direction G\u00e9n\u00e9rale des Imp\u00f4ts - Cadastre. Mise \u00e0 jour : 2012"}}, {"type": "way", "id": 165165197, "nodes": [1767258499, 1767258496, 1767258420, 1767258383, 1767258390, 1767258422, 1767258423, 1767258450, 1767258451, 1767258499], "tags": {"addr:housenumber": "22", "addr:postcode": "43240", "addr:street": "Place Moulin Prugnat", "amenity": "bar", "building": "yes", "source": "cadastre-dgi-fr source : Direction G\u00e9n\u00e9rale des Imp\u00f4ts - Cadastre. Mise \u00e0 jour : 2012"}}]}