{"version": 0.6, "generator": "Overpass API 0.7.62.1 084b4234", "osm3s": {"timestamp_osm_base": "2024-11-21T12:45:11Z", "copyright": "The data included in this document is from www.openstreetmap.org. The data is made available under ODbL."}, "elements": [{"type": "node", "id": 25212541, "lat": 45.7717681, "lon": 4.9796964, "tags": {"addr:housenumber": "403", "addr:street": "Avenue Jean Jaur\u00e8s", "amenity": "fuel", "brand": "TotalEnergies", "compressed_air": "yes", "fuel:diesel": "yes", "fuel:e10": "yes", "fuel:e85": "yes", "fuel:lpg": "yes", "fuel:octane_98": "yes", "hgv:lanes": "yes", "name": "TotalEnergies", "not:brand:wikidata": "Q154037", "opening_hours": "24/7", "ref:FR:prix-carburants": "69150004", "self_service": "yes", "shop": "gas", "source": "Minist\u00e8re de l'Economie, de l'Industrie et du Num\u00e9rique - 08/04/2018", "vending": "fuel", "vending_machine": "fuel"}}, {"type": "node", "id": 1316516003, "lat": 45.7462241, "lon": 4.9347736}, {"type": "node", "id": 1316516418, "lat": 45.746088, "lon": 4.933756}, {"type": "node", "id": 1316516606, "lat": 45.7465001, "lon": 4.9334591}, {"type": "node", "id": 1316516666, "lat": 45.747029, "lon": 4.935768}, {"type": "node", "id": 1316517134, "lat": 45.746041, "lon": 4.93472}, {"type": "node", "id": 1316517391, "lat": 45.746881, "lon": 4.935803}, {"type": "node", "id": 1316517732, "lat": 45.747129, "lon": 4.936076}, {"type": "node", "id": 1316518041, "lat": 45.746993, "lon": 4.936331}, {"type": "node", "id": 1316518476, "lat": 45.746119, "lon": 4.933762}, {"type": "node", "id": 1316518563, "lat": 45.7463712, "lon": 4.9333788}, {"type": "node", "id": 1316518612, "lat": 45.747155, "lon": 4.936291}, {"type": "node", "id": 1316518972, "lat": 45.746205, "lon": 4.933911}, {"type": "node", "id": 1316518983, "lat": 45.7464965, "lon": 4.9337685}, {"type": "node", "id": 1316519046, "lat": 45.747309, "lon": 4.935794}, {"type": "node", "id": 1316519335, "lat": 45.745933, "lon": 4.934687}, {"type": "node", "id": 1316519561, "lat": 45.747276, "lon": 4.935521}, {"type": "node", "id": 1316519638, "lat": 45.746019, "lon": 4.933743}, {"type": "node", "id": 1316519771, "lat": 45.7465295, "lon": 4.933464}, {"type": "node", "id": 1316520532, "lat": 45.74724, "lon": 4.936203}, {"type": "node", "id": 1316520572, "lat": 45.747215, "lon": 4.936026}, {"type": "node", "id": 1316521101, "lat": 45.747237, "lon": 4.936176}, {"type": "node", "id": 1316521325, "lat": 45.747218, "lon": 4.936055}, {"type": "node", "id": 1316521361, "lat": 45.745937, "lon": 4.934482}, {"type": "node", "id": 1316521897, "lat": 45.747007, "lon": 4.935586}, {"type": "node", "id": 1316522211, "lat": 45.745918, "lon": 4.934683}, {"type": "node", "id": 1316522212, "lat": 45.74731, "lon": 4.936143}, {"type": "node", "id": 1316522214, "lat": 45.746008, "lon": 4.933741}, {"type": "node", "id": 1316522371, "lat": 45.747153, "lon": 4.936275}, {"type": "node", "id": 1316522643, "lat": 45.746959, "lon": 4.936045}, {"type": "node", "id": 1316522857, "lat": 45.746149, "lon": 4.934585}, {"type": "node", "id": 1316523208, "lat": 45.7461081, "lon": 4.9338955}, {"type": "node", "id": 1316523973, "lat": 45.747102, "lon": 4.935845}, {"type": "node", "id": 1316524426, "lat": 45.746243, "lon": 4.934603}, {"type": "node", "id": 1316524767, "lat": 45.746911, "lon": 4.936057}, {"type": "node", "id": 1316526275, "lat": 45.747294, "lon": 4.936006}, {"type": "node", "id": 1320333526, "lat": 45.773613, "lon": 4.983467}, {"type": "node", "id": 1320333645, "lat": 45.772913, "lon": 4.980544}, {"type": "node", "id": 1320333911, "lat": 45.773618, "lon": 4.983373}, {"type": "node", "id": 1320333920, "lat": 45.773621, "lon": 4.983611}, {"type": "node", "id": 1320334140, "lat": 45.773737, "lon": 4.983358}, {"type": "node", "id": 1320334146, "lat": 45.7735767, "lon": 4.983368}, {"type": "node", "id": 1320334249, "lat": 45.77346, "lon": 4.980581}, {"type": "node", "id": 1320334274, "lat": 45.773568, "lon": 4.983601}, {"type": "node", "id": 1320334318, "lat": 45.773092, "lon": 4.980461}, {"type": "node", "id": 1320334504, "lat": 45.773633, "lon": 4.983347}, {"type": "node", "id": 1320334750, "lat": 45.7737736, "lon": 4.9806601}, {"type": "node", "id": 1320334863, "lat": 45.7736154, "lon": 4.9809562}, {"type": "node", "id": 1320334896, "lat": 45.773679, "lon": 4.983352}, {"type": "node", "id": 1320335002, "lat": 45.773744, "lon": 4.983489}, {"type": "node", "id": 1320335401, "lat": 45.7737146, "lon": 4.9805132}, {"type": "node", "id": 1320335429, "lat": 45.773621, "lon": 4.983606}, {"type": "node", "id": 1320335536, "lat": 45.773759, "lon": 4.980872}, {"type": "node", "id": 1320335631, "lat": 45.77373, "lon": 4.983488}, {"type": "node", "id": 1320335684, "lat": 45.773623, "lon": 4.980504}, {"type": "node", "id": 1320335744, "lat": 45.77367, "lon": 4.980402}, {"type": "node", "id": 1320335859, "lat": 45.772924, "lon": 4.979719}, {"type": "node", "id": 1320335923, "lat": 45.773627, "lon": 4.983469}, {"type": "node", "id": 1320335966, "lat": 45.772745, "lon": 4.979802}, {"type": "node", "id": 1320336383, "lat": 45.773707, "lon": 4.980895}, {"type": "node", "id": 1320337387, "lat": 45.773608, "lon": 4.980433}, {"type": "node", "id": 1320337402, "lat": 45.773782, "lon": 4.980681}, {"type": "node", "id": 1320337458, "lat": 45.773738, "lon": 4.983623}, {"type": "node", "id": 1320699458, "lat": 45.771493, "lon": 4.98116}, {"type": "node", "id": 1831947739, "lat": 45.7676716, "lon": 4.936968, "tags": {"brand": "Midas", "brand:wikidata": "Q3312613", "brand:wikipedia": "en:Midas (automotive service)", "contact:facebook": "https://www.facebook.com/MidasFr/", "name": "Midas Lyon D\u00e9cines", "phone": "+33472020202", "shop": "car_repair", "website": "https://www.midas.fr/stores/auvergne-rhone-alpes/rhone/lyon/lyon-decines_1181"}}, {"type": "node", "id": 2809654495, "lat": 45.7464839, "lon": 4.9334, "tags": {"addr:housenumber": "219", "source": "Grand Lyon - 10/2011"}}, {"type": "node", "id": 2809654498, "lat": 45.7457405, "lon": 4.9334169, "tags": {"addr:housenumber": "227", "source": "Grand Lyon - 10/2011"}}, {"type": "node", "id": 2809760247, "lat": 45.7631813, "lon": 4.9625945, "tags": {"addr:city": "D\u00e9cines", "addr:housenumber": "2", "addr:postcode": "69150", "addr:street": "Avenue Louise Michel", "name": "Boulangerie Goupil", "shop": "bakery", "source": "Grand Lyon - 10/2011"}}, {"type": "node", "id": 2809829066, "lat": 45.7710158, "lon": 4.9579322, "tags": {"addr:housenumber": "213", "brand": "Coiff&Co", "brand:wikidata": "Q115013410", "name": "Coiff&Co", "shop": "hairdresser", "source": "Grand Lyon - 10/2011"}}, {"type": "node", "id": 2809851247, "lat": 45.7712489, "lon": 4.9580236, "tags": {"addr:housenumber": "3", "check_date": "2024-06-15", "name": "Terre de running", "shop": "sports", "source": "Grand Lyon - 10/2011"}}, {"type": "node", "id": 2922013190, "lat": 45.7721464, "lon": 4.9744743, "tags": {"name": "Boulangerie Patisserie", "opening_hours": "Mo-Sa 06:00-13:30,15:00-20:00; Sa 06:00-13:30", "phone": "+33 4 78 49 27 69", "shop": "bakery"}}, {"type": "node", "id": 2922046932, "lat": 45.7721247, "lon": 4.9747561, "tags": {"name": "Coiffeur de l'Esplanade", "opening_hours": "Tu-Sa 09:00-19:00", "shop": "hairdresser"}}, {"type": "node", "id": 3590214829, "lat": 45.7635458, "lon": 4.9819792}, {"type": "node", "id": 3590214830, "lat": 45.7635516, "lon": 4.9821996}, {"type": "node", "id": 3590214836, "lat": 45.7637026, "lon": 4.9820203}, {"type": "node", "id": 3590214837, "lat": 45.7637093, "lon": 4.9822417}, {"type": "node", "id": 3590216605, "lat": 45.766932, "lon": 4.981461}, {"type": "node", "id": 3590216606, "lat": 45.76697, "lon": 4.981703}, {"type": "node", "id": 3590216607, "lat": 45.766966, "lon": 4.982373}, {"type": "node", "id": 3590216608, "lat": 45.766981, "lon": 4.981866}, {"type": "node", "id": 3590712729, "lat": 45.7666813, "lon": 4.9817157}, {"type": "node", "id": 3590712730, "lat": 45.7666995, "lon": 4.9821927}, {"type": "node", "id": 3590712731, "lat": 45.7666976, "lon": 4.9819226}, {"type": "node", "id": 3590712732, "lat": 45.7669537, "lon": 4.982438}, {"type": "node", "id": 3623600161, "lat": 45.7666554, "lon": 4.9824446}, {"type": "node", "id": 3623600164, "lat": 45.7667954, "lon": 4.9814671}, {"type": "node", "id": 3623600165, "lat": 45.7668141, "lon": 4.9824434}, {"type": "node", "id": 3653582016, "lat": 45.7666471, "lon": 4.9815094}, {"type": "node", "id": 3659522612, "lat": 45.7712673, "lon": 4.9818561}, {"type": "node", "id": 3659522624, "lat": 45.7713685, "lon": 4.9819167}, {"type": "node", "id": 3659524553, "lat": 45.7721205, "lon": 4.9819253}, {"type": "node", "id": 3713882072, "lat": 45.762623, "lon": 4.9385845, "tags": {"addr:city": "D\u00e9cines-Charpieu", "addr:housenumber": "12", "addr:postcode": "69150", "addr:street": "Rue \u00c9mile Zola", "name": "Bric \u00e0 Brac D\u00e9cines-Charpieu", "opening_hours": "lundi, mercredi et jeudi de 14h30 \u00e0 17h30 et le premier samedi du mois de 9h30 \u00e0 12h30. V\u00e9rifiez les fermetures exeptionnelles sur www.fndsa.org", "operator": "Foyer Notre-Dame des Sans-Abri", "payment:cash": "yes", "payment:credit_cards": "yes", "phone": "+33 9 70 71 11 95", "second_hand": "only", "shop": "charity", "short_name": "Bric \u00e0 Brac", "source": "knowledge", "website": "https://www.fndsa.org/bric-a-brac/bric-a-brac-decines.html"}}, {"type": "node", "id": 3715687596, "lat": 45.7620818, "lon": 4.9373873, "tags": {"name": "D\u00e9pot de Dons Foyer Notre-Dame", "official_name": "D\u00e9pot de dons Foyer Notre Dame Des Sans Abri D\u00e9cines", "opening_hours": "Mo, We, Th 14:30-17:30; Sa[1] 09:30-12:30", "shop": "charity", "short_name": "D\u00e9pot de dons", "website": "https://www.fndsa.org/"}}, {"type": "node", "id": 3986192494, "lat": 45.7721204, "lon": 4.9811542}, {"type": "node", "id": 3986192495, "lat": 45.7713882, "lon": 4.9811941}, {"type": "node", "id": 3986192496, "lat": 45.7712995, "lon": 4.9819124}, {"type": "node", "id": 4006691324, "lat": 45.766933, "lon": 4.981524}, {"type": "node", "id": 4006691325, "lat": 45.766947, "lon": 4.981524}, {"type": "node", "id": 4006691326, "lat": 45.766952, "lon": 4.982374}, {"type": "node", "id": 4006691327, "lat": 45.766984, "lon": 4.982029}, {"type": "node", "id": 4405828228, "lat": 45.7706337, "lon": 4.9564668, "tags": {"branch": "D\u00e9cines Charpieu", "brand": "La Vie Claire", "brand:wikidata": "Q3213589", "brand:wikipedia": "fr:La Vie claire", "bulk_purchase": "yes", "contact:facebook": "https://www.facebook.com/Lavieclaire", "name": "La Vie Claire", "opening_hours": "Mo-Sa 09:00-19:30; Su 09:00-13:00", "organic": "only", "phone": "+33 4 72 02 03 77", "shop": "convenience", "website": "https://www.lavieclaire.com/magasin-bio/decines-charpieu.html"}}, {"type": "node", "id": 4973473273, "lat": 45.7463149, "lon": 4.9339456}, {"type": "node", "id": 4973473275, "lat": 45.746336, "lon": 4.9337331}, {"type": "node", "id": 5052058333, "lat": 45.7740865, "lon": 4.9830434, "tags": {"amenity": "studio", "name": "Crimesound Studio", "phone": "+33 6 12 46 32 36", "shop": "music", "studio": "audio"}}, {"type": "node", "id": 5287328071, "lat": 45.7638741, "lon": 4.9430929, "tags": {"addr:housenumber": "37", "addr:street": "Rue \u00c9mile Zola", "brand": "Toolstation", "brand:wikidata": "Q7824103", "brand:wikipedia": "en:Toolstation", "name": "Toolstation", "opening_hours": "Mo-Fr 07:00-18:00;Sa 08:00-17:00", "phone": "+33 4 69854807", "shop": "doityourself", "wheelchair": "yes"}}, {"type": "node", "id": 5416235388, "lat": 45.7445329, "lon": 4.9330452, "tags": {"contact:city": "D\u00e9cines-Charpieu", "contact:housenumber": "2", "contact:postcode": "69150", "contact:street": "Rue \u00c9lis\u00e9e Reclus", "name": "Akozen Beaut\u00e9", "shop": "beauty"}}, {"type": "node", "id": 5669741071, "lat": 45.7724189, "lon": 4.9790745}, {"type": "node", "id": 5669741072, "lat": 45.7718839, "lon": 4.9789725}, {"type": "node", "id": 5669741073, "lat": 45.7719269, "lon": 4.9784522}, {"type": "node", "id": 5669741074, "lat": 45.7721589, "lon": 4.9785005}, {"type": "node", "id": 5669741075, "lat": 45.772172, "lon": 4.9784441}, {"type": "node", "id": 5669741076, "lat": 45.7722618, "lon": 4.9784495}, {"type": "node", "id": 5669741077, "lat": 45.7722618, "lon": 4.9785192}, {"type": "node", "id": 5669741078, "lat": 45.7723759, "lon": 4.9785434}, {"type": "node", "id": 5669741079, "lat": 45.7723591, "lon": 4.9787901}, {"type": "node", "id": 5669741080, "lat": 45.7724395, "lon": 4.978817}, {"type": "node", "id": 6110692586, "lat": 45.7737754, "lon": 4.9807361}, {"type": "node", "id": 6110692622, "lat": 45.7736125, "lon": 4.9809431}, {"type": "node", "id": 6110692625, "lat": 45.7735426, "lon": 4.9809907}, {"type": "node", "id": 6110692626, "lat": 45.7734657, "lon": 4.9806533}, {"type": "node", "id": 6110692627, "lat": 45.7734753, "lon": 4.9806484}, {"type": "node", "id": 6110714701, "lat": 45.7737087, "lon": 4.983005, "tags": {"shop": "bakery"}}, {"type": "node", "id": 6110714702, "lat": 45.7737449, "lon": 4.9831656, "tags": {"name": "Rapid'Flore", "shop": "florist"}}, {"type": "node", "id": 6110714707, "lat": 45.7736317, "lon": 4.9833739}, {"type": "node", "id": 6261238394, "lat": 45.7702361, "lon": 4.9557267, "tags": {"contact:email": "contact.rivierafragrance@gmail.com", "contact:facebook": "https://www.facebook.com/share/p/n15XWcVS7Ts7Jsqx/", "description": "Bar \u00e0 parfums. Ateliers le dimanche sur RDV.", "name": "Riviera Fragrance", "opening_hours": "Tu-Sa 10:00-13:00, 14:00-19:00", "phone": "+33 7 62 49 29 27", "shop": "perfumery", "website": "https://rivierafragrance.com/"}}, {"type": "node", "id": 6381934376, "lat": 45.7710623, "lon": 4.957679, "tags": {"brand": "Intermarch\u00e9 Super", "brand:wikidata": "Q3153200", "brand:wikipedia": "fr:Intermarch\u00e9", "name": "Intermarch\u00e9 Super", "shop": "supermarket"}}, {"type": "node", "id": 6539317842, "lat": 45.7722134, "lon": 4.9778151, "tags": {"addr:city": "D\u00e9cines-Charpieu", "addr:housenumber": "4", "addr:postcode": "69150", "addr:street": "Route de Jonage", "name": "M\u00e9dor et Compagnie", "note": "alimentation pour animaux de compagnie", "opening_hours:covid19": "Mo-Sa 09:30-12:00,14:00-18:00", "shop": "pet"}}, {"type": "node", "id": 7528866411, "lat": 45.7630774, "lon": 4.9625481, "tags": {"addr:city": "D\u00e9cines-Charpieu", "addr:housenumber": "2", "addr:postcode": "69150", "addr:street": "Avenue Louise Michel", "name": "Parizot Gilles Coiffure", "opening_hours": "Tu-Th 08:30-12:00,14:00-19:00; Fr 08:00-19:00; Sa 07:30-16:00", "shop": "hairdresser"}}, {"type": "node", "id": 7528952643, "lat": 45.7635444, "lon": 4.9620804, "tags": {"name": "Power game", "opening_hours": "Mo-Sa 10:00-12:00,14:00-19:00", "shop": "video_games"}}, {"type": "node", "id": 7528952644, "lat": 45.7635295, "lon": 4.9621555, "tags": {"name": "Alex Flore", "shop": "florist"}}, {"type": "node", "id": 7528952646, "lat": 45.7634822, "lon": 4.9623373, "tags": {"name": "Boucherie Chez Antoine", "shop": "butcher"}}, {"type": "node", "id": 7529356710, "lat": 45.7710573, "lon": 4.9595645, "tags": {"access:covid19": "yes", "check_date": "2024-06-15", "name": "Boulangerie Monnet", "opening_hours": "Mo-Sa 06:30-19:00; Su 06:30-13:00", "shop": "bakery"}}, {"type": "node", "id": 7529356731, "lat": 45.7712032, "lon": 4.9590508, "tags": {"brand": "Atol", "brand:wikidata": "Q2869542", "brand:wikipedia": "fr:Atol (opticien)", "check_date": "2024-06-15", "name": "Atol", "shop": "optician"}}, {"type": "node", "id": 7529356733, "lat": 45.7710671, "lon": 4.9581141, "tags": {"brand": "Optic 2000", "brand:wikidata": "Q3354445", "brand:wikipedia": "fr:Optic 2000", "check_date": "2024-06-15", "name": "Optic 2000", "shop": "optician"}}, {"type": "node", "id": 7529469652, "lat": 45.772059, "lon": 4.9577395, "tags": {"check_date": "2023-10-21", "name": "Canal pneus services", "shop": "tyres"}}, {"type": "node", "id": 7529469656, "lat": 45.7634735, "lon": 4.9623994, "tags": {"name": "Tabac presse Bonneveau", "newsagent": "yes", "shop": "tobacco"}}, {"type": "node", "id": 7529469657, "lat": 45.763499, "lon": 4.9622492, "tags": {"name": "Caves de Bonneveau", "opening_hours": "Tu-Sa 09:00-12:30,15:00-19:30; Su 09:00-12:30", "shop": "wine"}}, {"type": "node", "id": 7529957674, "lat": 45.7715337, "lon": 4.9596535, "tags": {"brand": "ALDI", "brand:wikidata": "Q41171373", "fixme": "V\u00e9rifier horaires suite changement d'enseigne.", "name": "Aldi", "opening_hours": "Mo-Sa 08:00-19:30; Su 08:00-12:30", "phone": "+33 1 81 09 78 25", "shop": "supermarket"}}, {"type": "node", "id": 7529957676, "lat": 45.763414, "lon": 4.9624689, "tags": {"access:covid19": "yes", "brand": "Spar", "brand:wikidata": "Q610492", "brand:wikipedia": "en:Spar (retailer)", "name": "Spar", "opening_hours:covid19": "Mo-Sa 08:00-12:00", "payment:cash": "yes", "payment:visa": "yes", "shop": "supermarket"}}, {"type": "node", "id": 7839858026, "lat": 45.7703779, "lon": 4.9567017, "tags": {"addr:housenumber": "214", "addr:street": "Avenue Jean Jaur\u00e8s", "name": "Golden Coiffure", "opening_hours": "Tu-Th 09:00-18:00; Sa 08:30-16:00; Fr 09:00-19:30", "phone": "+33 7 68 62 58 98", "shop": "hairdresser"}}, {"type": "node", "id": 7919499550, "lat": 45.7666504, "lon": 4.9815295}, {"type": "node", "id": 7919562146, "lat": 45.7669325, "lon": 4.9814925, "tags": {"highway": "elevator"}}, {"type": "node", "id": 8583909245, "lat": 45.7725698, "lon": 4.962516, "tags": {"description": "Aussi presse, jeux, \u00e9picerie.", "name": "Presse du Sablon", "shop": "stationery"}}, {"type": "node", "id": 9164278406, "lat": 45.7477307, "lon": 4.9367486, "tags": {"addr:housenumber": "81-83", "name": "Universal Archery", "opening_hours": "Mo-Fr 09:30-12:00,14:00-19:00; Sa 09:30-18:00", "opening_hours:url": "https://universal-archery.com/fr/content/7-magasin-acces", "payment:cash": "yes", "payment:debit_cards": "yes", "phone": "+33 4 82 53 21 74", "shop": "hunting", "website": "https://universal-archery.com/fr/"}}, {"type": "node", "id": 9493692074, "lat": 45.767451, "lon": 4.970976, "tags": {"email": "gsd.lyon@gmail.com", "name": "Garage Solidaire D\u00e9cines", "operator": "Association des M\u00e9caniques Solidaires Lyon-D\u00e9cines", "phone": "+33 9 52 21 21 19", "service:car:diy": "yes", "shop": "car_repair"}}, {"type": "node", "id": 9861729594, "lat": 45.7718832, "lon": 4.9795964, "tags": {"name": "Antargaz", "shop": "gas"}}, {"type": "node", "id": 9861766737, "lat": 45.7718375, "lon": 4.9795435, "tags": {"name": "XIMITI", "shop": "convenience", "website": "https://ximiti.eu/"}}, {"type": "node", "id": 9960042184, "lat": 45.763519, "lon": 4.9621445, "tags": {"email": "cave.bonneveau@wanadoo.fr", "instagram": "cave_bonneveau", "name": "Les Caves de Bonneveau", "phone": "+33 4 78 49 82 17", "shop": "alcohol"}}, {"type": "node", "id": 9999524992, "lat": 45.7770473, "lon": 4.9499519, "tags": {"addr:housenumber": "45", "addr:street": "Chemin de la Rize", "name": "Garage Vartan Instalarme", "phone": "+33 6 09 21 13 54", "shop": "car_repair"}}, {"type": "node", "id": 10001778647, "lat": 45.7770788, "lon": 4.9497359}, {"type": "node", "id": 10001778648, "lat": 45.7769971, "lon": 4.9497433}, {"type": "node", "id": 10001778649, "lat": 45.776997, "lon": 4.9499793}, {"type": "node", "id": 10001778650, "lat": 45.7770923, "lon": 4.9499647}, {"type": "node", "id": 10616600107, "lat": 45.7718306, "lon": 4.9691965, "tags": {"contact:city": "D\u00e9cines-Charpieu", "contact:housenumber": "317", "contact:postcode": "69150", "contact:street": "Avenue Jean Jaur\u00e8s", "male": "yes", "name": "VOGUE", "opening_hours": "Mo-Sa 09:00-19:30", "payment:cards": "yes", "payment:contactless": "yes", "payment:telephone_cards": "yes", "phone": "+33 4 72 02 24 92", "shop": "hairdresser"}}, {"type": "node", "id": 10616600109, "lat": 45.7707419, "lon": 4.9596824, "tags": {"contact:city": "D\u00e9cines-Charpieu", "contact:housenumber": "232", "contact:postcode": "69150", "contact:street": "Avenue Jean Jaur\u00e8s", "name": "Kaya", "opening_hours": "Mo-Fr 06:30-19:30; Sa 07:30-19:30; Su 07:30-12:30", "payment:cards": "yes", "payment:credit_cards": "yes", "payment:mastercard": "yes", "phone": "+33 4 72 05 62 05", "shop": "tobacco", "source": "Grand Lyon - 10/2011", "wheelchair": "yes"}}, {"type": "node", "id": 10651426457, "lat": 45.769044, "lon": 4.938433, "tags": {"addr:city": "Paris", "addr:housenumber": "10 rue des tournesol", "shop": "craft"}}, {"type": "node", "id": 10797343371, "lat": 45.7714703, "lon": 4.9824227, "tags": {"name": "Thiriet", "shop": "frozen_food"}}, {"type": "node", "id": 10797365958, "lat": 45.7715248, "lon": 4.9814521, "tags": {"name": "Cave de Bel Air", "shop": "alcohol"}}, {"type": "node", "id": 10797368903, "lat": 45.771522, "lon": 4.9815769, "tags": {"name": "Le 505", "shop": "bakery"}}, {"type": "node", "id": 10820048600, "lat": 45.7692471, "lon": 4.9566237, "tags": {"contact:email": "contact@gastrovino.fr", "description": "Vins, Champagnes, bi\u00e8res et spiritueux.", "name": "Gastrovino", "phone": "+33 9 86 17 58 29", "shop": "alcohol"}}, {"type": "node", "id": 10883928205, "lat": 45.7535792, "lon": 4.9352465, "tags": {"contact:city": "D\u00e9cines-Charpieu", "contact:housenumber": "143", "contact:phone": "+33 6 51 50 93 93", "contact:postcode": "69150", "contact:street": "Avenue Franklin Roosevelt", "name": "Concept Auto Lyon", "ref:FR:SIRET": "79134552300066", "shop": "car"}}, {"type": "node", "id": 10924043714, "lat": 45.7632186, "lon": 4.937393, "tags": {"addr:city": "D\u00e9cines-Charpieu", "addr:postcode": "69150", "addr:street": "Rue \u00c9mile Zola", "name": "D boulangerie", "opening_hours": "Mo-Sa 08:00-18:00", "payment:cards": "yes", "payment:cash": "yes", "payment:coins": "yes", "payment:contactless": "yes", "payment:credit_cards": "yes", "payment:telephone_cards": "yes", "shop": "bakery"}}, {"type": "node", "id": 10951976869, "lat": 45.7692259, "lon": 4.9571532, "tags": {"contact:email": "librairielinsomnie@etik.com", "name": "L'Insomnie", "opening_hours": "Tu-Sa 10:00-19:00", "phone": "+33 9 88 42 03 88", "shop": "books", "website": "https://www.placedeslibraires.fr/magasins/decines-charpieu/L-insomnie-3442/"}}, {"type": "node", "id": 11007919673, "lat": 45.7692877, "lon": 4.9727518, "tags": {"name": "La Fabrik' \u00e0 V\u00e9los", "service:bicycle:ebike": "yes", "service:bicycle:parts": "yes", "service:bicycle:pump": "yes", "service:bicycle:repair": "yes", "service:bicycle:second_hand": "yes", "service:bicycle:tools": "yes", "shop": "bicycle"}}, {"type": "node", "id": 11081163709, "lat": 45.770057, "lon": 4.9594522, "tags": {"addr:city": "D\u00e9cines-Charpieu", "addr:housenumber": "13", "addr:postcode": "69150", "addr:street": "Rue de la R\u00e9publique", "female": "yes", "name": "Vital coiffure", "shop": "hairdresser", "website": "https://www.planity.com/vital-coiffure-69150-decines-charpieu-4yq"}}, {"type": "node", "id": 11094182232, "lat": 45.7742605, "lon": 4.9536794, "tags": {"addr:city": "D\u00e9cines-Charpieu", "addr:housenumber": "49", "addr:postcode": "69150", "addr:street": "Rue G\u00e9o Chavez", "clothes": "denim", "name": "Le Gaulois Jeans", "opening_hours": "Mo-Th 08:30-17:00; Fr 08:30-11:30", "operator": "PHOENIX JEAN'S", "phone": "+33 9 73 55 40 98", "ref:FR:SIRET": "85272435000016", "shop": "clothes"}}, {"type": "node", "id": 11336840719, "lat": 45.7467733, "lon": 4.9334848}, {"type": "node", "id": 11336840720, "lat": 45.7467499, "lon": 4.9338246}, {"type": "node", "id": 11336840721, "lat": 45.7466187, "lon": 4.9338018}, {"type": "node", "id": 11336840722, "lat": 45.7466412, "lon": 4.9334875}, {"type": "node", "id": 11336840723, "lat": 45.7466618, "lon": 4.933466}, {"type": "node", "id": 11336840725, "lat": 45.7465027, "lon": 4.9334252}, {"type": "node", "id": 11336840732, "lat": 45.7464771, "lon": 4.9339732}, {"type": "node", "id": 11336840738, "lat": 45.7457896, "lon": 4.933027}, {"type": "node", "id": 11336840739, "lat": 45.7457507, "lon": 4.9334057}, {"type": "node", "id": 11336840740, "lat": 45.7455603, "lon": 4.9334099}, {"type": "node", "id": 11336840741, "lat": 45.7455496, "lon": 4.9334336}, {"type": "node", "id": 11336840742, "lat": 45.7454991, "lon": 4.933389}, {"type": "node", "id": 11336840743, "lat": 45.7454787, "lon": 4.9334294}, {"type": "node", "id": 11336840744, "lat": 45.745261, "lon": 4.933247}, {"type": "node", "id": 11336840745, "lat": 45.745295, "lon": 4.9329128}, {"type": "node", "id": 11336840746, "lat": 45.7457119, "lon": 4.9334486}, {"type": "node", "id": 11377868977, "lat": 45.7630423, "lon": 4.9781874, "tags": {"name": "Espace bien-\u00eatre", "shop": "massage"}}, {"type": "node", "id": 11409298469, "lat": 45.7700348, "lon": 4.9548792, "tags": {"contact:city": "D\u00e9cines-Charpieu", "contact:housenumber": "200", "contact:phone": "+33 4 78 14 81 22", "contact:postcode": "69150", "contact:street": "Avenue Jean Jaur\u00e8s", "name": "Ewigo ", "shop": "car", "website": "https://www.ewigodecines.com/"}}, {"type": "node", "id": 11491472477, "lat": 45.7652965, "lon": 4.9443103, "tags": {"addr:housenumber": "31", "addr:street": "Rue Wilson", "name": "YESSS electrique", "opening_hours": "Mo-Th 07:30-12:00, 13:30-18:00; Fr 07:30-12:00, 13:30-17:00", "phone": "04 72 05 64 70", "shop": "electrical", "website": "https://www.yesss-fr.com/agence/yesss-decines"}}, {"type": "node", "id": 11518470887, "lat": 45.7783453, "lon": 4.948818, "tags": {"email": "contact@jardinsdevartan.com", "name": "Les Jardins de Vartan", "organic": "only", "phone": "+33 6 73 74 41 85", "shop": "farm", "website": "https://jardinsdevartan.com"}}, {"type": "node", "id": 11606315592, "lat": 45.7716356, "lon": 4.9668378, "tags": {"name": "Carr\u00e9ment Fleurs", "phone": "+33 4 78 94 66 51", "shop": "florist", "website": "https://carrementfleurs.com/"}}, {"type": "node", "id": 11793880655, "lat": 45.7635035, "lon": 4.9621827, "tags": {"description": "Aussi salon de th\u00e9", "fixme": "position exacte \u00e0 pr\u00e9ciser", "name": "Sensations", "opening_hours": "Mo-Sa 06:00-19:30; Sa 06:00-13:30", "outdoor_seating": "yes", "shop": "bakery"}}, {"type": "node", "id": 11793889972, "lat": 45.7692633, "lon": 4.9563139, "tags": {"name": "Sensations", "opening_hours": "Mo-Sa 06:30-19:00; Su 06:30-13:00", "shop": "bakery"}}, {"type": "node", "id": 11911689063, "lat": 45.7725643, "lon": 4.9625259, "tags": {"name": "Maison Edgar", "opening_hours": "Mo-Su 07:00-19:00", "phone": "+3 6 51 95 19 59", "shop": "bakery"}}, {"type": "node", "id": 11929365885, "lat": 45.7686129, "lon": 4.9808057, "tags": {"name": "Billetterie LDLC Arena", "shop": "ticket"}}, {"type": "node", "id": 11977568469, "lat": 45.7515873, "lon": 4.9347778, "tags": {"description": "Showroom de v\u00e9hicules haut de gamme", "name": "Bimmer Car Project", "shop": "car"}}, {"type": "node", "id": 12034113311, "lat": 45.7501401, "lon": 4.9343459}, {"type": "node", "id": 12034113312, "lat": 45.749941, "lon": 4.9343679}, {"type": "node", "id": 12034113313, "lat": 45.7499227, "lon": 4.9343969}, {"type": "node", "id": 12034113314, "lat": 45.7499468, "lon": 4.9350215}, {"type": "node", "id": 12034113315, "lat": 45.7499785, "lon": 4.9350463}, {"type": "node", "id": 12034113316, "lat": 45.7501998, "lon": 4.9350201}, {"type": "node", "id": 12034113317, "lat": 45.750221, "lon": 4.9349925}, {"type": "node", "id": 12034113318, "lat": 45.7501921, "lon": 4.9345072}, {"type": "node", "id": 12034113319, "lat": 45.7501661, "lon": 4.93451}, {"type": "node", "id": 12034113326, "lat": 45.750378, "lon": 4.934482, "tags": {"addr:city": "D\u00e9cines-Charpieu", "addr:housenumber": "185", "addr:postcode": "69150", "addr:street": "Avenue Franklin Roosevelt", "name": "Gl\u00e9nan Concept Cars", "shop": "car"}}, {"type": "way", "id": 116871198, "nodes": [1316516003, 1316524426, 1316522857, 1316518972, 1316523208, 1316518476, 1316516418, 1316519638, 1316522214, 1316521361, 1316522211, 1316519335, 1316517134, 1316516003], "tags": {"branch": "D\u00e9cines", "brand": "Grand Frais", "brand:wikidata": "Q3114675", "brand:wikipedia": "fr:Grand Frais", "building": "retail", "name": "Grand Frais", "shop": "supermarket", "supermarket": "yes", "supermarket:FR": "supermarch\u00e9", "website": "https://www.grandfrais.com/magasins/decines"}}, {"type": "way", "id": 116871402, "nodes": [4973473275, 1316518983, 1316519771, 1316516606, 11336840725, 2809654495, 1316518563, 4973473275], "tags": {"brand": "Optical Center", "brand:wikidata": "Q3354448", "brand:wikipedia": "fr:Optical Center", "building": "retail", "building:levels": "2", "name": "Optical Center D\u00e9cines-Charpieu", "opening_hours": "Mo-Sa 09:00-19:30", "phone": "+33 4 72 05 84 63", "shop": "optician", "website": "https://opticien.optical-center.fr/7795-optical-center-decines-charpieu"}}, {"type": "way", "id": 116871476, "nodes": [1316519561, 1316521897, 1316516666, 1316517391, 1316524767, 1316522643, 1316518041, 1316518612, 1316522371, 1316520532, 1316521101, 1316522212, 1316526275, 1316520572, 1316521325, 1316517732, 1316523973, 1316519046, 1316519561], "tags": {"brand": "Peugeot", "brand:wikidata": "Q6742", "building": "yes", "name": "Peugeot", "phone": "+33 4 72 37 10 26", "shop": "car", "source": "cadastre-dgi-fr source : Direction G\u00e9n\u00e9rale des Imp\u00f4ts - Cadastre. Mise \u00e0 jour : 2011", "website": "https://concessions.peugeot.fr/decines/"}}, {"type": "way", "id": 117220947, "nodes": [1320334896, 1320334504, 6110714707, 1320335923, 1320333526, 1320333911, 1320334146, 1320334274, 1320335429, 1320333920, 1320337458, 1320335002, 1320335631, 1320334140, 1320334896], "tags": {"branch": "Concessionnaire Ford Martinez Automobiles", "brand": "Ford", "brand:wikidata": "Q44294", "building": "yes", "name": "Ford", "shop": "car", "source": "cadastre-dgi-fr source : Direction G\u00e9n\u00e9rale des Imp\u00f4ts - Cadastre. Mise \u00e0 jour : 2011"}}, {"type": "way", "id": 117220970, "nodes": [1320334863, 6110692622, 1320336383, 1320335536, 6110692586, 1320337402, 1320334750, 1320335401, 1320335744, 1320337387, 1320335684, 1320334249, 6110692627, 6110692626, 6110692625, 1320334863], "tags": {"addr:city": "D\u00e9cines-Charpieu", "addr:housenumber": "33", "addr:postcode": "69150", "addr:street": "Route de Jonage", "building": "yes", "name": "Aramisauto Lyon", "operator": "Aramis auto", "shop": "car", "source": "cadastre-dgi-fr source : Direction G\u00e9n\u00e9rale des Imp\u00f4ts - Cadastre. Mise \u00e0 jour : 2011"}}, {"type": "way", "id": 117221276, "nodes": [1320335966, 1320333645, 1320334318, 1320335859, 1320335966], "tags": {"brand": "Centrakor", "brand:wikidata": "Q64079345", "brand:wikipedia": "fr:Centrakor", "building": "retail", "name": "Centrakor", "ref:FR:SIRET": "38079451100788", "shop": "interior_decoration", "source": "cadastre-dgi-fr source : Direction G\u00e9n\u00e9rale des Imp\u00f4ts - Cadastre. Mise \u00e0 jour : 2011"}}, {"type": "way", "id": 353242010, "nodes": [3590214830, 3590214829, 3590214836, 3590214837, 3590214830], "tags": {"building:levels": "3", "building:material": "metal", "building:min_level": "2", "building:part": "yes", "indoor": "room", "layer": "2", "level": "2", "name": "OL Store", "roof:material": "metal", "shop": "sports"}}, {"type": "way", "id": 356957380, "nodes": [3590712732, 4006691326, 3590216607, 4006691327, 3590216608, 3590216606, 4006691325, 4006691324, 7919562146, 3590216605, 3623600164, 3653582016, 7919499550, 3590712729, 3590712731, 3590712730, 3623600161, 3623600165, 3590712732], "tags": {"addr:city": "D\u00e9cines-Charpieu", "addr:housenumber": "10", "addr:postcode": "69150", "addr:street": "Avenue Simone Veil", "name": "OL Store", "shop": "sports", "sport": "soccer", "wheelchair": "yes"}}, {"type": "way", "id": 395804418, "nodes": [3986192494, 1320699458, 3986192495, 3659522612, 3986192496, 3659522624, 3659524553, 3986192494], "tags": {"name": "Centre commercial Balzac", "shop": "mall"}}, {"type": "way", "id": 594636902, "nodes": [5669741071, 5669741072, 5669741073, 5669741074, 5669741075, 5669741076, 5669741077, 5669741078, 5669741079, 5669741080, 5669741071], "tags": {"brand": "L'Entrep\u00f4t du Bricolage", "building": "retail", "name": "L'Entrep\u00f4t du Bricolage", "opening_hours:covid19": "off", "shop": "doityourself"}}, {"type": "way", "id": 1092080578, "nodes": [10001778647, 10001778648, 10001778649, 10001778650, 10001778647], "tags": {"building": "yes", "shop": "car_repair"}}, {"type": "way", "id": 1222363468, "nodes": [11336840719, 11336840720, 11336840721, 11336840722, 11336840723, 11336840719], "tags": {"building": "commercial", "building:levels": "2", "name": "Tollens", "shop": "paint"}}, {"type": "way", "id": 1222363469, "nodes": [1316518983, 11336840732, 4973473273, 4973473275, 1316518983], "tags": {"brand": "Marie Blach\u00e8re", "brand:wikidata": "Q62082410", "building": "yes", "building:levels": "1", "name": "Marie Blach\u00e8re", "shop": "bakery"}}, {"type": "way", "id": 1222363473, "nodes": [11336840738, 11336840739, 2809654498, 11336840746, 11336840740, 11336840741, 11336840742, 11336840743, 11336840744, 11336840745, 11336840738], "tags": {"brand": "Lidl", "brand:wikidata": "Q151954", "building": "yes", "name": "Lidl", "shop": "supermarket"}}, {"type": "way", "id": 1299122171, "nodes": [12034113311, 12034113312, 12034113313, 12034113314, 12034113315, 12034113316, 12034113317, 12034113318, 12034113319, 12034113311], "tags": {"building": "yes", "name": "Locabox", "operator": "Locabox", "shop": "storage_rental", "website": "https://www.locabox.fr/garde-meuble-lyon-24"}}]}