{"version": 0.6, "generator": "Overpass API 0.7.62.1 084b4234", "osm3s": {"timestamp_osm_base": "2024-11-19T06:10:44Z", "copyright": "The data included in this document is from www.openstreetmap.org. The data is made available under ODbL."}, "elements": [{"type": "node", "id": 99443804, "lat": 27.238416, "lon": -80.791832}, {"type": "node", "id": 99457165, "lat": 27.2366673, "lon": -80.7918272}, {"type": "node", "id": 99458500, "lat": 27.2181001, "lon": -80.836648}, {"type": "node", "id": 99460329, "lat": 27.2652944, "lon": -80.8396223}, {"type": "node", "id": 99460336, "lat": 27.2726715, "lon": -80.8398206}, {"type": "node", "id": 99460338, "lat": 27.274501, "lon": -80.839844}, {"type": "node", "id": 99461313, "lat": 27.270833, "lon": -80.872288}, {"type": "node", "id": 99463947, "lat": 27.265268, "lon": -80.836885}, {"type": "node", "id": 99467600, "lat": 27.2217497, "lon": -80.8366697}, {"type": "node", "id": 358692601, "lat": 27.2503236, "lon": -80.812838, "tags": {"amenity": "school", "ele": "8", "gnis:feature_id": "279473", "name": "Brown High School"}}, {"type": "node", "id": 358695977, "lat": 27.3036554, "lon": -80.8200604, "tags": {"amenity": "school", "ele": "7", "gnis:feature_id": "282618", "name": "Florida School for Boys"}}, {"type": "node", "id": 358714299, "lat": 27.2772672, "lon": -80.8431165, "tags": {"amenity": "school", "ele": "9", "gnis:feature_id": "298317", "name": "North Elementary School"}}, {"type": "node", "id": 358714311, "lat": 27.2364352, "lon": -80.8317273, "tags": {"addr:city": "Okeechobee", "addr:housenumber": "700", "addr:postcode": "34974", "addr:state": "FL", "addr:street": "Southwest 2nd Avenue", "amenity": "school", "ele": "8", "gnis:feature_id": "298320", "name": "Okeechobee School Board Office", "website": "http://www.okee.k12.fl.us/"}}, {"type": "node", "id": 358714314, "lat": 27.2372684, "lon": -80.8317273, "tags": {"addr:city": "Okeechobee", "addr:housenumber": "610", "addr:postcode": "34974", "addr:state": "FL", "addr:street": "Southwest 2nd Avenue", "amenity": "school", "ele": "8", "gnis:feature_id": "298321", "name": "Okeechobee High School Freshman Campus", "note": "Part of Okeechobee High School, but separate campus", "operator": "Okeechobee County School District", "operator:type": "government", "website": "http://ofc.okee.k12.fl.us/", "wikidata": "Q7081900", "wikipedia": "en:Okeechobee High School (1925)"}}, {"type": "node", "id": 358728521, "lat": 27.2397684, "lon": -80.8150603, "tags": {"amenity": "school", "ele": "6", "gnis:feature_id": "303757", "name": "Adams School"}}, {"type": "node", "id": 358728524, "lat": 27.2422683, "lon": -80.8336718, "tags": {"amenity": "school", "ele": "8", "gnis:feature_id": "303758", "name": "Okeechobee Rehabilitation Facility"}}, {"type": "node", "id": 1027298882, "lat": 27.276146, "lon": -80.4351385}, {"type": "node", "id": 1027298883, "lat": 27.2758981, "lon": -80.4349615}, {"type": "node", "id": 1027298884, "lat": 27.2756454, "lon": -80.434822}, {"type": "node", "id": 1027298885, "lat": 27.2753927, "lon": -80.4347255}, {"type": "node", "id": 1027298886, "lat": 27.2751018, "lon": -80.4346289}, {"type": "node", "id": 1027298887, "lat": 27.274811, "lon": -80.4345753}, {"type": "node", "id": 1027298888, "lat": 27.2734006, "lon": -80.4345734}, {"type": "node", "id": 1027298889, "lat": 27.2733947, "lon": -80.4319502}, {"type": "node", "id": 1027298890, "lat": 27.2733899, "lon": -80.4307513}, {"type": "node", "id": 1027298891, "lat": 27.273459, "lon": -80.4306896}, {"type": "node", "id": 1027298892, "lat": 27.2735127, "lon": -80.4306789}, {"type": "node", "id": 1027298893, "lat": 27.2750897, "lon": -80.4312421}, {"type": "node", "id": 1027298894, "lat": 27.2755891, "lon": -80.4314031}, {"type": "node", "id": 1027298895, "lat": 27.2758144, "lon": -80.4314406}, {"type": "node", "id": 1027298896, "lat": 27.2765475, "lon": -80.431509}, {"type": "node", "id": 1027298897, "lat": 27.2770159, "lon": -80.4315493}, {"type": "node", "id": 1027298898, "lat": 27.2771187, "lon": -80.4315766}, {"type": "node", "id": 1027298899, "lat": 27.2771568, "lon": -80.4316838}, {"type": "node", "id": 1027298900, "lat": 27.2771282, "lon": -80.4319199}, {"type": "node", "id": 1027298901, "lat": 27.2766753, "lon": -80.4342963}, {"type": "node", "id": 1027298902, "lat": 27.2766323, "lon": -80.4343929}, {"type": "node", "id": 2215666688, "lat": 27.3282535, "lon": -80.448662}, {"type": "node", "id": 2215666689, "lat": 27.3284144, "lon": -80.448517}, {"type": "node", "id": 2215666691, "lat": 27.3285774, "lon": -80.4483313}, {"type": "node", "id": 2215666692, "lat": 27.328705, "lon": -80.4481314}, {"type": "node", "id": 2215666693, "lat": 27.3287943, "lon": -80.4479514}, {"type": "node", "id": 2215666694, "lat": 27.3288765, "lon": -80.4477274}, {"type": "node", "id": 2215666695, "lat": 27.3289318, "lon": -80.4474907}, {"type": "node", "id": 2215666696, "lat": 27.3289672, "lon": -80.4472185}, {"type": "node", "id": 2215666697, "lat": 27.329048, "lon": -80.446762}, {"type": "node", "id": 2215666698, "lat": 27.3290882, "lon": -80.4500633}, {"type": "node", "id": 2215666699, "lat": 27.3291019, "lon": -80.4466231}, {"type": "node", "id": 2215666701, "lat": 27.3291203, "lon": -80.4465877}, {"type": "node", "id": 2215666702, "lat": 27.3291385, "lon": -80.4500513}, {"type": "node", "id": 2215666704, "lat": 27.3291884, "lon": -80.4465551}, {"type": "node", "id": 2215666705, "lat": 27.3292129, "lon": -80.45004}, {"type": "node", "id": 2215666706, "lat": 27.3292564, "lon": -80.4465381}, {"type": "node", "id": 2215666707, "lat": 27.3295065, "lon": -80.4466463}, {"type": "node", "id": 2215666708, "lat": 27.3297731, "lon": -80.4467395}, {"type": "node", "id": 2215666709, "lat": 27.3298503, "lon": -80.4498424}, {"type": "node", "id": 2215666710, "lat": 27.3298528, "lon": -80.4498803}, {"type": "node", "id": 2215666711, "lat": 27.3298588, "lon": -80.4499204}, {"type": "node", "id": 2215666712, "lat": 27.3298595, "lon": -80.4497974}, {"type": "node", "id": 2215666713, "lat": 27.329873, "lon": -80.4499512}, {"type": "node", "id": 2215666715, "lat": 27.3298808, "lon": -80.4497542}, {"type": "node", "id": 2215666716, "lat": 27.329896, "lon": -80.4499863}, {"type": "node", "id": 2215666717, "lat": 27.3299006, "lon": -80.4497262}, {"type": "node", "id": 2215666718, "lat": 27.3299236, "lon": -80.4500154}, {"type": "node", "id": 2215666719, "lat": 27.3299367, "lon": -80.4500253}, {"type": "node", "id": 2215666720, "lat": 27.3299428, "lon": -80.450037}, {"type": "node", "id": 2215666721, "lat": 27.3299531, "lon": -80.4496879}, {"type": "node", "id": 2215666722, "lat": 27.3300154, "lon": -80.4496737}, {"type": "node", "id": 2215666723, "lat": 27.3300558, "lon": -80.4468047}, {"type": "node", "id": 2215666725, "lat": 27.330075, "lon": -80.4496865}, {"type": "node", "id": 2215666726, "lat": 27.3300948, "lon": -80.4500324}, {"type": "node", "id": 2215666727, "lat": 27.3301062, "lon": -80.4500154}, {"type": "node", "id": 2215666728, "lat": 27.3301331, "lon": -80.4497219}, {"type": "node", "id": 2215666729, "lat": 27.330143, "lon": -80.4499913}, {"type": "node", "id": 2215666730, "lat": 27.3301657, "lon": -80.4499374}, {"type": "node", "id": 2215666731, "lat": 27.3301699, "lon": -80.4497843}, {"type": "node", "id": 2215666732, "lat": 27.3301813, "lon": -80.4498849}, {"type": "node", "id": 2215666733, "lat": 27.3301841, "lon": -80.4498382}, {"type": "node", "id": 2215666735, "lat": 27.3302934, "lon": -80.4468358}, {"type": "node", "id": 2215666736, "lat": 27.3305035, "lon": -80.4468397}, {"type": "node", "id": 2215666737, "lat": 27.3305045, "lon": -80.4500244}, {"type": "node", "id": 3274887332, "lat": 27.2684519, "lon": -80.8396737}, {"type": "node", "id": 3274887333, "lat": 27.2684555, "lon": -80.837964}, {"type": "node", "id": 3903923883, "lat": 27.2360143, "lon": -80.8343737}, {"type": "node", "id": 3903923884, "lat": 27.2360217, "lon": -80.8311912}, {"type": "node", "id": 3903923885, "lat": 27.2362849, "lon": -80.8362173}, {"type": "node", "id": 3903923886, "lat": 27.2362897, "lon": -80.8366486}, {"type": "node", "id": 3903923887, "lat": 27.2364545, "lon": -80.8357278}, {"type": "node", "id": 3903923888, "lat": 27.2364593, "lon": -80.8362173}, {"type": "node", "id": 3903923889, "lat": 27.2365151, "lon": -80.8345938}, {"type": "node", "id": 3903923890, "lat": 27.2365514, "lon": -80.8351802}, {"type": "node", "id": 3903923891, "lat": 27.2366532, "lon": -80.8357351}, {"type": "node", "id": 3903923894, "lat": 27.2378575, "lon": -80.8345889}, {"type": "node", "id": 3903923895, "lat": 27.2378575, "lon": -80.8366462}, {"type": "node", "id": 3903923896, "lat": 27.2378591, "lon": -80.8311887}, {"type": "node", "id": 3903923897, "lat": 27.2378666, "lon": -80.8343762}, {"type": "node", "id": 4113145476, "lat": 27.2697677, "lon": -80.829764}, {"type": "node", "id": 4113145477, "lat": 27.2697614, "lon": -80.8257151}, {"type": "node", "id": 4113145478, "lat": 27.2654074, "lon": -80.8256231}, {"type": "node", "id": 4113145479, "lat": 27.2653823, "lon": -80.829764}, {"type": "node", "id": 7046276741, "lat": 27.2708067, "lon": -80.8710555}, {"type": "node", "id": 7046276742, "lat": 27.2702815, "lon": -80.8710377}, {"type": "node", "id": 7046276744, "lat": 27.269492, "lon": -80.8705008}, {"type": "node", "id": 7046276746, "lat": 27.2687905, "lon": -80.8703278}, {"type": "node", "id": 7046276756, "lat": 27.2692614, "lon": -80.8704453}, {"type": "node", "id": 7046276758, "lat": 27.2701572, "lon": -80.8709521}, {"type": "node", "id": 7059309588, "lat": 27.2725267, "lon": -80.8393633}, {"type": "node", "id": 7059309590, "lat": 27.2724729, "lon": -80.8397855}, {"type": "node", "id": 7418830512, "lat": 27.2217595, "lon": -80.8338404}, {"type": "node", "id": 7418830513, "lat": 27.2200263, "lon": -80.8338403}, {"type": "node", "id": 7418830514, "lat": 27.2199689, "lon": -80.8366591}, {"type": "node", "id": 7418830515, "lat": 27.2217245, "lon": -80.8386897}, {"type": "node", "id": 7418830516, "lat": 27.2212379, "lon": -80.8388828}, {"type": "node", "id": 7418830517, "lat": 27.22078, "lon": -80.838915}, {"type": "node", "id": 7418830518, "lat": 27.2207991, "lon": -80.8393227}, {"type": "node", "id": 7418830519, "lat": 27.2203029, "lon": -80.839784}, {"type": "node", "id": 7418830520, "lat": 27.2186906, "lon": -80.8397948}, {"type": "node", "id": 7418830521, "lat": 27.2180956, "lon": -80.8391939}, {"type": "node", "id": 7418830522, "lat": 27.236758, "lon": -80.7884408}, {"type": "node", "id": 7418830523, "lat": 27.2383993, "lon": -80.7884198}, {"type": "node", "id": 7418830524, "lat": 27.2674393, "lon": -80.8396723}, {"type": "node", "id": 7418830525, "lat": 27.2674393, "lon": -80.8388322}, {"type": "node", "id": 7418830526, "lat": 27.2670292, "lon": -80.8387892}, {"type": "node", "id": 7418830527, "lat": 27.2670292, "lon": -80.8368795}, {"type": "node", "id": 7418830528, "lat": 27.2715399, "lon": -80.839678}, {"type": "node", "id": 7418830529, "lat": 27.2715399, "lon": -80.8380168}, {"type": "node", "id": 7418830530, "lat": 27.2725794, "lon": -80.8392077}, {"type": "node", "id": 7418830531, "lat": 27.2725889, "lon": -80.8381133}, {"type": "node", "id": 7418830532, "lat": 27.2745054, "lon": -80.8377486}, {"type": "node", "id": 7418830533, "lat": 27.2726175, "lon": -80.8377485}, {"type": "node", "id": 7418830537, "lat": 27.2678152, "lon": -80.8700557}, {"type": "node", "id": 7418830538, "lat": 27.2676278, "lon": -80.8722872}, {"type": "node", "id": 8311461186, "lat": 27.2694609, "lon": -80.8396751}, {"type": "node", "id": 9231611236, "lat": 27.2740511, "lon": -80.4308626}, {"type": "node", "id": 11487490782, "lat": 27.2384047, "lon": -80.7895132}, {"type": "way", "id": 88449841, "nodes": [1027298882, 1027298883, 1027298884, 1027298885, 1027298886, 1027298887, 1027298888, 1027298889, 1027298890, 1027298891, 1027298892, 9231611236, 1027298893, 1027298894, 1027298895, 1027298896, 1027298897, 1027298898, 1027298899, 1027298900, 1027298901, 1027298902, 1027298882], "tags": {"amenity": "school", "name": "Palm Pointe Educational Research School at Tradition"}}, {"type": "way", "id": 211571200, "nodes": [2215666736, 2215666737, 2215666726, 2215666727, 2215666729, 2215666730, 2215666732, 2215666733, 2215666731, 2215666728, 2215666725, 2215666722, 2215666721, 2215666717, 2215666715, 2215666712, 2215666709, 2215666710, 2215666711, 2215666713, 2215666716, 2215666718, 2215666719, 2215666720, 2215666705, 2215666702, 2215666698, 2215666688, 2215666689, 2215666691, 2215666692, 2215666693, 2215666694, 2215666695, 2215666696, 2215666697, 2215666699, 2215666701, 2215666704, 2215666706, 2215666707, 2215666708, 2215666723, 2215666735, 2215666736], "tags": {"amenity": "school", "name": "Allapattah Flats K-8"}}, {"type": "way", "id": 387050324, "nodes": [3903923897, 3903923883, 3903923884, 3903923896, 3903923897], "tags": {"amenity": "school", "website": "http://www.okee.k12.fl.us/"}}, {"type": "way", "id": 387050325, "nodes": [3903923895, 3903923886, 3903923885, 3903923888, 3903923887, 3903923891, 3903923890, 3903923889, 3903923894, 3903923895], "tags": {"addr:city": "Okeechobee", "addr:housenumber": "610", "addr:postcode": "34974", "addr:state": "FL", "addr:street": "Southwest 5th Avenue", "amenity": "school", "ele": "8", "gnis:feature_id": "298319", "name": "Central Elementary School", "operator": "Okeechobee County School District", "operator:type": "government", "website": "http://ces.okee.k12.fl.us/"}}, {"type": "way", "id": 409390043, "nodes": [4113145476, 4113145477, 4113145478, 4113145479, 4113145476], "tags": {"addr:city": "Okeechobee", "addr:housenumber": "2800", "addr:postcode": "34972", "addr:state": "FL", "addr:street": "US 441 N", "amenity": "school", "area": "yes", "ele": "7", "gnis:feature_id": "298316", "name": "Okeechobee High School", "operator": "Okeechobee County School District", "operator:type": "government", "website": "http://ohs.okee.k12.fl.us/", "wikidata": "Q7081899", "wikipedia": "en:Okeechobee High School"}}, {"type": "way", "id": 793411817, "nodes": [99467600, 7418830512, 7418830513, 7418830514, 99467600], "tags": {"addr:city": "Okeechobee", "addr:housenumber": "2468", "addr:postcode": "34974", "addr:state": "FL", "addr:street": "Southwest 7th Avenue", "amenity": "school", "name": "South Elementary School", "operator": "Okeechobee County School District", "operator:type": "government", "website": "http://southes.okee.k12.fl.us/"}}, {"type": "way", "id": 793411818, "nodes": [99467600, 7418830515, 7418830516, 7418830517, 7418830518, 7418830519, 7418830520, 7418830521, 99458500, 99467600], "tags": {"addr:city": "Okeechobee", "addr:housenumber": "825", "addr:postcode": "34974", "addr:state": "FL", "addr:street": "Southwest 28th Street", "amenity": "school", "name": "Osceola Middle School", "operator": "Okeechobee County School District", "operator:type": "government", "website": "http://oms.okee.k12.fl.us/"}}, {"type": "way", "id": 793411819, "nodes": [99443804, 99457165, 7418830522, 7418830523, 11487490782, 99443804], "tags": {"addr:city": "Okeechobee", "addr:housenumber": "3725", "addr:postcode": "34974", "addr:state": "FL", "addr:street": "Southeast 8th Street", "amenity": "school", "name": "Everglades Elementary School", "operator": "Okeechobee County School District", "operator:type": "government", "website": "http://ees.okee.k12.fl.us/"}}, {"type": "way", "id": 793411820, "nodes": [7418830524, 7418830525, 7418830526, 7418830527, 99463947, 99460329, 7418830524], "tags": {"addr:city": "Okeechobee", "addr:housenumber": "925", "addr:postcode": "34972", "addr:state": "FL", "addr:street": "Northwest 23rd Lane", "amenity": "school", "name": "Yearling Middle School", "operator": "Okeechobee County School District", "operator:type": "government", "website": "http://yms.okee.k12.fl.us/"}}, {"type": "way", "id": 793411821, "nodes": [7418830528, 7418830529, 3274887333, 3274887332, 8311461186, 7418830528], "tags": {"addr:city": "Okeechobee", "addr:housenumber": "3000", "addr:postcode": "34972", "addr:state": "FL", "addr:street": "Northwest 10th Avenue", "amenity": "school", "name": "North Elementary School", "operator": "Okeechobee County School District", "operator:type": "government", "website": "http://nes.okee.k12.fl.us/"}}, {"type": "way", "id": 793411823, "nodes": [99460338, 7418830532, 7418830533, 7418830531, 7418830530, 7059309588, 7059309590, 99460336, 99460338], "tags": {"addr:city": "Okeechobee", "addr:housenumber": "1000", "addr:postcode": "34972", "addr:state": "FL", "addr:street": "Northwest 34th Street", "amenity": "school", "name": "Okeechobee Achievement Academy", "operator": "Okeechobee County School District", "operator:type": "government", "website": "http://oaa.okee.k12.fl.us/"}}, {"type": "way", "id": 793411825, "nodes": [99461313, 7046276741, 7046276742, 7046276758, 7046276744, 7046276756, 7046276746, 7418830537, 7418830538, 99461313], "tags": {"addr:city": "Okeechobee", "addr:housenumber": "2690", "addr:postcode": "34972", "addr:state": "FL", "addr:street": "Northwest 42nd Avenue", "amenity": "school", "name": "Seminole Elementary School", "operator": "Okeechobee County School District", "operator:type": "government", "website": "http://ses.okee.k12.fl.us/"}}]}