{"version": 0.6, "generator": "Overpass API 0.7.62.1 084b4234", "osm3s": {"timestamp_osm_base": "2024-11-21T13:47:16Z", "copyright": "The data included in this document is from www.openstreetmap.org. The data is made available under ODbL."}, "elements": [{"type": "node", "id": 26647027, "lat": 45.7600968, "lon": 4.8557139, "tags": {"brand": "Carrefour", "brand:wikidata": "Q217599", "brand:wikipedia": "fr:Carrefour (enseigne)", "name": "Carrefour Lyon Part-Dieu", "opening_hours": "Mo-Fr 08:30-21:30; Sa 08:30-21:00", "ref:FR:SIRET": "45132133500437", "shop": "supermarket", "website": "https://www.carrefour.fr/magasin/lyon-part-dieu", "wheelchair": "yes"}}, {"type": "node", "id": 34991535, "lat": 45.737393, "lon": 4.867613, "tags": {"brand": "Intermarch\u00e9 Super", "brand:wikidata": "Q98278038", "check_date": "2024-07-17", "name": "Intermarch\u00e9 Super", "opening_hours": "Mo-Sa 08:00-21:00; Su 08:30-12:45", "operator": "Intermarch\u00e9", "payment:cash": "yes", "payment:contactless": "yes", "payment:debit_cards": "yes", "phone": "+33 4 72 78 02 00", "shop": "supermarket", "start_date": "2024-07-23", "website": "https://www.intermarche.com/magasins/11805/lyon-69008/infos-pratiques", "wheelchair": "yes"}}, {"type": "node", "id": 80236926, "lat": 45.7633263, "lon": 4.8360079, "tags": {"brand": "Monoprix", "brand:wikidata": "Q3321241", "brand:wikipedia": "en:Monoprix", "check_date:opening_hours": "2024-02-03", "name": "Monoprix", "opening_hours": "Mo-Sa 08:00-21:00; Su 09:00-13:00", "operator": "Groupe Casino", "phone": "+33 4 37 23 70 20", "ref:FR:SIRET": "55208329702578", "shop": "supermarket", "website": "https://www.monoprix.fr/225.html", "wheelchair": "yes"}}, {"type": "node", "id": 85850537, "lat": 45.7311456, "lon": 4.8355482, "tags": {"brand": "Carrefour City", "brand:wikidata": "Q2940187", "brand:wikipedia": "fr:Carrefour City", "name": "Carrefour City", "opening_hours": "Mo-Sa 07:00-22:00; Su 09:00-13:00", "operator": "Carrefour", "phone": "+33 4 72 14 22 33", "ref:FR:SIRET": "85008646300013", "shop": "supermarket", "website": "https://www.carrefour.fr/magasin/city-lyon-gouy", "wheelchair": "yes"}}, {"type": "node", "id": 95836732, "lat": 45.7507107, "lon": 4.8557839, "tags": {"brand": "Intermarch\u00e9 Express", "brand:wikidata": "Q98278043", "check_date": "2024-06-03", "name": "Intermarch\u00e9 Express", "opening_hours": "24/7", "payment:cash": "yes", "payment:credit_cards": "yes", "payment:debit_cards": "yes", "shop": "supermarket", "wheelchair": "yes"}}, {"type": "node", "id": 97075447, "lat": 45.7633935, "lon": 4.8517549, "tags": {"brand": "Monoprix", "brand:wikidata": "Q3321241", "brand:wikipedia": "en:Monoprix", "check_date:opening_hours": "2023-01-03", "name": "Monoprix", "opening_hours": "Mo-Sa 08:00-20:55; Su 08:00-13:00", "opening_hours:signed": "no", "phone": "+33 4 78 60 20 15", "ref:FR:SIRET": "55208329701687", "shop": "supermarket", "website": "https://www.monoprix.fr/840.html"}}, {"type": "node", "id": 173405321, "lat": 45.7433976, "lon": 4.870351, "tags": {"brand": "U Express", "brand:wikidata": "Q2529029", "brand:wikipedia": "en:Syst\u00e8me U", "check_date:opening_hours": "2024-09-14", "name": "U Express Monplaisir Lumi\u00e8re", "opening_hours": "Mo-Sa 07:00-22:00; Su 08:00-13:00", "operator": "Carrefour", "phone": "+33 4 78 74 44 63", "shop": "supermarket", "website": "https://www.magasins-u.com/magasin/uexpress-lyonmonplaisirlumiere"}}, {"type": "node", "id": 203965260, "lat": 45.7561439, "lon": 4.8432173, "tags": {"brand": "U Express", "brand:wikidata": "Q2529029", "brand:wikipedia": "en:Syst\u00e8me U", "name": "U Express", "shop": "supermarket"}}, {"type": "node", "id": 242388522, "lat": 45.7764491, "lon": 4.8294895}, {"type": "node", "id": 242388523, "lat": 45.7765129, "lon": 4.8302696}, {"type": "node", "id": 242388524, "lat": 45.775965, "lon": 4.830482}, {"type": "node", "id": 242388526, "lat": 45.7760261, "lon": 4.8298158}, {"type": "node", "id": 243207815, "lat": 45.7451674, "lon": 4.8655574, "tags": {"brand": "Carrefour Market", "brand:wikidata": "Q2689639", "brand:wikipedia": "en:Carrefour Market", "check_date:opening_hours": "2024-05-29", "contact:phone": "+33 472785210", "delivery": "yes", "drive_through": "yes", "name": "Carrefour Market Lyon Fr\u00e8res Lumi\u00e8re", "opening_hours": "Mo-Sa 08:30-21:00; Su 09:00-12:30", "operator": "Carrefour", "ref:FR:SIRET": "41515331100014", "shop": "supermarket", "website": "https://www.carrefour.fr/magasin/market-lyon-freres-lumiere", "wheelchair": "yes"}}, {"type": "node", "id": 247265905, "lat": 45.7367339, "lon": 4.8674522, "tags": {"brand": "Aldi", "brand:wikidata": "Q41171373", "brand:wikipedia": "hu:Aldi Nord", "name": "Aldi", "opening_hours": "Mo-Sa 08:30-20:00; Su 08:30-12:30", "operator": "Aldi", "payment:cash": "yes", "payment:contactless": "yes", "payment:credit_cards": "yes", "payment:debit_cards": "yes", "phone": "+33 1 81 09 78 25", "shop": "supermarket", "website": "https://www.aldi.fr/magasins-et-horaires-d-ouverture.html/l/lyon/336-avenue-berthelot/3435568"}}, {"type": "node", "id": 248307326, "lat": 45.7326885, "lon": 4.8820856, "tags": {"addr:floor": "0", "brand": "Intermarch\u00e9 Super", "brand:wikidata": "Q98278038", "check_date": "2024-10-23", "contact:phone": "+33 4 72 78 04 00", "contact:website": "https://www.intermarche.com/magasins/11803/lyon-69008/infos-pratiques", "level": "0", "name": "Intermarch\u00e9 Super", "opening_hours": "Mo-Sa 08:30-20:30; Su 09:00-12:30", "operator": "Intermarch\u00e9", "payment:cash": "yes", "payment:contactless": "yes", "payment:credit_cards": "yes", "payment:debit_cards": "yes", "phone": "+33 4 72 78 04 00", "shop": "supermarket", "start_date": "2024-07-23", "wheelchair": "yes"}}, {"type": "node", "id": 249718449, "lat": 45.7524329, "lon": 4.8458914, "tags": {"brand": "Naturalia", "brand:wikidata": "Q3337081", "brand:wikipedia": "fr:Naturalia", "check_date:opening_hours": "2024-09-03", "name": "Naturalia", "opening_hours": "Mo-Sa 09:00-20:00; Su 09:00-12:45", "organic": "only", "phone": "+33 4 72 94 40 65", "ref:FR:SIRET": "30247464801670", "shop": "supermarket", "start_date": "2017-03-10", "website": "https://magasins.naturalia.fr/naturalia/fr/store/france/auvergne-rhone-alpes/rhone/lyon/lyon-jean-jaures/3908", "wheelchair": "yes"}}, {"type": "node", "id": 471990201, "lat": 45.7814465, "lon": 4.8335273, "tags": {"brand": "Franprix", "brand:wikidata": "Q2420096", "brand:wikipedia": "fr:Franprix", "check_date:opening_hours": "2023-04-12", "name": "Franprix", "opening_hours": "Mo-Sa 07:30-21:00; Su 09:00-13:00", "operator": "Franprix", "ref:FR:SIRET": "47889733300017", "shop": "supermarket", "website": "https://www.franprix.fr/magasins/5671"}}, {"type": "node", "id": 529913053, "lat": 45.7840965, "lon": 4.8089816, "tags": {"addr:housenumber": "76", "branch": "Lyon Saint-Cyr", "brand": "Intermarch\u00e9 Super", "brand:wikidata": "Q98278038", "name": "Intermarch\u00e9 Super Lyon Saint-Cyr", "opening_hours": "Mo-Sa 08:30-21:00; Su 09:00-13:00", "phone": "+33 4 72 85 60 20", "shop": "supermarket", "website": "https://www.intermarche.com/magasins/11799/Lyon-69009/infos-pratiques", "wheelchair": "yes"}}, {"type": "node", "id": 534114171, "lat": 45.761829, "lon": 4.8465007, "tags": {"brand": "U Express", "brand:wikidata": "Q2529029", "brand:wikipedia": "en:Syst\u00e8me U", "contact:website": "https://www.magasins-u.com/magasin/uexpress-lyon3bonnel", "name": "U Express", "newspaper": "yes", "opening_hours": "Mo-Sa 08:30-21:00; Su 09:00-13:00", "operator": "Syst\u00e8me U", "phone": "+33 4 37 23 68 80", "ref:FR:SIRET": "48928980100024", "shop": "supermarket"}}, {"type": "node", "id": 546921135, "lat": 45.7567409, "lon": 4.8445477, "tags": {"brand": "Bahadourian", "contact:facebook": "https://www.facebook.com/bahadourian.epicerie", "name": "Bahadourian", "opening_hours": "Mo-Sa 07:30-19:30", "phone": "+33 4 78 60 32 10", "ref:FR:SIRET": "34358346400015", "shop": "supermarket", "website": "https://www.bahadourian.com/", "wikidata": "Q2879246"}}, {"type": "node", "id": 567027586, "lat": 45.736302, "lon": 4.8284494}, {"type": "node", "id": 567027587, "lat": 45.7364129, "lon": 4.8289668}, {"type": "node", "id": 567027590, "lat": 45.7362382, "lon": 4.8288101}, {"type": "node", "id": 567027591, "lat": 45.7361708, "lon": 4.8287512}, {"type": "node", "id": 567027601, "lat": 45.7367217, "lon": 4.8292349}, {"type": "node", "id": 567027606, "lat": 45.7368515, "lon": 4.8289292}, {"type": "node", "id": 573267936, "lat": 45.742865, "lon": 4.8205741, "tags": {"brand": "Lidl", "brand:website": "http://www.lidl.fr", "brand:wikidata": "Q151954", "brand:wikipedia": "en:Lidl", "check_date:opening_hours": "2024-02-21", "name": "Lidl", "opening_hours": "Mo-Sa 08:30-20:30", "operator": "Lidl", "ref:FR:SIRET": "34326262204976", "shop": "supermarket", "source": "cadastre-dgi-fr source : Direction G\u00e9n\u00e9rale des Imp\u00f4ts - Cadastre. Mise \u00e0 jour : 2009", "wheelchair": "yes"}}, {"type": "node", "id": 580475760, "lat": 45.8005125, "lon": 4.8251822, "tags": {"brand": "Intermarch\u00e9 Express", "brand:wikidata": "Q98278043", "name": "Intermarch\u00e9 Express", "opening_hours": "Mo-Sa 08:30-20:30; Su 09:00-13:00", "shop": "supermarket"}}, {"type": "node", "id": 635820286, "lat": 45.7374909, "lon": 4.8361901, "tags": {"addr:city": "Lyon", "addr:housenumber": "1", "addr:postcode": "69007", "addr:street": "Place Antoinette Fouque", "branch": "Lyon Gerland", "brand": "Auchan Supermarch\u00e9", "brand:wikidata": "Q105857776", "check_date:opening_hours": "2024-05-25", "name": "Auchan Supermarch\u00e9", "opening_hours": "Mo-Sa 08:30-21:00; Su 08:30-12:30,13:00-20:30", "operator": "Auchan", "payment:cards": "yes", "payment:cash": "yes", "payment:coins": "yes", "payment:credit_cards": "yes", "payment:debit_cards": "yes", "payment:mastercard": "yes", "payment:visa": "yes", "phone": "+33 4 37 65 38 80", "ref:FR:SIRET": "41040901502994", "shop": "supermarket", "website": "https://www.auchan.fr/magasins/supermarche/auchan-supermarche-lyon-gerland/s-1406"}}, {"type": "node", "id": 639645761, "lat": 45.7489934, "lon": 4.8475414, "tags": {"branch": "Lyon Saint Louis", "brand": "U Express", "brand:wikidata": "Q2529029", "brand:wikipedia": "fr:Syst\u00e8me U", "check_date:opening_hours": "2024-09-15", "name": "U Express", "opening_hours": "Mo-Sa 08:30-21:00; Su 08:30-12:45", "operator": "Super U", "phone": "+33 4 78 69 20 19", "shop": "supermarket", "website": "https://www.magasins-u.com/uexpress-lyonsaintlouis", "wheelchair": "yes"}}, {"type": "node", "id": 828689579, "lat": 45.7854608, "lon": 4.795479, "tags": {"brand": "Lidl", "brand:website": "http://www.lidl.fr", "brand:wikidata": "Q151954", "brand:wikipedia": "fr:Lidl", "name": "Lidl", "opening_hours": "Mo-Sa 08:30-19:30", "operator": "Lidl", "ref:FR:SIRET": "34326262217119", "shop": "supermarket"}}, {"type": "node", "id": 828689634, "lat": 45.7867411, "lon": 4.7949801, "tags": {"brand": "Auchan", "diet:halal": "yes", "diet:kosher": "no", "name": "Auchan Supermarch\u00e9 La Duch\u00e8re", "opening_hours": "Mo-Sa 08:30-20:00; Su 08:30-12:30", "operator": "Auchan", "ref:FR:SIRET": "41040901503679", "shop": "supermarket", "website": "https://www.auchan.fr/magasins/supermarche-la-duchere-lyon/sl-1171", "wheelchair": "yes"}}, {"type": "node", "id": 935446487, "lat": 45.751215, "lon": 4.839532, "tags": {"brand": "Lidl", "brand:website": "http://www.lidl.fr", "brand:wikidata": "Q151954", "brand:wikipedia": "en:Lidl", "check_date": "2024-04-04", "name": "Lidl", "opening_hours": "Mo-Fr 08:30-20:30; Sa 08:30-20:30; Su 08:30-12:15", "operator": "Lidl", "ref:FR:SIRET": "34326262214348", "shop": "supermarket", "wheelchair": "yes"}}, {"type": "node", "id": 948281054, "lat": 45.7535122, "lon": 4.8679213, "tags": {"brand": "Carrefour City", "brand:wikidata": "Q2940187", "brand:wikipedia": "fr:Carrefour City", "check_date": "2024-10-27", "check_date:opening_hours": "2023-05-23", "name": "Carrefour City", "opening_hours": "Mo-Sa 07:00-21:00; Su 09:00-13:00", "operator": "Groupe Carrefour", "operator:wikidata": "Q3117359", "operator:wikipedia": "fr:Groupe Carrefour", "organic": "yes", "phone": "+33 4 78 53 18 45", "ref:FR:SIRET": "44791020900017", "shop": "supermarket", "website": "https://www.carrefour.fr/magasin/city-lyon-lacassagne", "wheelchair": "yes"}}, {"type": "node", "id": 948325297, "lat": 45.7397924, "lon": 4.8663054, "tags": {"addr:city": "Lyon", "addr:country": "FR", "addr:housenumber": "115", "addr:postcode": "69008", "addr:street": "Rue Marius Berliet", "brand": "Lidl", "brand:website": "http://www.lidl.fr", "brand:wikidata": "Q151954", "brand:wikipedia": "fr:Lidl", "name": "Lidl", "opening_hours": "Mo-Sa 08:30-20:30", "operator": "Lidl", "ref:FR:SIRET": "34326262217283", "shop": "supermarket", "website": "https://www.lidl.fr/s/fr-FR/supermarch%C3%A9s/lyon/115-avenue-marius-berliet/"}}, {"type": "node", "id": 956222244, "lat": 45.7566136, "lon": 4.8750371, "tags": {"brand": "Super U", "brand:wikidata": "Q2529029", "brand:wikipedia": "en:Syst\u00e8me U", "check_date": "2022-10-24", "contact:phone": "+33 4 72 91 80 20", "contact:website": "https://www.magasins-u.com/magasin/superu-lyonmaisonsneuves", "name": "Super U", "opening_hours": "Mo-Sa 08:30-20:30, Su 08:30-12:30", "operator": "Super U", "payment:mastercard": "yes", "payment:visa": "yes", "shop": "supermarket", "wheelchair": "yes"}}, {"type": "node", "id": 988178230, "lat": 45.776538, "lon": 4.8296931}, {"type": "node", "id": 988178231, "lat": 45.7765122, "lon": 4.8300019}, {"type": "node", "id": 988178233, "lat": 45.7765018, "lon": 4.8295345}, {"type": "node", "id": 988178235, "lat": 45.776474, "lon": 4.8294888}, {"type": "node", "id": 988178242, "lat": 45.7764906, "lon": 4.8296854}, {"type": "node", "id": 988178245, "lat": 45.7765218, "lon": 4.8299995}, {"type": "node", "id": 988178246, "lat": 45.7764929, "lon": 4.8295039}, {"type": "node", "id": 989802370, "lat": 45.7536719, "lon": 4.8577454, "tags": {"brand": "Auchan Supermarch\u00e9", "name": "Auchan Supermarch\u00e9 Lyon F\u00e9lix Faure", "opening_hours": "Mo-Sa 08:00-21:00; Su 08:00-12:30, 13:00-20:30", "phone": "+33 4 37 42 84 00", "ref:FR:SIRET": "41040901503661", "shop": "supermarket", "website": "https://www.auchan.fr/magasins/supermarche-lyon-felix-faure/sl-1357", "wheelchair": "yes"}}, {"type": "node", "id": 1006896769, "lat": 45.7561817, "lon": 4.8473158, "tags": {"brand": "U Express", "brand:wikidata": "Q2529029", "brand:wikipedia": "fr:Syst\u00e8me U", "check_date": "2024-06-30", "name": "U Express", "opening_hours": "Mo-Sa 08:30-20:30; Su 09:00-13:00", "operator": "Syst\u00e8me U", "phone": "+33 4 37 45 45 35", "ref:FR:SIRET": "48950012400024", "shop": "supermarket", "website": "https://www.magasins-u.com/magasin/uexpress-saxevendome", "wheelchair": "yes"}}, {"type": "node", "id": 1040126959, "lat": 45.7756753, "lon": 4.8276219, "tags": {"alt_name": "U Express Croix-Rousse", "brand": "U Express", "brand:wikidata": "Q2529029", "brand:wikipedia": "fr:Syst\u00e8me U", "level": "0", "name": "U Express", "opening_hours": "Mo-Sa 08:30-20:00; Su 09:00-13:00", "operator": "M. et Mme GELPI", "phone": "+33 4 78989074", "shop": "supermarket", "website": "https://www.magasins-u.com/uexpress-lyoncroixrousse", "wheelchair": "yes"}}, {"type": "node", "id": 1171866997, "lat": 45.775975, "lon": 4.830367}, {"type": "node", "id": 1171868268, "lat": 45.776005, "lon": 4.830042}, {"type": "node", "id": 1195168618, "lat": 45.779254, "lon": 4.828588}, {"type": "node", "id": 1195168637, "lat": 45.779293, "lon": 4.828249}, {"type": "node", "id": 1195169156, "lat": 45.77913, "lon": 4.828053}, {"type": "node", "id": 1195169252, "lat": 45.77913, "lon": 4.828375}, {"type": "node", "id": 1195169306, "lat": 45.779254, "lon": 4.828607}, {"type": "node", "id": 1195169835, "lat": 45.779379, "lon": 4.828484}, {"type": "node", "id": 1195170072, "lat": 45.779294, "lon": 4.828177}, {"type": "node", "id": 1195170140, "lat": 45.77913, "lon": 4.82819}, {"type": "node", "id": 1195170594, "lat": 45.779293, "lon": 4.828218}, {"type": "node", "id": 1195170705, "lat": 45.779129, "lon": 4.828587}, {"type": "node", "id": 1195171071, "lat": 45.77929, "lon": 4.828588}, {"type": "node", "id": 1195171209, "lat": 45.779225, "lon": 4.828588}, {"type": "node", "id": 1195171272, "lat": 45.779338, "lon": 4.828587}, {"type": "node", "id": 1195171365, "lat": 45.779295, "lon": 4.828053}, {"type": "node", "id": 1195171442, "lat": 45.779378, "lon": 4.828588}, {"type": "node", "id": 1195171518, "lat": 45.779129, "lon": 4.828543}, {"type": "node", "id": 1195171590, "lat": 45.779225, "lon": 4.828606}, {"type": "node", "id": 1195171592, "lat": 45.77913, "lon": 4.828235}, {"type": "node", "id": 1195171595, "lat": 45.7792947, "lon": 4.828085}, {"type": "node", "id": 1195171634, "lat": 45.779291, "lon": 4.828053}, {"type": "node", "id": 1195171751, "lat": 45.779291, "lon": 4.828483}, {"type": "node", "id": 1336704424, "lat": 45.7478543, "lon": 4.855944, "tags": {"brand": "Lidl", "brand:website": "https://www.lidl.fr/", "brand:wikidata": "Q151954", "brand:wikipedia": "fr:Lidl", "contact:housenumber": "212", "name": "Lidl", "opening_hours": "Mo-Sa 08:30-20:30", "operator": "Lidl", "ref:FR:SIRET": "34326262215154", "shop": "supermarket"}}, {"type": "node", "id": 1336704427, "lat": 45.7495304, "lon": 4.8540371, "tags": {"branch": "Lyon Guilloti\u00e8re", "brand": "Monoprix", "brand:wikidata": "Q3321241", "brand:wikipedia": "fr:Monoprix (France)", "name": "Monoprix", "opening_hours": "Mo-Sa 08:30-21:30; Su 08:30-13:00", "operator": "Groupe Casino", "phone": "+33 4 37 37 22 80", "ref:FR:SIRET": "55208329702651", "shop": "supermarket", "website": "https://www.monoprix.fr/1350.html"}}, {"type": "node", "id": 1336704722, "lat": 45.7527814, "lon": 4.8512308, "tags": {"brand": "ALDI", "brand:wikidata": "Q41171373", "brand:wikipedia": "en:Aldi", "name": "ALDI", "opening_hours": "Mo-Sa 08:30-20:00; Su 08:30-12:30", "shop": "supermarket", "wheelchair": "yes"}}, {"type": "node", "id": 1345495938, "lat": 45.7544182, "lon": 4.866506, "tags": {"name": "Auchan Minute", "shop": "supermarket"}}, {"type": "node", "id": 1381860422, "lat": 45.7671283, "lon": 4.8495701, "tags": {"branch": "Lyon 6e", "brand": "Super U", "brand:wikidata": "Q2529029", "brand:wikipedia": "en:Syst\u00e8me U", "name": "Super U", "opening_hours": "Mo-Sa 08:30-20:00, Su 08:30-13:00", "operator": "Syst\u00e8me U", "phone": "+33478524082", "ref:FR:SIRET": "41110424300018", "shop": "supermarket", "website": "https://www.magasins-u.com/magasin/superu-lyon6eme"}}, {"type": "node", "id": 1390105747, "lat": 45.765485, "lon": 4.79158}, {"type": "node", "id": 1390105748, "lat": 45.765486, "lon": 4.791739}, {"type": "node", "id": 1390105772, "lat": 45.765499, "lon": 4.79158}, {"type": "node", "id": 1390105814, "lat": 45.765647, "lon": 4.791577}, {"type": "node", "id": 1390105833, "lat": 45.765648, "lon": 4.79162}, {"type": "node", "id": 1390105835, "lat": 45.765648, "lon": 4.791737}, {"type": "node", "id": 1391291300, "lat": 45.7617233, "lon": 4.8035535}, {"type": "node", "id": 1391291517, "lat": 45.762104, "lon": 4.803043}, {"type": "node", "id": 1391291560, "lat": 45.762171, "lon": 4.803137}, {"type": "node", "id": 1391291562, "lat": 45.7621354, "lon": 4.8042287}, {"type": "node", "id": 1391291587, "lat": 45.762214, "lon": 4.803074}, {"type": "node", "id": 1391291713, "lat": 45.762362, "lon": 4.803945}, {"type": "node", "id": 1391291752, "lat": 45.762402, "lon": 4.803379}, {"type": "node", "id": 1394154716, "lat": 45.76251, "lon": 4.79671}, {"type": "node", "id": 1394154717, "lat": 45.762511, "lon": 4.796706}, {"type": "node", "id": 1394154718, "lat": 45.762511, "lon": 4.796773}, {"type": "node", "id": 1394154719, "lat": 45.762511, "lon": 4.797288}, {"type": "node", "id": 1394154739, "lat": 45.76262, "lon": 4.797288}, {"type": "node", "id": 1394154782, "lat": 45.7627583, "lon": 4.797287}, {"type": "node", "id": 1394154884, "lat": 45.762998, "lon": 4.796705}, {"type": "node", "id": 1394154887, "lat": 45.7629976, "lon": 4.7972884}, {"type": "node", "id": 1472005728, "lat": 45.7537366, "lon": 4.8896884, "tags": {"addr:floor": "0", "brand": "Super U", "brand:wikidata": "Q2529029", "brand:wikipedia": "fr:Syst\u00e8me U", "check_date": "2024-10-23", "check_date:opening_hours": "2023-06-23", "level": "0", "name": "Super U", "opening_hours": "Mo-Sa 08:30-20:15, Su 09:00-12:30", "operator": "Super U", "payment:cash": "yes", "payment:credit_cards": "yes", "payment:debit_cards": "yes", "shop": "supermarket", "wheelchair": "yes"}}, {"type": "node", "id": 1573833244, "lat": 45.7747923, "lon": 4.805172, "tags": {"branch": "Lyon Valmy", "brand": "Monoprix", "brand:wikidata": "Q3321241", "brand:wikipedia": "en:Monoprix", "check_date": "2024-10-20", "name": "Monoprix Lyon Valmy", "opening_hours": "Mo-Sa 08:00-20:45; Su 08:00-19:30", "phone": "+33 4 37 49 86 70", "ref:FR:SIRET": "55208329702461", "shop": "supermarket", "website": "https://www.monoprix.fr/1261.html", "wheelchair": "yes"}}, {"type": "node", "id": 1594876399, "lat": 45.7677191, "lon": 4.8325996, "tags": {"brand": "Carrefour City", "brand:wikidata": "Q2940187", "brand:wikipedia": "fr:Carrefour City", "check_date": "2024-11-17", "name": "Carrefour City", "opening_hours": "Mo-Sa 07:00-21:00; Su 09:00-21:00", "shop": "supermarket"}}, {"type": "node", "id": 1694707158, "lat": 45.7710946, "lon": 4.8497612, "tags": {"brand": "Auchan", "check_date:opening_hours": "2022-11-13", "name": "Auchan Supermarch\u00e9 Garibaldi Lyon", "opening_hours": "Mo-Sa 08:30-20:45; Su 08:30-12:30", "phone": "+33 4 78 93 15 37", "ref:FR:SIRET": "41040901500824", "shop": "supermarket", "website": "https://www.auchan.fr/magasins/supermarche-garibaldi-lyon/sl-1159"}}, {"type": "node", "id": 1766604245, "lat": 45.7635565, "lon": 4.8663721, "tags": {"brand": "Lidl", "brand:website": "http://www.lidl.fr", "brand:wikidata": "Q151954", "brand:wikipedia": "en:Lidl", "name": "Lidl", "opening_hours": "Mo-Sa 08:30-20:30; Su 08:30-12:15", "operator": "Lidl", "shop": "supermarket"}}, {"type": "node", "id": 1998615471, "lat": 45.7526794, "lon": 4.8464976, "tags": {"brand": "Biocoop", "brand:wikidata": "Q2904039", "brand:wikipedia": "fr:Biocoop", "bulk_purchase": "yes", "check_date": "2024-10-08", "check_date:opening_hours": "2024-10-08", "contact:city": "Lyon 7eme Arrondissement", "contact:housenumber": "15", "contact:phone": "+33 4 72 70 98 82", "contact:postcode": "69007", "contact:street": "Avenue Jean Jaur\u00e8s", "name": "Biocoop", "official_name": "Biocoop Saxe Gambetta", "opening_hours": "Mo-Sa 09:00-19:30", "opening_hours:signed": "no", "operator": "Vert la Terre", "organic": "only", "ref:FR:SIRET": "75101634600015", "shop": "supermarket", "website": "https://www.biocooplyonsaxe.fr", "wheelchair": "yes"}}, {"type": "node", "id": 2019574498, "lat": 45.7763993, "lon": 4.8331486, "tags": {"brand": "Carrefour City", "brand:wikidata": "Q2940187", "brand:wikipedia": "fr:Carrefour City", "check_date:opening_hours": "2024-07-21", "name": "Carrefour City", "opening_hours": "Mo-Sa 07:00-22:00; Su 08:30-13:30", "operator": "Carrefour", "phone": "+33 4 78 98 64 73", "ref:FR:SIRET": "50935305800035", "shop": "supermarket", "website": "https://www.carrefour.fr/magasin/city-lyon-croix-rousse", "wheelchair": "yes"}}, {"type": "node", "id": 2086430153, "lat": 45.7548848, "lon": 4.8427227, "tags": {"brand": "Casino", "brand:wikidata": "Q89029184", "contact:housenumber": "7", "name": "Casino", "opening_hours": "Mo-Tu 08:00-19:30; Th-Sa 08:00-19:30; Su 09:00-12:30", "phone": "+33 4 72 76 55 30", "ref:FR:SIRET": "42826802302123", "shop": "supermarket", "website": "https://www.supercasino.fr/"}}, {"type": "node", "id": 2204972014, "lat": 45.7503193, "lon": 4.8446112, "tags": {"brand": "Franprix", "brand:wikidata": "Q2420096", "brand:wikipedia": "fr:Franprix", "check_date": "2024-09-01", "check_date:opening_hours": "2024-09-01", "name": "Franprix", "opening_hours": "Mo-Sa 07:30-21:00, Su 09:00-20:00", "operator": "Jaudis", "phone": "+33 4 72 76 59 17", "ref:FR:SIRET": "45218217300032", "shop": "supermarket", "website": "https://www.franprix.fr/magasins/lyon_m5613", "wheelchair": "yes"}}, {"type": "node", "id": 2211606950, "lat": 45.7569441, "lon": 4.8558654, "tags": {"brand": "Carrefour City", "brand:wikidata": "Q2940187", "brand:wikipedia": "fr:Carrefour City", "check_date:opening_hours": "2023-01-14", "name": "Carrefour City", "opening_hours": "Mo-Sa 07:00-22:00; Su 09:00-13:00", "operator": "Carrefour", "phone": "+33 4 78 05 10 25", "ref:FR:SIRET": "53863727300029", "shop": "supermarket", "website": "https://www.carrefour.fr/magasin/city-lyon-paul-bert", "wheelchair": "yes"}}, {"type": "node", "id": 2242945730, "lat": 45.7541131, "lon": 4.8417226, "tags": {"contact:housenumber": "8", "name": "Asian Bangla", "origin": "asian;indian;african;bangladesh", "shop": "supermarket"}}, {"type": "node", "id": 2271668168, "lat": 45.7638287, "lon": 4.8642416, "tags": {"branch": "Lyon Bellecombe", "brand": "U Express", "brand:wikidata": "Q2529029", "brand:wikipedia": "en:Syst\u00e8me U", "check_date:opening_hours": "2023-04-29", "name": "U Express", "opening_hours": "Mo-Sa 08:30-20:30; Su 09:00-12:30", "operator": "Syst\u00e8me U", "phone": "+33 4 37 24 21 92", "shop": "supermarket", "website": "https://www.magasins-u.com/magasin/uexpress-lyon6emevilleurbanne"}}, {"type": "node", "id": 2284359915, "lat": 45.7551396, "lon": 4.8456316, "tags": {"name": "Biba", "opening_hours": "Mo-Th,Sa 10:00-20:00; Fr 10:00-13:00,14:00-20:00; Su 13:00-19:00", "ref:FR:SIRET": "80264220700012", "shop": "supermarket"}}, {"type": "node", "id": 2305393320, "lat": 45.756492, "lon": 4.7833682, "tags": {"brand": "Le Grand Panier Bio", "bulk_purchase": "yes", "name": "Le Panier Bio", "opening_hours": "Mo 14:30-19:30, Tu-Sa 09:30-19:30", "organic": "only", "phone": "+33 4 78 36 67 84", "shop": "supermarket", "website": "http://www.grandpanierbio.bio/magasin/panier-bio-lyon/"}}, {"type": "node", "id": 2322617255, "lat": 45.752728, "lon": 4.848995, "tags": {"brand": "Intermarch\u00e9", "brand:wikidata": "Q3153200", "brand:wikipedia": "fr:Intermarch\u00e9", "check_date": "2024-06-30", "name": "Intermarch\u00e9 Express", "opening_hours": "Mo-Sa 08:30-20:30; Su 09:00-12:30", "operator": "Groupement des Mousquetaires", "ref:FR:SIRET": "79106019700013", "shop": "supermarket", "wheelchair": "yes"}}, {"type": "node", "id": 2340214177, "lat": 45.7702393, "lon": 4.8358002, "tags": {"brand": "Auchan", "brand:wikidata": "Q758603", "brand:wikipedia": "en:Auchan", "name": "Auchan Click & collect", "shop": "supermarket"}}, {"type": "node", "id": 2461669164, "lat": 45.7655666, "lon": 4.7917793, "tags": {"name": "Superette Les Deux Amants", "shop": "supermarket"}}, {"type": "node", "id": 2476993859, "lat": 45.7527088, "lon": 4.8314002, "tags": {"brand": "La Vie Claire", "brand:wikidata": "Q3213589", "brand:wikipedia": "fr:La Vie Claire", "bulk_purchase": "yes", "name": "La Vie Claire", "opening_hours": "Mo-Sa 09:00-20:00; Su 09:00-12:30", "organic": "only", "phone": "+33 4 78 42 09 19", "ref:FR:SIRET": "63200001401967", "shop": "supermarket", "survey:date": "2023-08-19", "website": "https://www.lavieclaire.com/magasin-bio/lyon-charite.html"}}, {"type": "node", "id": 2503982589, "lat": 45.7629977, "lon": 4.7969439}, {"type": "node", "id": 2512682677, "lat": 45.7347963, "lon": 4.8750099, "tags": {"branch": "Lyon Mermoz", "brand": "Carrefour City", "brand:wikidata": "Q2940187", "brand:wikipedia": "fr:Carrefour City", "name": "Carrefour City", "opening_hours": "Mo-Sa 07:00-22:00; Su 09:00-13:00", "phone": "+33 4 78 00 05 77", "ref:FR:SIRET": "80393823200037", "shop": "supermarket", "website": "https://www.carrefour.fr/magasin/city-lyon-mermoz", "wheelchair": "yes"}}, {"type": "node", "id": 2600858726, "lat": 45.7478541, "lon": 4.8649798, "tags": {"addr:city": "Lyon", "addr:housenumber": "45", "addr:postcode": "69003", "addr:street": "Cours Albert Thomas", "brand": "U Express", "brand:wikidata": "Q2529029", "brand:wikipedia": "en:Syst\u00e8me U", "name": "U Express", "opening_hours": "Mo-Sa 07:00-22:00; Su 09:00-13:00", "phone": "+33 4 72 13 02 37", "ref:FR:SIRET": "79807888700014", "shop": "supermarket", "website": "https://www.magasins-u.com/magasin/uexpress-lyonalbertthomas", "wheelchair": "yes"}}, {"type": "node", "id": 2606781355, "lat": 45.753021, "lon": 4.8467158, "tags": {"branch": "Lyon Jaur\u00e8s", "brand": "Carrefour City", "brand:wikidata": "Q2940187", "brand:wikipedia": "fr:Carrefour City", "name": "Carrefour City", "opening_hours": "Mo-Sa 07:00-22:00; Su 09:00-13:00", "operator": "Bouzar", "phone": "+33 4 72 71 43 55", "shop": "supermarket", "survey:date": "2024-03-23", "website": "https://www.carrefour.fr/magasin/city-lyon-jaures", "wheelchair": "yes"}}, {"type": "node", "id": 2633819207, "lat": 45.7697009, "lon": 4.8359547, "tags": {"brand": "Carrefour City", "brand:wikidata": "Q2940187", "name": "Carrefour City", "opening_hours": "Mo-Sa 07:00-22:00; Su 09:00-20:00", "ref:FR:SIRET": "34513048827093", "shop": "supermarket"}}, {"type": "node", "id": 2969297079, "lat": 45.747686, "lon": 4.8447621, "tags": {"brand": "Intermarch\u00e9", "brand:wikidata": "Q3153200", "name": "Intermarch\u00e9 Express", "opening_hours": "Mo-Sa 08:00-20:30; Su 09:00-12:30", "phone": "+33 4 72 76 53 00", "ref:FR:SIRET": "42826802302149", "shop": "supermarket", "website": "https://www.intermarche.com/magasins/11774/Lyon-69007/infos-pratiques", "wheelchair": "yes"}}, {"type": "node", "id": 3066189893, "lat": 45.7601629, "lon": 4.8467851, "tags": {"brand": "Biocoop", "brand:wikidata": "Q2904039", "brand:wikipedia": "fr:Biocoop", "contact:city": "Lyon 3eme Arrondissement", "contact:housenumber": "197", "contact:phone": "+33 4 78 38 56 10", "contact:postcode": "69003", "contact:street": "Rue Vendome", "name": "Biocoop", "official_name": "Biocoop Lyon Vend\u00f4me", "opening_hours": "Mo-Sa 09:00-19:30", "organic": "only", "ref:FR:SIRET": "83442809600012", "shop": "supermarket", "website": "https://www.biocooplyonvendome.bio"}}, {"type": "node", "id": 3150757126, "lat": 45.7855033, "lon": 4.7951741, "tags": {"name": "\u00c9picerie du Monde - EDM Market", "opening_hours": "Mo-Su 08:30-20:00", "phone": "+33 4 78 43 39 09", "shop": "supermarket"}}, {"type": "node", "id": 3194037965, "lat": 45.740588, "lon": 4.8176878, "tags": {"brand": "Carrefour", "brand:wikidata": "Q217599", "brand:wikipedia": "fr:Carrefour (enseigne)", "check_date:opening_hours": "2024-06-03", "level": "0", "name": "Carrefour", "opening_hours": "Mo-Sa 08:30-21:00, Su 08:30-12:30", "phone": "+33 4 72 13 81 79", "shop": "supermarket", "website": "https://www.carrefour.fr/magasin/lyon-confluence", "wheelchair": "yes"}}, {"type": "node", "id": 3226228346, "lat": 45.7522738, "lon": 4.8404403, "tags": {"brand": "Carrefour City", "brand:wikidata": "Q2940187", "brand:wikipedia": "fr:Carrefour City", "name": "Carrefour City", "opening_hours": "Mo-Sa 07:00-22:00; Su 09:00-13:00", "phone": "+33 4 72 71 83 47", "ref:FR:SIRET": "75089182200025", "shop": "supermarket", "survey:date": "2019-02-02", "website": "https://www.carrefour.fr/magasin/city-lyon-marseille"}}, {"type": "node", "id": 3350775494, "lat": 45.7619158, "lon": 4.8571656, "tags": {"brand": "Monoprix", "brand:wikidata": "Q3321241", "brand:wikipedia": "en:Monoprix", "level": "1", "name": "Monoprix", "opening_hours": "Mo-Sa 08:30-21:00; Su 08:30-13:00", "phone": "+33 4 37 72 40 00", "shop": "supermarket", "website": "https://www.monoprix.fr/1429.html"}}, {"type": "node", "id": 3478281199, "lat": 45.7701529, "lon": 4.8517897, "tags": {"brand": "Intermarch\u00e9", "name": "Intermarch\u00e9", "opening_hours": "Mo-Sa 08:30-20:00; Su 09:00-12:30", "shop": "supermarket"}}, {"type": "node", "id": 3554375917, "lat": 45.7659056, "lon": 4.8331471, "tags": {"brand": "Super U", "brand:wikidata": "Q2529029", "brand:wikipedia": "en:Syst\u00e8me U", "name": "Super U", "opening_hours": "Mo-Sa 07:00-21:00; Su 08:30-21:00", "ref:FR:SIRET": "57375061900302", "shop": "supermarket", "wheelchair": "yes"}}, {"type": "node", "id": 3593848278, "lat": 45.7482302, "lon": 4.8411717, "tags": {"access:covid19": "yes", "contact:facebook": "https://www.facebook.com/epicerie.bulgar", "delivery:covid19": "no", "drive_through:covid19": "no", "name": "Vel Market", "phone": "+33 7 82 17 66 17", "shop": "supermarket"}}, {"type": "node", "id": 3814600484, "lat": 45.7756651, "lon": 4.8273632, "tags": {"brand": "U Express", "brand:wikidata": "Q2529029", "level": "0", "name": "Courses U - Point Drive", "opening_hours": "Mo-Sa 08:30-20:00; Su 09:00-13:00", "operator": "U EXPRESS", "phone": "+33 4 78 98 90 74", "shop": "supermarket", "website": "https://www.coursesu.com/lyoncroixrousse/AccueilMagasin/_mag"}}, {"type": "node", "id": 3815215086, "lat": 45.7314469, "lon": 4.8341504, "tags": {"branch": "Gerland", "brand": "Naturalia", "brand:wikidata": "Q3337081", "bulk_purchase": "yes", "name": "Naturalia", "opening_hours": "Mo-Sa 09:00-20:00", "organic": "only", "phone": "+33 4 28 38 59 64", "shop": "supermarket", "website": "https://magasins.naturalia.fr/naturalia/fr/store/france/auvergne-rhone-alpes/rhone/lyon/lyon-gerland/4080", "wheelchair": "yes"}}, {"type": "node", "id": 3833020956, "lat": 45.7568855, "lon": 4.8659788, "tags": {"brand": "Intermarch\u00e9", "brand:wikidata": "Q3153200", "brand:wikipedia": "fr:Intermarch\u00e9", "check_date:opening_hours": "2024-05-24", "name": "Intermarch\u00e9 Express", "opening_hours": "Mo-Sa 08:30-20:30, Su 09:00-12:30", "operator": "Groupement des Mousquetaires", "payment:cash": "yes", "payment:contactless": "yes", "payment:mastercard": "yes", "payment:meal_voucher": "yes", "payment:visa": "yes", "ref": "06813", "ref:FR:SIRET": "53434257100013", "shop": "supermarket", "website": "https://www.intermarche.com/magasins/06813/Lyon-69003/infos-pratiques", "wheelchair": "yes"}}, {"type": "node", "id": 4095258376, "lat": 45.7791297, "lon": 4.8284306}, {"type": "node", "id": 4095258380, "lat": 45.77913, "lon": 4.8281275}, {"type": "node", "id": 4235506692, "lat": 45.7568602, "lon": 4.8337829, "tags": {"brand": "Monoprix", "brand:wikidata": "Q3321241", "brand:wikipedia": "fr:Monoprix (France)", "name": "Monoprix", "opening_hours": "Mo-Sa 08:00-22:50; Su 09:00-20:50", "phone": "+33 4 72 31 31 20", "ref:FR:SIRET": "44465668000865", "shop": "supermarket", "website": "https://www.monoprix.fr/1985.html"}}, {"type": "node", "id": 4248834219, "lat": 45.7761671, "lon": 4.8003468, "tags": {"brand": "Intermarch\u00e9", "brand:wikidata": "Q3153200", "brand:wikipedia": "fr:Intermarch\u00e9", "check_date:opening_hours": "2024-03-10", "diet:halal": "yes", "name": "Intermarch\u00e9", "opening_hours": "Mo-Sa 08:30-21:00; Su 09:00-12:30", "operator": "Groupement des Mousquetaires", "ref:FR:SIRET": "79533892000031", "shop": "supermarket", "website": "https://www.intermarche.com/magasin", "wheelchair": "yes"}}, {"type": "node", "id": 4257913491, "lat": 45.7597036, "lon": 4.8346813, "tags": {"brand": "Casino", "brand:wikidata": "Q89029184", "name": "Casino", "opening_hours": "Mo-Sa 08:00-22:00, Su 10:00-22:00", "ref:FR:SIRET": "82370179200017", "shop": "supermarket", "survey:date": "2023-08-21"}}, {"type": "node", "id": 4374080291, "lat": 45.7799834, "lon": 4.8326335, "tags": {"branch": "Lyon Janin", "brand": "Carrefour City", "brand:wikidata": "Q2940187", "name": "Carrefour City", "opening_hours": "Mo-Sa 07:00-22:00; Su 09:00-20:00", "ref:FR:SIRET": "80422842700014", "shop": "supermarket", "website": "https://www.carrefour.fr/magasin/city-lyon-janin", "wheelchair": "yes"}}, {"type": "node", "id": 4399040969, "lat": 45.767359, "lon": 4.8310335, "tags": {"branch": "des Terreaux", "brand": "Biocoop", "brand:wikidata": "Q2904039", "brand:wikipedia": "fr:Biocoop", "bulk_purchase": "yes", "check_date:opening_hours": "2024-09-06", "contact:city": "Lyon 1er Arrondissement", "contact:housenumber": "13", "contact:phone": "+33 4 72 45 88 50", "contact:postcode": "69001", "contact:street": "Rue d'Alg\u00e9rie", "name": "Biocoop", "official_name": "Biocoop Lyon Terreaux", "opening_hours": "Mo-Sa 09:00-19:30", "organic": "only", "ref:FR:SIRET": "81919848200013", "shop": "supermarket", "website": "https://www.biocooplyonterreaux.com", "wheelchair": "no"}}, {"type": "node", "id": 4413930417, "lat": 45.7448492, "lon": 4.8668437, "tags": {"brand": "Biocoop", "brand:wikidata": "Q2904039", "brand:wikipedia": "fr:Biocoop", "bulk_purchase": "yes", "check_date": "2022-08-22", "check_date:opening_hours": "2023-09-09", "contact:city": "Lyon 8eme Arrondissement", "contact:housenumber": "80", "contact:phone": "+33 4 78 74 68 39", "contact:postcode": "69008", "contact:street": "Avenue des Fr\u00e8res Lumi\u00e8re", "currency:XLT": "GONT", "internet_access": "no", "name": "Biocoop Lyon Lumi\u00e8re", "opening_hours": "Mo-Sa 09:00-19:30", "organic": "only", "payment:american_express": "yes", "payment:cash:XLT-GONT": "yes", "payment:credit_cards": "yes", "payment:mastercard": "yes", "payment:visa": "yes", "ref:FR:NAF": "4711B", "ref:FR:SIRET": "81129286100010", "shop": "supermarket", "website": "https://www.biocooplyonlumiere.fr", "wheelchair": "yes"}}, {"type": "node", "id": 4432936682, "lat": 45.7695964, "lon": 4.8526371, "tags": {"brand": "Naturalia", "brand:wikidata": "Q3337081", "brand:wikipedia": "fr:Naturalia", "check_date:opening_hours": "2023-08-29", "name": "Naturalia Vitton", "opening_hours": "Mo-Sa 09:00-20:00", "organic": "only", "phone": "+33 4 37 51 58 24", "ref:FR:SIRET": "30247464801274", "shop": "supermarket", "toilets:wheelchair": "no", "website": "https://magasins.naturalia.fr/produits-bio/lyon-vitton/3937", "wheelchair": "yes"}}, {"type": "node", "id": 4432968086, "lat": 45.7629384, "lon": 4.8365056, "tags": {"brand": "Naturalia", "brand:wikidata": "Q3337081", "brand:wikipedia": "fr:Naturalia", "check_date:opening_hours": "2024-02-03", "name": "Naturalia Lyon Grol\u00e9e", "opening_hours": "Mo-Sa 09:00-20:00", "organic": "only", "phone": "+33 4 78 38 12 55", "ref:FR:SIRET": "30247464800722", "shop": "supermarket", "survey:date": "2022-12-27", "website": "https://magasins.naturalia.fr/produits-bio/lyon-grolee/3867"}}, {"type": "node", "id": 4434067618, "lat": 45.7789256, "lon": 4.8323576, "tags": {"brand": "L'Eau Vive", "brand:website": "https://www.eau-vive.com/magasin-bio/", "brand:wikidata": "Q89200423", "bulk_purchase": "yes", "check_date:opening_hours": "2023-04-15", "name": "L'Eau Vive", "opening_hours": "Mo-Sa 09:00-19:30", "organic": "only", "phone": "+33 4 78 27 93 96", "ref:FR:SIRET": "95000937300255", "shop": "supermarket", "website": "https://www.eau-vive.com/"}}, {"type": "node", "id": 4434068984, "lat": 45.7691119, "lon": 4.8498692, "tags": {"brand": "L'Eau Vive", "brand:wikidata": "Q89200423", "name": "L'eau Vive", "opening_hours": "Mo-Sa 09:00-19:30; Su 09:00-13:00", "organic": "only", "phone": "+33 4 37 24 10 22", "ref:FR:SIRET": "95000937300115", "shop": "supermarket", "supermarket": "organic", "website": "https://www.eau-vive.com/"}}, {"type": "node", "id": 4434075923, "lat": 45.7706567, "lon": 4.8498226, "tags": {"brand": "Carrefour City", "brand:wikidata": "Q2940187", "name": "Carrefour City", "opening_hours": "Mo-Sa 07:00-22:00; Su 09:00-13:00", "ref:FR:SIRET": "82495580100033", "shop": "supermarket", "website": "https://www.carrefour.fr/magasin/city-lyon-garibaldi"}}, {"type": "node", "id": 4434078950, "lat": 45.7650821, "lon": 4.8360876, "tags": {"addr:city": "Lyon", "addr:housenumber": "17", "addr:postcode": "69002", "addr:street": "Rue de la R\u00e9publique", "brand": "Carrefour City", "brand:wikidata": "Q2940187", "brand:wikipedia": "fr:Carrefour City", "name": "Carrefour City", "opening_hours": "Mo-Sa 07:00-22:00; Su 09:00-13:00", "payment:debit_cards": "yes", "ref:FR:SIRET": "49138770000041", "shop": "supermarket", "website": "https://www.carrefour.fr/magasin/city-lyon-republique", "wheelchair": "no"}}, {"type": "node", "id": 4436571189, "lat": 45.7661458, "lon": 4.8320129, "tags": {"internet_access": "wlan", "name": "March\u00e9 Presqu'\u00eele", "opening_hours": "Mo-Sa 07:30-21:00; Su 09:00-21:00", "shop": "supermarket", "wheelchair": "limited"}}, {"type": "node", "id": 4514407990, "lat": 45.7749549, "lon": 4.8335813, "tags": {"branch": "du Gros Caillou", "brand": "Biocoop", "brand:wikidata": "Q2904039", "brand:wikipedia": "fr:Biocoop", "bulk_purchase": "yes", "check_date:opening_hours": "2023-12-23", "contact:city": "Lyon 4eme Arrondissement", "contact:housenumber": "1", "contact:phone": "+33 4 37 40 87 75", "contact:postcode": "69004", "contact:street": "Rue Aim\u00e9 Boussange", "name": "Biocoop", "opening_hours": "Mo-Sa 09:00-19:30", "organic": "only", "ref:FR:SIRET": "82113928400011", "shop": "supermarket", "website": "https://www.biocoopdugroscaillou.fr", "wheelchair": "yes"}}, {"type": "node", "id": 4524766589, "lat": 45.7693906, "lon": 4.8568502, "tags": {"brand": "Monoprix", "brand:wikidata": "Q3321241", "brand:wikipedia": "fr:Monoprix (France)", "name": "Monoprix", "opening_hours": "Mo-Sa 07:30-22:50; Su 08:00-20:50", "phone": "+33 4 78 78 86 70", "ref:FR:SIRET": "44465668000782", "shop": "supermarket", "website": "https://www.monoprix.fr/1813.html"}}, {"type": "node", "id": 4595371090, "lat": 45.7653965, "lon": 4.8364032, "tags": {"brand": "Auchan", "brand:wikidata": "Q758603", "brand:wikipedia": "fr:Auchan", "name": "A2Pas Auchan", "opening_hours": "Mo-Sa 07:30-21:50; Su 09:00-13:20,15:00-19:50", "phone": "+33472101285", "ref:FR:SIRET": "79187733500012", "shop": "supermarket", "wheelchair": "yes"}}, {"type": "node", "id": 4682000649, "lat": 45.7441819, "lon": 4.8482552, "tags": {"access:covid19": "yes", "addr:housenumber": "377", "addr:postcode": "69007", "addr:street": "Rue Garibaldi", "brand": "Intermarch\u00e9", "brand:wikidata": "Q3153200", "brand:wikipedia": "fr:Intermarch\u00e9", "name": "Intermarch\u00e9", "opening_hours": "Mo-Sa 08:30-20:30; Su 09:00-12:30", "phone": "04 37 65 40 07", "ref:FR:SIRET": "82046657100016", "shop": "supermarket", "website": "https://www.intermarche.com"}}, {"type": "node", "id": 4895707224, "lat": 45.7489435, "lon": 4.8421476, "tags": {"branch": "City Lyon Universit\u00e9", "brand": "Auchan Supermarch\u00e9", "brand:website": "https://www.auchan.fr/magasins-rayons-marques-auchan/e-magasins-rayons-marques-auchan", "brand:wikidata": "Q105857776", "brand:wikipedia": "fr:Auchan Supermarch\u00e9", "check_date:opening_hours": "2024-09-07", "name": "Auchan Supermarch\u00e9 City Lyon Universit\u00e9", "opening_hours": "Mo-Su 08:30-20:30", "opening_hours:url": "https://www.auchan.fr/magasins/supermarche-city-lyon-universite/sl-1380", "phone": "+33 4 37 28 15 66", "ref:FR:SIRET": "41040901503935", "shop": "supermarket", "website": "https://www.auchan.fr/magasins/supermarche-city-lyon-universite/sl-1380"}}, {"type": "node", "id": 4947500783, "lat": 45.7617898, "lon": 4.8034682, "tags": {"addr:housenumber": "90", "source": "cadastre-dgfip-fr source : Direction G\u00e9n\u00e9rale des Finances Publiques - Cadastre. Mise \u00e0 jour : 2017"}}, {"type": "node", "id": 5039727655, "lat": 45.7501749, "lon": 4.8854483, "tags": {"addr:city": "Lyon", "addr:housenumber": "10", "addr:postcode": "69003", "addr:street": "Rue Louise", "brand": "Carrefour City", "brand:wikidata": "Q2940187", "brand:wikipedia": "fr:Carrefour City", "check_date:opening_hours": "2023-10-25", "name": "Carrefour City", "opening_hours": "Mo-Sa 07:00-22:00; Su 09:00-13:00", "phone": "+33 472127442", "ref:FR:SIRET": "80761371600016", "shop": "supermarket", "website": "https://www.carrefour.fr/magasin/city-lyon-louise"}}, {"type": "node", "id": 5262323673, "lat": 45.7528407, "lon": 4.8273039, "tags": {"brand": "Spar", "brand:wikidata": "Q610492", "brand:wikipedia": "en:Spar (retailer)", "name": "Spar", "opening_hours": "Mo-Su 07:00-22:30", "phone": "+33478599052", "ref:FR:SIRET": "80465317800017", "shop": "supermarket", "website": "https://www.spar.fr/"}}, {"type": "node", "id": 5707014061, "lat": 45.753205, "lon": 4.8566897, "tags": {"brand": "L'Eau Vive", "brand:website": "https://www.eau-vive.com/magasin-bio/", "brand:wikidata": "Q89200423", "check_date:opening_hours": "2024-04-30", "name": "L'Eau Vive", "opening_hours": "Mo-Sa 09:00-19:30; Su 09:00-12:30", "organic": "only", "ref:FR:SIRET": "95000937300313", "shop": "supermarket", "wheelchair": "yes"}}, {"type": "node", "id": 5757050025, "lat": 45.7436922, "lon": 4.8716775, "tags": {"brand": "Franprix", "check_date": "2023-06-24", "level": "0", "opening_hours": "Mo-Sa 07:30-21:00; Su 09:00-21:00", "payment:debit_cards": "yes", "shop": "supermarket", "wheelchair": "yes"}}, {"type": "node", "id": 5825534303, "lat": 45.742118, "lon": 4.8206865, "tags": {"brand": "La Vie Claire", "brand:wikidata": "Q3213589", "brand:wikipedia": "fr:La Vie Claire", "bulk_purchase": "yes", "contact:facebook": "https://www.facebook.com/Lavieclaire", "name": "La Vie Claire", "opening_hours": "Mo-Sa 09:30-19:30; Su 09:30-12:30", "organic": "only", "phone": "+33 4 72 31 25 79", "ref:FR:SIRET": "63200001402023", "shop": "supermarket", "website": "https://www.lavieclaire.com/magasin-bio/lyon-charlemagne.html"}}, {"type": "node", "id": 5849790128, "lat": 45.7740912, "lon": 4.8081135, "tags": {"brand": "Carrefour Express", "brand:wikidata": "Q2940190", "brand:wikipedia": "fr:Carrefour Express", "check_date:opening_hours": "2023-04-26", "name": "Carrefour Express Lyon Vaise", "opening_hours": "Mo-Sa 08:00-21:00; Su 09:00-20:00", "phone": "+33 4 78 34 25 24", "ref:FR:SIRET": "85092641100016", "shop": "supermarket", "website": "https://www.carrefour.fr/magasin/express-lyon-vaise"}}, {"type": "node", "id": 5875917721, "lat": 45.7694259, "lon": 4.850764, "tags": {"brand": "La Vie Claire", "brand:wikidata": "Q3213589", "brand:wikipedia": "fr:La Vie claire", "bulk_purchase": "yes", "check_date": "2024-02-02", "contact:facebook": "https://www.facebook.com/Lavieclaire", "name": "La Vie Claire", "opening_hours": "Mo-Sa 09:00-20:00; Su 09:00-12:45", "organic": "only", "phone": "+33 4 72 44 01 08", "ref:FR:SIRET": "63200001401934", "shop": "supermarket", "website": "https://www.lavieclaire.com/magasin-bio/lyon-vitton.html", "wheelchair": "yes"}}, {"type": "node", "id": 5892413115, "lat": 45.7620303, "lon": 4.8040616}, {"type": "node", "id": 5892413116, "lat": 45.7620527, "lon": 4.8040308}, {"type": "node", "id": 6061716572, "lat": 45.7454697, "lon": 4.8646038, "tags": {"brand": "Bio C' Bon", "brand:wikidata": "Q54312551", "brand:wikipedia": "fr:Bio c'bon", "bulk_purchase": "yes", "contact:facebook": "https://www.facebook.com/biocbonfrance/", "name": "Bio C' Bon", "opening_hours": "Mo-Sa 09:30-20:00; Su 09:30-13:00", "organic": "only", "phone": "+33 4 78 76 54 87", "ref:FR:SIRET": "82495580100041", "shop": "supermarket", "website": "https://bio-c-bon.eu/fr/nos_magasins/bio-c-bon-lyon-lumiere"}}, {"type": "node", "id": 6208181996, "lat": 45.7499387, "lon": 4.8388102, "tags": {"brand": "Super U", "brand:wikidata": "Q2529029", "brand:wikipedia": "fr:Syst\u00e8me U", "contact:website": "https://www.magasins-u.com/magasin/uexpress-lyonuniversite", "name": "U Express Lyon Universit\u00e9", "opening_hours": "Mo-Sa 08:30-20:30; Su 09:30-13:00", "phone": "+33 4 72 72 13 01", "shop": "supermarket", "survey:date": "2020-12-25", "wheelchair": "yes"}}, {"type": "node", "id": 6223336252, "lat": 45.7756018, "lon": 4.8037413, "tags": {"brand": "Biocoop", "brand:wikidata": "Q2904039", "brand:wikipedia": "fr:Biocoop", "bulk_purchase": "yes", "contact:city": "Lyon 9eme Arrondissement", "contact:housenumber": "40", "contact:phone": "+33 9 86 53 51 15", "contact:postcode": "69009", "contact:street": "Rue Marietton", "name": "Biocoop", "official_name": "Biocoop Valmy", "opening_hours": "Mo-We 08:30-19:30; Th 08:30-14:00, 15:30-19:30; Fr-Sa 08:30-19:30", "organic": "only", "ref:FR:SIRET": "83158283800015", "shop": "supermarket", "website": "https://www.biocooplyonvalmy.fr"}}, {"type": "node", "id": 6237848151, "lat": 45.7565794, "lon": 4.8540756, "tags": {"contact:facebook": "1315vithuran", "name": "Indian Tamoul Khaday", "shop": "supermarket", "wikimedia_commons": "File:Sup\u00e9rette Indian Tamoul Khaday - Rue L\u00e9on Jouhaux (Lyon).jpg"}}, {"type": "node", "id": 6293908557, "lat": 45.7499076, "lon": 4.8512177, "tags": {"branch": "Lyon Guilloti\u00e8re", "brand": "La Vie Claire", "brand:wikidata": "Q3213589", "brand:wikipedia": "fr:La Vie claire", "check_date:opening_hours": "2024-05-29", "name": "La Vie Claire", "opening_hours": "Mo-Sa 09:00-20:00; Su 09:00-12:30", "organic": "only", "ref:FR:SIRET": "63200001402254", "shop": "supermarket", "website": "https://magasins.lavieclaire.com/lavieclaire/fr/boutique/france/auvergne-rhone-alpes/rhone/lyon/lyon-guillotiere/la3855", "wheelchair": "yes"}}, {"type": "node", "id": 6383821109, "lat": 45.7634514, "lon": 4.8435682, "tags": {"brand": "Casino", "brand:wikidata": "Q89029184", "name": "Casino", "ref:FR:SIRET": "82201430400015", "shop": "supermarket"}}, {"type": "node", "id": 6423318172, "lat": 45.7300231, "lon": 4.8330531, "tags": {"brand": "Vival", "brand:wikidata": "Q7937525", "check_date:opening_hours": "2024-06-03", "name": "Vival by Casino", "opening_hours": "Mo-Su,PH 08:00-23:30", "operator": "Vival", "phone": "+33 5 62 69 33 76", "ref:FR:SIRET": "43227372000024", "shop": "supermarket", "website": "https://magasins.vival.fr/fr/vival-lyon-jean-jaures"}}, {"type": "node", "id": 6438136725, "lat": 45.7641615, "lon": 4.8581132, "tags": {"addr:city": "Lyon", "addr:housenumber": "68", "addr:postcode": "69006", "addr:street": "Rue Waldeck-Rousseau", "branch": "Brotteaux", "brand": "Biocoop", "brand:wikidata": "Q2904039", "brand:wikipedia": "fr:Biocoop", "bulk_purchase": "yes", "check_date": "2023-02-07", "contact:facebook": "https://www.facebook.com/BiocoopBrotteaux/", "name": "Biocoop", "opening_hours": "Mo-Su 08:30-19:30; PH 09:30-14:00,16:00-19:30", "organic": "only", "payment:mastercard": "yes", "payment:visa": "yes", "phone": "+33 4 78 26 65 88", "ref:FR:SIRET": "83470792900016", "shop": "supermarket", "website": "https://www.biocoop.fr/magasins-bio/Trouver-mon-magasin-Biocoop/Auvergne-Rhone-Alpes/Rhone/BIOCOOP-BROTTEAUX", "wheelchair": "yes"}}, {"type": "node", "id": 6520963385, "lat": 45.7500163, "lon": 4.8397412, "tags": {"check_date:opening_hours": "2024-09-27", "food": "asian", "name": "Leaf Market", "opening_hours": "09:00-19:30", "payment:cash": "yes", "payment:credit_cards": "yes", "ref:FR:SIRET": "49487384700045", "shop": "supermarket", "source": "survey", "wheelchair": "yes"}}, {"type": "node", "id": 6578541388, "lat": 45.729182, "lon": 4.8681947, "tags": {"branch": "Lyon \u00c9tats Unis", "brand": "Auchan Supermarch\u00e9", "brand:wikidata": "Q105857776", "brand:wikipedia": "fr:Auchan Supermarch\u00e9", "name": "Auchan Supermarch\u00e9", "shop": "supermarket", "website": "https://www.auchan.fr/magasins/supermarche-lyon-etats-unis/sl-1175"}}, {"type": "node", "id": 6781125935, "lat": 45.7757259, "lon": 4.801301, "tags": {"cuisine": "portuguese", "diet:halal": "yes", "diet:kosher": "no", "name": "Rize", "opening_hours": "Mo-Fr 08:30-12:30,15:00-18:45; Sa 09:00-19:00; PH,Su 09:00-13:00", "ref:FR:SIRET": "80162798500022", "shop": "supermarket", "wheelchair": "no"}}, {"type": "node", "id": 6810798753, "lat": 45.7664184, "lon": 4.8342344, "tags": {"branch": "Lyon Grand Bazar", "brand": "Monoprix", "brand:website": "https://www.monoprix.fr/", "brand:wikidata": "Q3321241", "brand:wikipedia": "en:Monoprix", "name": "Monoprix", "opening_hours": "Mo-Sa 08:30-21:30; Su 09:00-13:00", "phone": "+33 4 37 23 70 20", "ref:FR:SIRET": "44465668000832", "shop": "supermarket", "website": "https://www.monoprix.fr/1963.html", "wheelchair": "yes"}}, {"type": "node", "id": 6837624553, "lat": 45.7582168, "lon": 4.8334103, "tags": {"access:covid19": "yes", "brand": "Biocoop", "brand:wikidata": "Q2904039", "brand:wikipedia": "fr:Biocoop", "check_date": "2024-10-04", "check_date:opening_hours": "2024-10-04", "contact:city": "Lyon 2eme Arrondissement", "contact:facebook": "https://www.facebook.com/biocoopbellecour/", "contact:housenumber": "11", "contact:phone": "+33 4 72 56 82 28", "contact:postcode": "69002", "contact:street": "Place Bellecour", "name": "Biocoop", "opening_hours": "Mo-Su 09:00-20:00", "opening_hours:url": "https://www.biocooplyonbellecour.com/presentation-horaires-itineraires-biocoop-lyon-bellecour.html", "organic": "only", "ref:FR:SIRET": "47957311500025", "shop": "supermarket", "website": "https://www.biocooplyonbellecour.com"}}, {"type": "node", "id": 6916921603, "lat": 45.7693372, "lon": 4.8563272, "tags": {"brand": "Monoprix", "brand:wikidata": "Q3321241", "brand:wikipedia": "fr:Monoprix_(France)", "name": "Monop'", "opening_hours": "Mo-Sa 07:30-24:00; Su 08:00-21:00", "phone": "+33 4 78 78 86 70", "ref:FR:SIRET": "44465668000782", "shop": "supermarket", "website": "https://www.monoprix.fr/1813.html", "wheelchair": "yes"}}, {"type": "node", "id": 6988046244, "lat": 45.7512222, "lon": 4.8308357, "tags": {"brand": "U Express", "brand:wikidata": "Q2529029", "brand:wikipedia": "en:Syst\u00e8me U", "check_date:opening_hours": "2023-10-28", "name": "U Express", "opening_hours": "Mo-Sa 08:00-20:15; Su 09:00-13:00", "phone": "+33 4 78 37 39 62", "ref:FR:SIRET": "31440616600046", "shop": "supermarket", "survey:date": "2023-08-19", "website": "https://www.magasins-u.com/magasin/uexpress-lyon2eme"}}, {"type": "node", "id": 6990619331, "lat": 45.7508265, "lon": 4.8303788, "tags": {"contact:facebook": "https://www.facebook.com/elmonumental.lyon", "description": "Sp\u00e9cialit\u00e9s d'Argentine et d'am\u00e9rique du sud", "email": "contact@el-monumental.fr", "name": "El Monumental", "opening_hours": "Tu-Sa 09:30-13:00, 15:30-19:30", "phone": "+33437575074", "ref:FR:SIRET": "82950389500015", "shop": "supermarket", "survey:date": "2023-08-19", "website": "https://el-monumental.fr/"}}, {"type": "node", "id": 7074267454, "lat": 45.7404009, "lon": 4.8600977, "tags": {"brand": "Intermarch\u00e9", "brand:wikidata": "Q3153200", "brand:wikipedia": "fr:Intermarch\u00e9", "check_date:opening_hours": "2023-04-23", "name": "Intermarch\u00e9 Express", "opening_hours": "Mo-Sa 08:30-20:30; Su 08:30-12:30", "operator": "Groupement des Mousquetaires", "ref:FR:SIRET": "82155756800028", "shop": "supermarket", "wheelchair": "yes"}}, {"type": "node", "id": 7340771132, "lat": 45.7358364, "lon": 4.8534232, "tags": {"air_conditioning": "yes", "branch": "Lyon", "brand": "Intermarch\u00e9 Express", "brand:wikidata": "Q98278043", "check_date": "2022-08-21", "internet_access": "no", "name": "Intermarch\u00e9 Express", "opening_hours": "Mo-Sa 08:00-20:00", "payment:cash": "yes", "payment:visa": "yes", "ref:FR:SIRET": "84200067100011", "shop": "supermarket", "website": "https://www.intermarche.com/magasins/08231/lyon-69008/infos-pratiques", "wheelchair": "yes"}}, {"type": "node", "id": 7416149302, "lat": 45.7490769, "lon": 4.8419486, "tags": {"brand": "La Vie Claire", "brand:wikidata": "Q3213589", "bulk_purchase": "yes", "name": "La Vie Claire Lyon Universit\u00e9", "opening_hours": "Mo-Sa 09:00-20:00; Su 09:00-12:30", "organic": "yes", "phone": "+33437290442", "ref:FR:SIRET": "63200001402270", "shop": "supermarket", "website": "https://magasins.lavieclaire.com/lavieclaire/fr/boutique/france/auvergne-rhone-alpes/rhone/lyon/lyon-universite/la41498", "wheelchair": "yes"}}, {"type": "node", "id": 7505525767, "lat": 45.7443009, "lon": 4.8699531, "tags": {"brand": "La Vie Claire", "brand:wikidata": "Q3213589", "name": "La Vie Claire", "opening_hours": "Mo-Sa 09:00-20:00; Su 09:00-12:30", "organic": "only", "phone": "+33 4 37 90 20 99", "shop": "supermarket", "website": "https://magasins.lavieclaire.com/lavieclaire/fr/store/france/auvergne-rhone-alpes/rhone/lyon/lyon-lumiere/26918"}}, {"type": "node", "id": 7551897547, "lat": 45.7527804, "lon": 4.8530313, "tags": {"name": "Vival", "opening_hours": "Mo-Su 09:00-01:00", "shop": "supermarket"}}, {"type": "node", "id": 7570143721, "lat": 45.769778, "lon": 4.8425705, "tags": {"name": "Culinaries l'\u00e9picerie", "opening_hours": "24/7", "operator": "Culinaries", "ref:FR:SIRET": "83431537600022", "shop": "supermarket"}}, {"type": "node", "id": 7720712167, "lat": 45.7642866, "lon": 4.8450278, "tags": {"brand": "Carrefour City", "brand:wikidata": "Q2940187", "name": "Carrefour City", "opening_hours": "Mo-Sa 07:00-22:00; Su 09:00-13:00", "ref:FR:SIRET": "92166244100010", "shop": "supermarket", "website": "https://www.carrefour.fr/magasin/carrefour-city-lyon-saxe-41"}}, {"type": "node", "id": 7844031135, "lat": 45.7573482, "lon": 4.8358756, "tags": {"brand": "Vival", "brand:wikidata": "Q7937525", "brand:wikipedia": "en:Vival (shop)", "check_date:opening_hours": "2024-04-17", "name": "Vival", "opening_hours": "Mo-Th 00:00-01:00,07:00-24:00; Fr-Sa 00:00-03:00,07:00-24:00; Su 00:00-01:00,07:00-24:00", "opening_hours:signed": "no", "shop": "supermarket", "survey:date": "2023-08-19", "website": "https://magasins.vival.fr/fr/vival-lyon-barre"}}, {"type": "node", "id": 7890721622, "lat": 45.7697307, "lon": 4.8534732, "tags": {"brand:wikidata": "Q101278163", "check_date": "2023-05-07", "check_date:opening_hours": "2024-02-02", "contact:facebook": "Voie-Verte-Le-Primeur-Traiteur-400137220024404", "name": "Voie Verte", "opening_hours": "Mo-Sa 08:30-19:30; Su 09:00-13:00", "phone": "+33 4 78 89 87 72", "ref:FR:SIRET": "74995403800073", "shop": "supermarket", "website": "https://www.voieverte.fr/"}}, {"type": "node", "id": 7998023434, "lat": 45.7454531, "lon": 4.8204043, "tags": {"name": "Lola en vrac", "opening_hours": "Mo-Fr 09:00-17:00", "shop": "supermarket"}}, {"type": "node", "id": 8018629874, "lat": 45.7635556, "lon": 4.8547601, "tags": {"email": "marche.asie.lafayette@gmail.com", "mobile": "+33 6 52 81 11 77", "name": "March\u00e9 d'Asie Lafayette", "opening_hours": "Mo-Sa 9:30-19:45", "origin": "asian", "phone": "+33 9 51 39 31 78", "ref:FR:SIRET": "83232765400014", "shop": "supermarket"}}, {"type": "node", "id": 8126748622, "lat": 45.7525326, "lon": 4.8406248, "tags": {"access:covid19": "yes", "name": "Supermarch\u00e9 International", "shop": "supermarket", "survey:date": "2020-11-16"}}, {"type": "node", "id": 8137606622, "lat": 45.7415834, "lon": 4.8157944, "tags": {"brand": "Normal", "brand:wikidata": "Q19562429", "level": "0", "name": "Normal", "opening_hours": "Mo-Fr 09:00-17:00", "phone": "+33 6 02 12 67 25", "ref:FR:SIRET": "84443148600118", "shop": "supermarket", "website": "https://www.normal.fr/magasins/lyon-confluence/", "wheelchair": "yes"}}, {"type": "node", "id": 8162375699, "lat": 45.7459212, "lon": 4.8232943, "tags": {"brand": "Biocoop", "brand:wikidata": "Q2904039", "brand:wikipedia": "fr:Biocoop", "bulk_purchase": "yes", "contact:city": "Lyon 2eme Arrondissement", "contact:housenumber": "42", "contact:phone": "+33 4 28 29 70 07", "contact:postcode": "69002", "contact:street": "Cours Charlemagne", "name": "Biocoop", "official_name": "Biocoop Confluence", "opening_hours": "Mo-Sa 09:00-19:30", "organic": "only", "ref:FR:SIRET": "88508965600015", "shop": "supermarket", "website": "https://www.biocoop-confluence.fr"}}, {"type": "node", "id": 8180762218, "lat": 45.7571417, "lon": 4.8440962, "tags": {"name": "Dar-Essalam", "shop": "supermarket", "survey:date": "2020-11-30"}}, {"type": "node", "id": 8261875017, "lat": 45.7474972, "lon": 4.8342886, "tags": {"brand": "Vival", "brand:wikidata": "Q7937525", "brand:wikipedia": "en:Vival (shop)", "name": "Vival", "shop": "supermarket", "survey:date": "2020-12-26"}}, {"type": "node", "id": 8267702117, "lat": 45.7564036, "lon": 4.84712, "tags": {"brand": "U Express", "brand:wikidata": "Q2529029", "brand:wikipedia": "en:Syst\u00e8me U", "name": "U Express", "opening_hours": "Mo-Sa 08:30-20:30; Su 09:00-13:00", "phone": "+33 4 37 45 45 35", "shop": "supermarket", "survey:date": "2020-12-28", "website": "https://www.magasins-u.com/magasin/uexpress-saxevendome"}}, {"type": "node", "id": 8327652788, "lat": 45.7590748, "lon": 4.8676152, "tags": {"brand": "Utile", "check_date": "2024-01-21", "opening_hours": "Mo-Sa 07:30-20:30; Su 08:30-13:00", "shop": "supermarket"}}, {"type": "node", "id": 8342678217, "lat": 45.7658078, "lon": 4.8442844, "tags": {"brand": "Auchan Drive", "brand:wikidata": "Q2870659", "brand:wikipedia": "fr:Auchan Drive", "name": "Auchan Drive", "shop": "supermarket"}}, {"type": "node", "id": 8653047542, "lat": 45.7778379, "lon": 4.8349115, "tags": {"brand": "Auchan Drive", "brand:wikidata": "Q2870659", "brand:wikipedia": "fr:Auchan Drive", "drive_through": "only", "name": "Auchan Drive", "opening_hours": "Mo-Sa 10:00-21:00", "shop": "supermarket"}}, {"type": "node", "id": 8938686592, "lat": 45.753097, "lon": 4.8294895, "tags": {"brand": "U Express", "brand:wikidata": "Q2529029", "brand:wikipedia": "en:Syst\u00e8me U", "name": "U Express", "opening_hours": "Mo-Sa 07:00-22:00, Su 09:00-21:00", "payment:cards": "yes", "payment:cash": "yes", "phone": "+33 4 37 23 57 58", "shop": "supermarket", "website": "https://www.magasins-u.com/magasin/uexpress-lyonrempartsdainay"}}, {"type": "node", "id": 9162362344, "lat": 45.7403493, "lon": 4.8204972, "tags": {"brand": "Rue des producteurs", "delivery": "yes", "opening_hours": "Tu, We, Fr 10:30-14:00, 16:00-19:30; Sa 09:30-13:30, 14:30-19:30", "shop": "supermarket", "website": "https://www.ruedesproducteurs.fr"}}, {"type": "node", "id": 9211730369, "lat": 45.731193, "lon": 4.83118, "tags": {"addr:housenumber": "68", "addr:postcode": "69007", "addr:street": "Avenue Debourg", "branch": "Lyon Debourg", "brand": "Intermarch\u00e9 Super", "brand:wikidata": "Q98278038", "name": "Intermarch\u00e9 Super", "opening_hours": "Mo-Sa 08:00-20:30; Su 09:00-12:45", "phone": "0487648400", "shop": "supermarket", "start_date": "2023-10-16", "website": "https://www.intermarche.com/magasins/10727/Lyon-69007/infos-pratiques", "wheelchair": "yes"}}, {"type": "node", "id": 9260972978, "lat": 45.7481417, "lon": 4.8389117, "tags": {"brand": "Biocoop", "brand:wikidata": "Q2904039", "brand:wikipedia": "fr:Biocoop", "check_date:opening_hours": "2024-09-13", "name": "Biocoop", "opening_hours": "Mo-Sa 09:00-19:30", "shop": "supermarket"}}, {"type": "node", "id": 9392236547, "lat": 45.7371251, "lon": 4.8663615, "tags": {"brand": "Netto", "brand:wikidata": "Q2720988", "check_date": "2024-08-24", "name": "Netto", "opening_hours": "Mo-Sa 08:00-20:00; Su 08:30-19:00", "payment:cash": "yes", "payment:credit_cards": "yes", "payment:visa": "yes", "phone": "+33 4 78 00 40 40", "shop": "supermarket", "website": "https://magasin.netto.fr/562-netto-intermarche-berthelot-lyon-8"}}, {"type": "node", "id": 9828387326, "lat": 45.7765202, "lon": 4.8296903, "tags": {"access": "customers", "door": "overhead", "entrance": "parking", "est_width": "5", "level": "-1"}}, {"type": "node", "id": 9832230073, "lat": 45.761017, "lon": 4.8713767, "tags": {"addr:city": "Lyon", "addr:housenumber": "17", "addr:postcode": "69003", "addr:street": "Rue Claudius Pionchon", "facebook": "https://fr-fr.facebook.com/HyperCacher-Lyon-300365033423619/", "name": "HyperCacher", "opening_hours": "Mo-Th 08:30-20:00; Fr 08:30-15:00; Su 09:00-14:00", "phone": "+33 4 78 85 00 80", "shop": "supermarket"}}, {"type": "node", "id": 9956768817, "lat": 45.7630276, "lon": 4.8664467, "tags": {"brand": "Lidl", "brand:wikidata": "Q151954", "name": "Lidl", "opening_hours": "Mo-Sa 08:30-20:30; Su 08:30-12:15", "shop": "supermarket"}}, {"type": "node", "id": 10303078327, "lat": 45.7497177, "lon": 4.8848148, "tags": {"check_date": "2023-01-03", "description": "Produit locaux et bio, fruits et l\u00e9gumes, \u00e9picerie", "name": "R\u00e9colte Locale", "opening_hours": "Mo 15:00-19:30; Tu-Sa 09:00-13:30,15:00-19:30; Su off", "organic": "only", "shop": "supermarket", "wheelchair": "limited"}}, {"type": "node", "id": 10304509473, "lat": 45.7591776, "lon": 4.8467208, "tags": {"brand": "Auchan Drive", "brand:wikidata": "Q2870659", "name": "Auchan Drive", "opening_hours": "Mo-Sa 10:00-21:00", "phone": "+33481652559", "shop": "supermarket", "website": "https://www.auchan.fr/magasins/click-and-collect/auchan-pieton-lyon-guichard/s-10053"}}, {"type": "node", "id": 10706992143, "lat": 45.7298445, "lon": 4.8310453, "tags": {"branch": "Lyon Challemel Lacour", "brand": "La Vie Claire", "brand:wikidata": "Q3213589", "name": "La Vie Claire Lyon Challemel Lacour", "opening_hours": "Mo-Sa 09:00-20:00", "organic": "only", "phone": "+33 4 37 24 00 22", "shop": "supermarket", "website": "https://magasins.lavieclaire.com/lavieclaire/fr/store/france/auvergne-rhone-alpes/rhone/lyon/lyon-challemel-lacour/26919"}}, {"type": "node", "id": 10965863105, "lat": 45.7569469, "lon": 4.8562615, "tags": {"name": "U Lyon Part Dieu", "opening_hours": "Mo-Sa 07:00-21:00; Su 08:30-13:00", "shop": "supermarket"}}, {"type": "node", "id": 12018362419, "lat": 45.7753597, "lon": 4.8034685, "tags": {"name": "Aldi", "shop": "supermarket"}}, {"type": "node", "id": 12237379460, "lat": 45.7276458, "lon": 4.8865804, "tags": {"addr:floor": "0", "brand": "Casino Shop", "brand:wikidata": "Q89029601", "check_date": "2024-10-09", "level": "0", "name": "Casino Shop", "payment:cash": "yes", "payment:credit_cards": "yes", "payment:debit_cards": "yes", "shop": "supermarket"}}, {"type": "node", "id": 12255426280, "lat": 45.7593179, "lon": 4.8592106}, {"type": "node", "id": 12255426281, "lat": 45.7593081, "lon": 4.859112}, {"type": "node", "id": 12255426284, "lat": 45.7593236, "lon": 4.8590302}, {"type": "node", "id": 12255426285, "lat": 45.7593315, "lon": 4.859108}, {"type": "node", "id": 12255426337, "lat": 45.7591476, "lon": 4.8590637}, {"type": "node", "id": 12255426338, "lat": 45.7591485, "lon": 4.8590852}, {"type": "node", "id": 12255426339, "lat": 45.7590246, "lon": 4.859108}, {"type": "node", "id": 12255426340, "lat": 45.7590288, "lon": 4.8591556}, {"type": "node", "id": 12255426341, "lat": 45.7589567, "lon": 4.8591696}, {"type": "node", "id": 12255426342, "lat": 45.7589675, "lon": 4.8592836}, {"type": "way", "id": 22596491, "nodes": [242388522, 988178235, 988178246, 988178233, 988178242, 9828387326, 988178230, 988178231, 988178245, 242388523, 242388524, 1171866997, 1171868268, 242388526, 242388522], "tags": {"brand": "Monoprix", "brand:wikidata": "Q3321241", "brand:wikipedia": "fr:Monoprix (France)", "building": "retail", "building:levels": "3", "check_date:opening_hours": "2023-12-09", "name": "Monoprix", "opening_hours": "Mo-Sa 08:00-21:00; Su 09:00-19:30", "operator": "Groupe Casino", "phone": "+33 4 78 27 01 67", "ref:FR:SIRET": "55208329700770", "roof:shape": "flat", "shop": "supermarket", "website": "https://www.monoprix.fr/321.html", "wheelchair": "yes"}}, {"type": "way", "id": 103506582, "nodes": [1195169252, 4095258376, 1195171518, 1195170705, 1195171209, 1195171590, 1195169306, 1195168618, 1195171071, 1195171272, 1195171442, 1195169835, 1195171751, 1195168637, 1195170594, 1195170072, 1195171595, 1195171365, 1195171634, 1195169156, 4095258380, 1195170140, 1195171592, 1195169252], "tags": {"air_conditioning": "yes", "brand": "Intermarch\u00e9 Express", "brand:wikidata": "Q98278043", "brand:wikipedia": "fr:Intermarch\u00e9", "building": "retail", "building:levels": "2", "check_date:opening_hours": "2023-06-25", "name": "Intermarch\u00e9 Express", "opening_hours": "Mo-Sa 08:00-20:00; Su 09:00-13:00", "operator": "Groupement des Mousquetaires", "ref:FR:SIRET": "53008565300018", "roof:shape": "saltbox", "shop": "supermarket", "source": "cadastre-dgi-fr source : Direction G\u00e9n\u00e9rale des Imp\u00f4ts - Cadastre. Mise \u00e0 jour : 2010", "stroller": "yes", "supermarket": "yes", "supermarket:FR": "supermarch\u00e9", "website": "https://www.intermarche.com/", "wheelchair": "yes"}}, {"type": "way", "id": 125085451, "nodes": [1390105814, 1390105772, 1390105747, 1390105748, 1390105835, 1390105833, 1390105814], "tags": {"building": "retail", "shop": "supermarket", "source": "cadastre-dgi-fr source : Direction G\u00e9n\u00e9rale des Imp\u00f4ts - Cadastre. Mise \u00e0 jour : 2011"}}, {"type": "way", "id": 125210102, "nodes": [1391291517, 4947500783, 1391291300, 5892413116, 5892413115, 1391291562, 1391291713, 1391291752, 1391291587, 1391291560, 1391291517], "tags": {"addr:postcode": "69009", "brand": "Centre commercial E.Leclerc", "brand:wikidata": "Q1273376", "brand:wikipedia": "fr:E.Leclerc", "building": "retail", "name": "Centre commercial E.Leclerc", "opening_hours": "Mo-Sa 08:30-20:30; Su 08:30-12:30", "operator": "E. Leclerc", "phone": "+33478250154", "shop": "supermarket", "website": "https://www.e.leclerc/mag/e-leclerc-lyon-9eme"}}, {"type": "way", "id": 125550923, "nodes": [1394154887, 2503982589, 1394154884, 1394154717, 1394154716, 1394154718, 1394154719, 1394154739, 1394154782, 1394154887], "tags": {"branch": "Champvert", "brand": "Auchan Supermarch\u00e9", "brand:wikidata": "Q105857776", "building": "retail", "name": "Auchan Supermarch\u00e9", "opening_hours": "Mo-Sa 08:30-20:30; Su 08:30-12:30", "operator": "Auchan", "shop": "supermarket", "source": "cadastre-dgi-fr source : Direction G\u00e9n\u00e9rale des Imp\u00f4ts - Cadastre. Mise \u00e0 jour : 2011", "supermarket": "yes", "supermarket:FR": "supermarch\u00e9"}}, {"type": "way", "id": 374119458, "nodes": [567027587, 567027590, 567027591, 567027586, 567027606, 567027601, 567027587], "tags": {"branch": "Lyon Gerland", "brand": "Super U", "brand:wikidata": "Q2529029", "brand:wikipedia": "fr:Syst\u00e8me U", "building:levels": "2", "building:part": "yes", "contact:website": "https://www.magasins-u.com/magasin/superu-lyongerland", "name": "Super U", "opening_hours": "Mo-Sa 08:00-20:30; Su 08:30-13:00", "operator": "Super U", "phone": "+33 4 78 72 25 27", "ref:FR:SIRET": "52010059500021", "roof:shape": "flat", "shop": "supermarket", "supermarket": "yes", "supermarket:FR": "supermarch\u00e9", "wheelchair": "limited"}}, {"type": "way", "id": 1324402645, "nodes": [12255426285, 12255426281, 12255426280, 12255426342, 12255426341, 12255426340, 12255426339, 12255426338, 12255426337, 12255426284, 12255426285], "tags": {"brand": "Carrefour City", "brand:wikidata": "Q2940187", "indoor": "room", "level": "0", "name": "Carrefour City", "room": "shop", "shop": "supermarket"}}]}