{"version": 0.6, "generator": "Overpass API 0.7.62.1 084b4234", "osm3s": {"timestamp_osm_base": "2024-11-21T13:42:13Z", "copyright": "The data included in this document is from www.openstreetmap.org. The data is made available under ODbL."}, "elements": [{"type": "node", "id": 465249834, "lat": 45.7592637, "lon": 4.8879916, "tags": {"brand": "Carrefour Market", "brand:wikidata": "Q2689639", "brand:wikipedia": "fr:Carrefour Market", "name": "Carrefour Market Grand Cl\u00e9ment", "opening_hours": "Mo-Sa 08:30-20:30; Su 09:00-12:30", "operator": "Carrefour", "payment:cash": "yes", "payment:cheque": "yes", "payment:credit_cards": "yes", "payment:meal_voucher": "yes", "phone": "+33 4 37 56 13 20", "shop": "supermarket", "website": "https://www.carrefour.fr/magasin/market-villeurbanne-grand-clement", "wheelchair": "yes"}}, {"type": "node", "id": 558303990, "lat": 45.7737778, "lon": 4.867083, "tags": {"brand": "Franprix", "brand:wikidata": "Q2420096", "brand:wikipedia": "fr:Franprix", "name": "Franprix", "opening_hours": "Mo-Sa 08:00-21:00; Su 09:30-13:00", "operator": "Franprix", "ref:FR:SIRET": "50067771100029", "shop": "supermarket", "website": "https://www.franprix.fr/magasins/villeurbanne_m6738", "wheelchair": "yes"}}, {"type": "node", "id": 669959309, "lat": 45.7711646, "lon": 4.8655005, "tags": {"brand": "Intermarch\u00e9", "brand:wikidata": "Q3153200", "name": "Intermarch\u00e9", "opening_hours": "Mo-Sa 08:30-20:30; Su 08:30-12:45", "operator": "SAS CALAO 80", "phone": "+33 4 72 82 36 00", "shop": "supermarket", "website": "https://www.intermarche.com/magasins/11676/Villeurbanne-69100/infos-pratiques", "wheelchair": "yes"}}, {"type": "node", "id": 729766206, "lat": 45.7683499, "lon": 4.8810504, "tags": {"brand": "Franprix", "brand:wikidata": "Q2420096", "opening_hours": "Mo-Sa 07:30-21:00; Su 09:00-20:00", "shop": "supermarket", "wheelchair": "yes"}}, {"type": "node", "id": 730495516, "lat": 45.7695806, "lon": 4.8800843, "tags": {"brand": "Monoprix", "brand:wikidata": "Q3321241", "brand:wikipedia": "fr:Monoprix (France)", "check_date:opening_hours": "2024-06-15", "name": "Monoprix", "opening_hours": "Mo-Sa 08:00-21:00; Su 09:00-19:30", "operator": "Groupe Casino", "phone": "+33 4 78 84 55 52", "shop": "supermarket", "website": "https://www.monoprix.fr/320.html", "wheelchair": "yes"}}, {"type": "node", "id": 984741678, "lat": 45.7553594, "lon": 4.8789163}, {"type": "node", "id": 984742276, "lat": 45.7555014, "lon": 4.8787798}, {"type": "node", "id": 984742751, "lat": 45.7553076, "lon": 4.8786772}, {"type": "node", "id": 984750147, "lat": 45.7555159, "lon": 4.8788475}, {"type": "node", "id": 984751592, "lat": 45.7554643, "lon": 4.8786072}, {"type": "node", "id": 984799242, "lat": 45.7694276, "lon": 4.8840069}, {"type": "node", "id": 984799526, "lat": 45.7693549, "lon": 4.8832679}, {"type": "node", "id": 984800331, "lat": 45.7692934, "lon": 4.8839258}, {"type": "node", "id": 984801368, "lat": 45.769815, "lon": 4.8831142}, {"type": "node", "id": 984801648, "lat": 45.7694452, "lon": 4.8840101}, {"type": "node", "id": 984802015, "lat": 45.7693309, "lon": 4.8835201}, {"type": "node", "id": 984802905, "lat": 45.7694576, "lon": 4.8829993}, {"type": "node", "id": 984803172, "lat": 45.7696033, "lon": 4.8840653}, {"type": "node", "id": 984803254, "lat": 45.7694526, "lon": 4.8840116}, {"type": "node", "id": 984803471, "lat": 45.7693091, "lon": 4.8837505, "tags": {"entrance": "main"}}, {"type": "node", "id": 984803497, "lat": 45.7697816, "lon": 4.8843053}, {"type": "node", "id": 984803920, "lat": 45.7693459, "lon": 4.8835113}, {"type": "node", "id": 984804429, "lat": 45.7694019, "lon": 4.8840022}, {"type": "node", "id": 984804486, "lat": 45.7697652, "lon": 4.8844537}, {"type": "node", "id": 984804566, "lat": 45.7694264, "lon": 4.8840208}, {"type": "node", "id": 984805810, "lat": 45.7694233, "lon": 4.8829554}, {"type": "node", "id": 984805980, "lat": 45.7697782, "lon": 4.8843048}, {"type": "node", "id": 984806107, "lat": 45.7696521, "lon": 4.8842303}, {"type": "node", "id": 984806592, "lat": 45.7693373, "lon": 4.8834509}, {"type": "node", "id": 984806754, "lat": 45.7693527, "lon": 4.8832674}, {"type": "node", "id": 984807061, "lat": 45.7698181, "lon": 4.8830787}, {"type": "node", "id": 984808159, "lat": 45.7693512, "lon": 4.8834535}, {"type": "node", "id": 984808412, "lat": 45.7692966, "lon": 4.8839602}, {"type": "node", "id": 984809006, "lat": 45.7693995, "lon": 4.882952}, {"type": "node", "id": 984809668, "lat": 45.7695903, "lon": 4.8842176}, {"type": "node", "id": 984809808, "lat": 45.7694522, "lon": 4.8840175}, {"type": "node", "id": 984811265, "lat": 45.769332, "lon": 4.8835082}, {"type": "node", "id": 984811921, "lat": 45.7692944, "lon": 4.8839817}, {"type": "node", "id": 984813419, "lat": 45.7695867, "lon": 4.8840368}, {"type": "node", "id": 984813674, "lat": 45.7694066, "lon": 4.8840168}, {"type": "node", "id": 984813964, "lat": 45.7694047, "lon": 4.8829527}, {"type": "node", "id": 984814702, "lat": 45.7693765, "lon": 4.8830312}, {"type": "node", "id": 984817141, "lat": 45.7696243, "lon": 4.8845395}, {"type": "node", "id": 984819055, "lat": 45.7694534, "lon": 4.8830453}, {"type": "node", "id": 984820883, "lat": 45.7692993, "lon": 4.8839269}, {"type": "node", "id": 984822181, "lat": 45.7698573, "lon": 4.8831224}, {"type": "node", "id": 984822610, "lat": 45.7694448, "lon": 4.8840155}, {"type": "node", "id": 984823814, "lat": 45.7694205, "lon": 4.8829921}, {"type": "node", "id": 984824090, "lat": 45.7695845, "lon": 4.8840613}, {"type": "node", "id": 984824182, "lat": 45.7694078, "lon": 4.8840033}, {"type": "node", "id": 984824659, "lat": 45.7698873, "lon": 4.883128}, {"type": "node", "id": 984824816, "lat": 45.7697775, "lon": 4.8843103}, {"type": "node", "id": 984825000, "lat": 45.7698604, "lon": 4.8830865}, {"type": "node", "id": 985946532, "lat": 45.7636641, "lon": 4.8895901}, {"type": "node", "id": 985948061, "lat": 45.7642831, "lon": 4.8896503}, {"type": "node", "id": 985952116, "lat": 45.7642701, "lon": 4.8899131}, {"type": "node", "id": 985953437, "lat": 45.7636517, "lon": 4.8898528}, {"type": "node", "id": 988169619, "lat": 45.7677122, "lon": 4.8939038}, {"type": "node", "id": 988169771, "lat": 45.7676693, "lon": 4.8936351}, {"type": "node", "id": 988169888, "lat": 45.7671569, "lon": 4.8936139}, {"type": "node", "id": 988171714, "lat": 45.7676693, "lon": 4.893633}, {"type": "node", "id": 988172441, "lat": 45.767127, "lon": 4.8936582}, {"type": "node", "id": 988173363, "lat": 45.767715, "lon": 4.8936369}, {"type": "node", "id": 1028229169, "lat": 45.776989, "lon": 4.8748198, "tags": {"brand": "Carrefour Market", "brand:wikidata": "Q2689639", "brand:wikipedia": "fr:Carrefour Market", "name": "Carrefour Market Villeurbanne - Salengro", "opening_hours": "Mo-Fr 08:30-21:00; Sa 08:30-20:00; Su 08:30-12:30", "phone": "+33 4 78 93 61 09", "shop": "supermarket", "website": "https://www.carrefour.fr/magasin/market-villeurbanne-salengro", "wheelchair": "yes", "wikidata": "Q59546075"}}, {"type": "node", "id": 1421738019, "lat": 45.7700976, "lon": 4.8804855, "tags": {"brand": "L'Eau Vive", "brand:website": "https://www.eau-vive.com/magasin-bio/", "brand:wikidata": "Q89200423", "name": "L'Eau Vive", "opening_hours": "Mo-Sa 09:00-19:30", "operator": "L'Eau Vive", "organic": "only", "phone": "+33 4 78 68 09 87", "shop": "supermarket", "takeaway:covid19": "yes", "website": "https://www.eau-vive.com/", "wheelchair": "yes", "wheelchair:description": "via Parking"}}, {"type": "node", "id": 1428908287, "lat": 45.7708318, "lon": 4.8731546, "tags": {"brand": "Carrefour City", "brand:wikidata": "Q2940187", "check_date:opening_hours": "2024-06-01", "name": "Carrefour City", "opening_hours": "Mo-Sa 07:00-21:00; Su 09:00-13:00", "phone": "+33 4 72 82 31 49", "ref:FR:SIRET": "79807888700030", "shop": "supermarket", "website": "https://www.carrefour.fr/magasin/city-villeurbanne-zola", "wheelchair": "yes"}}, {"type": "node", "id": 1429020195, "lat": 45.7696261, "lon": 4.8763165, "tags": {"diet:kosher": "yes", "fixme": "V\u00e9rifier le nom, il se peut qu'il soit chang\u00e9 en DKMarket", "name": "Lillymarket", "opening_hours": "Mo-Th 10:00-12:30, 15:00-19:00; Fr,Su 10:00-13:30", "phone": "+33 478 03 24 79", "shop": "supermarket", "wheelchair": "no"}}, {"type": "node", "id": 1430159646, "lat": 45.7654781, "lon": 4.8788595, "tags": {"brand": "Carrefour City", "brand:wikidata": "Q2940187", "name": "Carrefour City", "opening_hours": "Mo-Sa 07:00-21:00; Su 09:00-13:00", "phone": "+33478032191", "ref:FR:SIRET": "85002021500016", "shop": "supermarket", "website": "https://www.carrefour.fr/magasin/city-villeurbanne-servet", "wheelchair": "yes"}}, {"type": "node", "id": 1460489223, "lat": 45.7629714, "lon": 4.8778269, "tags": {"brand": "Casino", "brand:wikidata": "Q89029184", "name": "Casino", "opening_hours": "Mo-Fr 7:30-20:00, Sa 7:30-14:00, 16:00-20:00, Su 8:30-12:00", "shop": "supermarket", "wheelchair": "yes"}}, {"type": "node", "id": 1476380051, "lat": 45.7643355, "lon": 4.8723125, "tags": {"brand": "Intermarch\u00e9", "brand:wikidata": "Q3153200", "brand:wikipedia": "fr:Intermarch\u00e9", "name": "Intermarch\u00e9", "opening_hours": "Mo-Sa 08:30-21:00; Su 09:00-12:30", "operator": "Groupement des Mousquetaires", "shop": "supermarket", "source": "survey"}}, {"type": "node", "id": 2623015182, "lat": 45.7661429, "lon": 4.9000768, "tags": {"brand": "Casino", "brand:wikidata": "Q89029184", "name": "Casino", "opening_hours": "Mo-Sa 08:00-20:00; Su 09:00-12:00", "shop": "supermarket"}}, {"type": "node", "id": 3799398685, "lat": 45.7562389, "lon": 4.8913121, "tags": {"brand": "Intermarch\u00e9", "brand:wikidata": "Q3153200", "brand:wikipedia": "fr:Intermarch\u00e9", "name": "Intermarch\u00e9 Express", "opening_hours": "Mo-Sa 08:00-20:30, Su 09:00-19:00", "operator": "Groupement des Mousquetaires", "phone": "+33 4 37567860", "ref:FR:SIRET": "79308223100028", "shop": "supermarket", "website": "https://www.intermarche.com/magasins/07042/villeurbanne-69100/infos-pratiques"}}, {"type": "node", "id": 4827409800, "lat": 45.7629014, "lon": 4.8780408, "tags": {"name": "ES Market", "opening_hours": "Mo-Fr 9:30-12:30, 15:00-19:30; Sa-Su 9:00-19:30", "origin": "turkish", "shop": "supermarket"}}, {"type": "node", "id": 6518700385, "lat": 45.7696662, "lon": 4.8631647, "tags": {"brand": "Carrefour City", "brand:wikidata": "Q2940187", "brand:wikipedia": "fr:Carrefour City", "name": "Carrefour City", "opening_hours": "Mo-Sa 07:00-21:00; Su 09:00-12:45", "phone": "+33 4 72 74 46 21", "ref:FR:SIRET": "85242404300010", "shop": "supermarket", "website": "https://www.carrefour.fr/magasin/city-villeurbanne-bellecombe", "wheelchair": "yes"}}, {"type": "node", "id": 6964544634, "lat": 45.7708901, "lon": 4.8654859, "tags": {"brand": "Naturalia", "brand:wikidata": "Q3337081", "brand:wikipedia": "fr:Naturalia", "bulk_purchase": "yes", "check_date:opening_hours": "2024-06-01", "diet:gluten_free": "yes", "diet:organic": "yes", "diet:vegan": "yes", "diet:vegetarian": "yes", "name": "Naturalia", "opening_hours": "Mo-Sa 09:00-20:00; Su 09:00-19:30", "phone": "+33 4 26 78 78 30", "ref:FR:SIRET": "30247464802140", "shop": "supermarket", "stroller": "yes", "website": "https://naturalia.fr/", "wheelchair": "yes"}}, {"type": "node", "id": 7247149270, "lat": 45.7622164, "lon": 4.89438, "tags": {"addr:city": "Villeurbanne", "addr:housenumber": "50", "addr:postcode": "69100", "addr:street": "Rue du Progr\u00e8s", "name": "Capturons-vos-moments.com", "opening_hours": "Mo-Su 09:00-21:00", "operator": "INFOPICT SAS", "payment:american_express": "yes", "payment:cash": "yes", "payment:credit_cards": "yes", "payment:mastercard": "yes", "payment:visa": "yes", "shop": "supermarket"}}, {"type": "node", "id": 7275631059, "lat": 45.7588654, "lon": 4.8791149, "tags": {"description:covid19": "propose \u00e9galement du pain", "name": "Superette", "note": "Vrai nom sur la devanture", "shop": "supermarket"}}, {"type": "node", "id": 7576176578, "lat": 45.7694017, "lon": 4.8808049, "tags": {"branch": "des Gratte Ciel", "brand": "Biocoop", "brand:wikidata": "Q2904039", "brand:wikipedia": "fr:Biocoop", "bulk_purchase": "yes", "check_date:opening_hours": "2024-06-15", "contact:city": "Villeurbanne", "contact:housenumber": "181", "contact:phone": "+33 4 28 70 98 25", "contact:postcode": "69100", "contact:street": "Cours Emile Zola", "name": "Biocoop", "opening_date": "2020-09-24", "opening_hours": "Mo-Sa 09:00-19:30", "organic": "only", "phone": "+33 4 28 70 98 25", "ref:FR:SIRET": "87945415500026", "shop": "supermarket", "website": "https://www.biocoopdesgratteciel.fr", "wheelchair": "yes"}}, {"type": "node", "id": 7942432436, "lat": 45.763529, "lon": 4.8725306, "tags": {"brand": "Biocoop", "brand:website": "https://www.biocoop.fr/", "brand:wikidata": "Q2904039", "bulk_purchase": "yes", "contact:city": "Villeurbanne", "contact:housenumber": "18", "contact:phone": "+33 4 87 25 58 84", "contact:postcode": "69100", "contact:street": "Rue De La Convention", "name": "Biocoop", "official_name": "Biocoop Totem", "opening_hours": "Mo 12:00-19:30; Tu-Sa 09:30-19:30", "organic": "only", "shop": "supermarket", "website": "https://www.biocooptotem.fr", "wheelchair": "yes"}}, {"type": "node", "id": 8072633999, "lat": 45.7676655, "lon": 4.893901}, {"type": "node", "id": 8072634005, "lat": 45.7677123, "lon": 4.8938932}, {"type": "node", "id": 8433377261, "lat": 45.7651493, "lon": 4.8727945, "tags": {"brand": "Aldi", "brand:wikidata": "Q41171373", "brand:wikipedia": "en:Aldi", "name": "Aldi", "opening_hours": "Mo-Sa 08:30-20:00; Su 08:30-12:30", "shop": "supermarket"}}, {"type": "node", "id": 9127060274, "lat": 45.7822474, "lon": 4.8889878, "tags": {"brand": "La Vie Claire", "brand:wikidata": "Q3213589", "brand:wikipedia": "fr:La Vie claire", "name": "La Vie Claire", "opening_hours": "Mo-Sa 09:00-19:30", "organic": "only", "phone": "+33 4 72 60 61 60", "shop": "supermarket", "website": "https://magasins.lavieclaire.com/lavieclaire/fr/store/france/auvergne-rhone-alpes/rhone/villeurbanne/villeurbanne-salengro/26910"}}, {"type": "node", "id": 9587679697, "lat": 45.7697662, "lon": 4.8844537}, {"type": "node", "id": 9587679698, "lat": 45.7697563, "lon": 4.8845634}, {"type": "node", "id": 9898402965, "lat": 45.7753595, "lon": 4.8697228, "tags": {"brand": "Intermarch\u00e9", "brand:wikidata": "Q3153200", "name": "Intermarch\u00e9", "opening_hours": "Mo-Sa 08:30-20:30; Su 09:00-13:00", "phone": "+33 4 72 44 22 63", "shop": "supermarket", "website": "https://www.intermarche.com/magasins/07583/salengro-69100/infos-pratiques", "wheelchair": "yes"}}, {"type": "node", "id": 11076808481, "lat": 45.755334, "lon": 4.8787992}, {"type": "node", "id": 11076808482, "lat": 45.7553267, "lon": 4.8787653}, {"type": "node", "id": 11243598849, "lat": 45.7755655, "lon": 4.8699788, "tags": {"brand": "Biocoop", "brand:wikidata": "Q2904039", "brand:wikipedia": "fr:Biocoop", "bulk_purchase": "yes", "contact:city": "Villeurbanne", "contact:housenumber": "29", "contact:postcode": "69100", "contact:street": "Avenue Roger Salengro", "name": "Biocoop Salengro", "official_name": "Biocoop Salengro", "opening_hours": "Mo 12:00-19:30; Tu-Sa 09:30-19:30", "organic": "only", "phone": "+33 4 37 47 27 15", "ref:FR:SIRET": "45189800100032", "shop": "supermarket", "survey:date": "2023-10-06", "website": "https://www.biocoopsalengro.fr", "wheelchair": "yes"}}, {"type": "node", "id": 11980460789, "lat": 45.7671058, "lon": 4.8938933}, {"type": "node", "id": 11980460790, "lat": 45.767664, "lon": 4.8940759}, {"type": "node", "id": 11980460791, "lat": 45.767085, "lon": 4.8940652}, {"type": "node", "id": 11980460792, "lat": 45.767527, "lon": 4.8940733}, {"type": "node", "id": 11980460795, "lat": 45.7674431, "lon": 4.8940718}, {"type": "node", "id": 11980460796, "lat": 45.7673727, "lon": 4.8940705}, {"type": "node", "id": 11980460799, "lat": 45.7671431, "lon": 4.8940663}, {"type": "node", "id": 12156040024, "lat": 45.7812495, "lon": 4.891176, "tags": {"brand": "Intermarch\u00e9 Express", "brand:wikidata": "Q98278043", "name": "Intermarch\u00e9 Express", "shop": "supermarket"}}, {"type": "way", "id": 84810803, "nodes": [984751592, 984742751, 11076808482, 11076808481, 984741678, 984750147, 984742276, 984751592], "tags": {"brand": "Carrefour City", "brand:wikidata": "Q2940187", "building": "retail", "name": "Carrefour City", "opening_hours": "Mo-Sa 07:00-22:00; Su 09:00-13:00", "phone": "+33 4 72 35 04 58", "ref:FR:SIRET": "80033242100042", "shop": "supermarket", "source": "cadastre-dgi-fr source : Direction G\u00e9n\u00e9rale des Imp\u00f4ts - Cadastre. Mise \u00e0 jour : 2010", "website": "https://www.carrefour.fr/magasin/city-villeurbanne-genas"}}, {"type": "way", "id": 84818012, "nodes": [984803497, 984824659, 984822181, 984825000, 984807061, 984801368, 984819055, 984802905, 984823814, 984805810, 984813964, 984809006, 984814702, 984799526, 984806754, 984806592, 984808159, 984803920, 984811265, 984802015, 984803471, 984800331, 984820883, 984808412, 984811921, 984804429, 984824182, 984813674, 984804566, 984799242, 984801648, 984822610, 984809808, 984803254, 984813419, 984824090, 984803172, 984809668, 984806107, 984817141, 9587679698, 9587679697, 984804486, 984824816, 984805980, 984803497], "tags": {"branch": "Villeurbanne", "brand": "Carrefour", "brand:wikidata": "Q217599", "brand:wikipedia": "fr:Carrefour (enseigne)", "building": "retail", "building:levels": "3", "name": "Carrefour", "opening_hours": "Mo-Sa 08:30-21:00; Su 08:30-12:30", "phone": "+33 4 72 65 87 79", "roof:levels": "0", "roof:shape": "many", "shop": "supermarket", "website": "https://www.carrefour.fr/magasin/villeurbanne", "wheelchair": "yes"}}, {"type": "way", "id": 84951400, "nodes": [985946532, 985953437, 985952116, 985948061, 985946532], "tags": {"brand": "Casino", "brand:wikidata": "Q89029184", "building": "retail", "building:levels": "1", "name": "Casino", "opening_hours": "Mo-Su 07:00-21:00; Su 09:00-12:30", "phone": "+33 4 37 43 15 00", "shop": "supermarket", "source": "cadastre-dgi-fr source : Direction G\u00e9n\u00e9rale des Imp\u00f4ts - Cadastre. Mise \u00e0 jour : 2010", "supermarket": "yes", "supermarket:FR": "supermarch\u00e9", "website": "https://magasins.supercasino.fr/supermarche/villeurbanne-perraliere/CM899"}}, {"type": "way", "id": 85212171, "nodes": [988171714, 988169888, 988172441, 11980460789, 8072633999, 988169619, 8072634005, 988173363, 988169771, 988171714], "tags": {"addr:postcode": "69100", "branch": "Villeurbanne", "brand": "Super U", "brand:wikidata": "Q2529029", "brand:wikipedia": "fr:Syst\u00e8me U", "building": "retail", "building:levels": "3", "contact:website": "https://www.magasins-u.com/magasin/superu-villeurbanne", "name": "Super U", "opening_hours": "Mo-Sa 08:00-20:30; Su 08:30-12:45", "phone": "+33 4 72 56 81 13", "roof:shape": "many", "shop": "supermarket", "source": "cadastre-dgi-fr source : Direction G\u00e9n\u00e9rale des Imp\u00f4ts - Cadastre. Mise \u00e0 jour : 2010", "supermarket": "yes", "supermarket:FR": "supermarch\u00e9"}}, {"type": "way", "id": 1292323996, "nodes": [8072633999, 11980460790, 11980460792, 11980460795, 11980460796, 11980460799, 11980460791, 11980460789, 8072633999], "tags": {"brand": "Lidl", "brand:wikidata": "Q151954", "building": "yes", "name": "Lidl", "shop": "supermarket"}}]}